{
"type": "FeatureCollection",
"name": "Limites SL",
"crs": { "type": "name", "properties": { "name": "urn:ogc:def:crs:OGC:1.3:CRS84" } },
"xy_coordinate_resolution": 1e-06,
"features": [
{ "type": "Feature", "properties": { "fid": 1 }, "geometry": { "type": "MultiPolygon", "coordinates": [ [ [ [ 5.970534, 47.957201 ], [ 5.969023, 47.947505 ], [ 5.962438, 47.944998 ], [ 5.960326, 47.943533 ], [ 5.960022, 47.942011 ], [ 5.953718, 47.93703 ], [ 5.9511, 47.936663 ], [ 5.949358, 47.935448 ], [ 5.947102, 47.936288 ], [ 5.937238, 47.936981 ], [ 5.935824, 47.936253 ], [ 5.93422, 47.937356 ], [ 5.928684, 47.938115 ], [ 5.932253, 47.941503 ], [ 5.932321, 47.943742 ], [ 5.933282, 47.943827 ], [ 5.934, 47.945516 ], [ 5.937314, 47.947934 ], [ 5.938154, 47.951713 ], [ 5.941838, 47.952386 ], [ 5.946452, 47.955169 ], [ 5.946644, 47.957009 ], [ 5.947461, 47.957017 ], [ 5.947797, 47.958527 ], [ 5.949226, 47.958414 ], [ 5.951815, 47.96108 ], [ 5.953821, 47.961018 ], [ 5.956403, 47.964516 ], [ 5.959912, 47.965996 ], [ 5.960132, 47.968025 ], [ 5.958488, 47.968481 ], [ 5.958827, 47.970496 ], [ 5.949544, 47.972943 ], [ 5.950082, 47.975646 ], [ 5.947528, 47.979712 ], [ 5.946692, 47.979243 ], [ 5.944198, 47.98004 ], [ 5.943471, 47.979208 ], [ 5.936887, 47.979005 ], [ 5.933827, 47.976536 ], [ 5.932686, 47.977381 ], [ 5.922533, 47.971974 ], [ 5.919099, 47.968794 ], [ 5.919948, 47.968452 ], [ 5.918835, 47.966866 ], [ 5.917384, 47.966235 ], [ 5.919903, 47.962872 ], [ 5.919036, 47.959973 ], [ 5.919964, 47.95981 ], [ 5.920483, 47.956598 ], [ 5.918624, 47.956224 ], [ 5.918767, 47.954332 ], [ 5.917405, 47.950002 ], [ 5.918016, 47.947441 ], [ 5.909991, 47.946861 ], [ 5.899556, 47.944449 ], [ 5.89521, 47.940536 ], [ 5.892904, 47.937141 ], [ 5.89342, 47.935865 ], [ 5.895843, 47.935026 ], [ 5.89766, 47.930943 ], [ 5.890513, 47.927491 ], [ 5.884746, 47.926183 ], [ 5.884755, 47.929511 ], [ 5.883169, 47.93082 ], [ 5.881692, 47.930775 ], [ 5.881443, 47.933032 ], [ 5.878495, 47.934022 ], [ 5.875259, 47.938329 ], [ 5.872815, 47.937921 ], [ 5.86974, 47.939328 ], [ 5.868646, 47.944988 ], [ 5.863433, 47.94618 ], [ 5.857591, 47.945064 ], [ 5.857388, 47.947909 ], [ 5.856474, 47.949315 ], [ 5.853051, 47.950229 ], [ 5.854047, 47.951099 ], [ 5.852424, 47.953893 ], [ 5.854115, 47.955147 ], [ 5.850864, 47.957631 ], [ 5.849675, 47.959916 ], [ 5.850232, 47.962241 ], [ 5.849087, 47.964165 ], [ 5.849485, 47.965098 ], [ 5.854224, 47.965811 ], [ 5.853557, 47.969882 ], [ 5.848675, 47.969039 ], [ 5.8465, 47.969599 ], [ 5.845776, 47.970791 ], [ 5.845834, 47.975695 ], [ 5.842808, 47.975561 ], [ 5.840536, 47.971623 ], [ 5.84003, 47.965022 ], [ 5.831575, 47.957759 ], [ 5.828585, 47.957127 ], [ 5.827863, 47.958365 ], [ 5.822785, 47.958606 ], [ 5.815268, 47.95739 ], [ 5.811101, 47.955173 ], [ 5.811527, 47.953495 ], [ 5.808465, 47.952776 ], [ 5.809335, 47.948699 ], [ 5.805269, 47.946975 ], [ 5.804028, 47.947564 ], [ 5.804211, 47.949195 ], [ 5.803335, 47.950014 ], [ 5.798132, 47.950516 ], [ 5.795271, 47.949791 ], [ 5.794468, 47.95184 ], [ 5.790909, 47.951309 ], [ 5.787282, 47.952594 ], [ 5.786999, 47.953411 ], [ 5.788378, 47.954001 ], [ 5.78629, 47.95563 ], [ 5.787315, 47.957227 ], [ 5.786212, 47.95879 ], [ 5.786649, 47.959317 ], [ 5.784633, 47.960277 ], [ 5.78401, 47.962005 ], [ 5.782863, 47.961905 ], [ 5.785913, 47.96447 ], [ 5.784737, 47.96698 ], [ 5.782705, 47.96767 ], [ 5.780371, 47.969899 ], [ 5.78101, 47.970465 ], [ 5.780849, 47.97209 ], [ 5.779046, 47.974259 ], [ 5.77933, 47.976546 ], [ 5.778487, 47.978011 ], [ 5.785269, 47.981277 ], [ 5.788634, 47.983517 ], [ 5.789124, 47.984853 ], [ 5.793227, 47.987117 ], [ 5.792004, 47.988909 ], [ 5.794981, 47.993412 ], [ 5.794679, 47.998011 ], [ 5.786781, 48.00234 ], [ 5.786256, 48.004561 ], [ 5.787609, 48.007806 ], [ 5.785594, 48.012906 ], [ 5.783075, 48.015411 ], [ 5.780686, 48.020927 ], [ 5.779166, 48.022322 ], [ 5.776422, 48.022402 ], [ 5.776088, 48.024482 ], [ 5.777745, 48.031365 ], [ 5.77682, 48.033642 ], [ 5.775048, 48.031174 ], [ 5.770538, 48.029911 ], [ 5.7645, 48.02991 ], [ 5.764413, 48.034771 ], [ 5.761312, 48.035582 ], [ 5.760045, 48.037779 ], [ 5.754221, 48.0408 ], [ 5.748892, 48.042739 ], [ 5.744854, 48.047763 ], [ 5.740572, 48.050048 ], [ 5.735956, 48.049237 ], [ 5.726957, 48.046032 ], [ 5.725038, 48.044377 ], [ 5.720829, 48.044187 ], [ 5.720194, 48.050458 ], [ 5.721279, 48.052722 ], [ 5.71708, 48.055273 ], [ 5.717095, 48.057612 ], [ 5.716233, 48.057773 ], [ 5.715431, 48.059911 ], [ 5.715733, 48.061477 ], [ 5.712761, 48.061203 ], [ 5.709193, 48.065359 ], [ 5.69872, 48.066793 ], [ 5.698587, 48.069486 ], [ 5.69683, 48.072461 ], [ 5.697066, 48.076145 ], [ 5.696323, 48.077751 ], [ 5.69176, 48.075082 ], [ 5.689481, 48.075147 ], [ 5.687253, 48.076021 ], [ 5.683834, 48.079607 ], [ 5.68287, 48.079245 ], [ 5.681047, 48.080737 ], [ 5.675069, 48.081904 ], [ 5.675221, 48.079019 ], [ 5.673324, 48.078758 ], [ 5.669822, 48.081782 ], [ 5.668074, 48.08132 ], [ 5.666923, 48.08371 ], [ 5.665141, 48.08421 ], [ 5.663026, 48.083686 ], [ 5.662094, 48.084883 ], [ 5.658492, 48.085094 ], [ 5.657524, 48.086283 ], [ 5.653177, 48.084055 ], [ 5.652797, 48.08015 ], [ 5.65393, 48.080028 ], [ 5.654736, 48.077891 ], [ 5.657659, 48.076323 ], [ 5.661177, 48.072488 ], [ 5.658526, 48.070898 ], [ 5.659135, 48.068856 ], [ 5.655929, 48.069127 ], [ 5.647581, 48.071972 ], [ 5.645673, 48.074726 ], [ 5.646752, 48.075866 ], [ 5.645097, 48.077308 ], [ 5.645831, 48.078322 ], [ 5.644161, 48.079539 ], [ 5.642298, 48.078737 ], [ 5.640928, 48.08044 ], [ 5.638869, 48.080813 ], [ 5.63774, 48.08206 ], [ 5.633204, 48.080433 ], [ 5.633956, 48.081717 ], [ 5.630365, 48.084065 ], [ 5.629687, 48.083648 ], [ 5.629197, 48.08472 ], [ 5.630489, 48.086056 ], [ 5.633684, 48.087307 ], [ 5.633462, 48.09043 ], [ 5.636054, 48.090231 ], [ 5.636712, 48.088094 ], [ 5.638667, 48.088881 ], [ 5.637943, 48.09045 ], [ 5.63846, 48.091111 ], [ 5.637591, 48.09147 ], [ 5.639283, 48.094887 ], [ 5.637395, 48.09584 ], [ 5.637728, 48.097946 ], [ 5.643159, 48.100028 ], [ 5.643034, 48.101127 ], [ 5.653385, 48.107141 ], [ 5.656568, 48.105874 ], [ 5.660207, 48.106042 ], [ 5.665407, 48.106479 ], [ 5.666281, 48.107534 ], [ 5.667503, 48.106645 ], [ 5.67157, 48.108616 ], [ 5.671914, 48.109438 ], [ 5.669649, 48.110858 ], [ 5.670349, 48.112369 ], [ 5.667902, 48.112978 ], [ 5.668313, 48.115217 ], [ 5.667564, 48.116138 ], [ 5.661593, 48.115227 ], [ 5.660733, 48.115767 ], [ 5.661523, 48.117057 ], [ 5.661009, 48.117674 ], [ 5.659285, 48.118037 ], [ 5.658218, 48.119238 ], [ 5.657132, 48.119089 ], [ 5.658006, 48.120094 ], [ 5.656553, 48.120545 ], [ 5.657988, 48.121989 ], [ 5.659013, 48.121195 ], [ 5.659274, 48.122133 ], [ 5.661789, 48.123637 ], [ 5.660887, 48.124248 ], [ 5.662518, 48.128791 ], [ 5.666626, 48.129979 ], [ 5.666829, 48.131054 ], [ 5.668662, 48.132396 ], [ 5.668287, 48.132857 ], [ 5.67178, 48.132567 ], [ 5.677489, 48.137009 ], [ 5.676816, 48.138015 ], [ 5.67484, 48.138463 ], [ 5.676864, 48.145123 ], [ 5.684281, 48.145045 ], [ 5.685017, 48.146369 ], [ 5.685352, 48.150621 ], [ 5.680843, 48.150724 ], [ 5.684693, 48.153819 ], [ 5.684094, 48.158414 ], [ 5.686349, 48.165065 ], [ 5.685733, 48.167335 ], [ 5.683, 48.17027 ], [ 5.683323, 48.173406 ], [ 5.682239, 48.175705 ], [ 5.679642, 48.179289 ], [ 5.687059, 48.180326 ], [ 5.697176, 48.189317 ], [ 5.70182, 48.190445 ], [ 5.710975, 48.189418 ], [ 5.711712, 48.190432 ], [ 5.716879, 48.189158 ], [ 5.723581, 48.190811 ], [ 5.727141, 48.189673 ], [ 5.73098, 48.189697 ], [ 5.731328, 48.194052 ], [ 5.730249, 48.195073 ], [ 5.729717, 48.198313 ], [ 5.728029, 48.198983 ], [ 5.721158, 48.206979 ], [ 5.718242, 48.214499 ], [ 5.715297, 48.216878 ], [ 5.71214, 48.218049 ], [ 5.710848, 48.219931 ], [ 5.697453, 48.22738 ], [ 5.693249, 48.231144 ], [ 5.687733, 48.234429 ], [ 5.682663, 48.232829 ], [ 5.680842, 48.230688 ], [ 5.676943, 48.228909 ], [ 5.662804, 48.235339 ], [ 5.645864, 48.239912 ], [ 5.641534, 48.241753 ], [ 5.640897, 48.242355 ], [ 5.644295, 48.250935 ], [ 5.648717, 48.253941 ], [ 5.651134, 48.256592 ], [ 5.653814, 48.268522 ], [ 5.645935, 48.271821 ], [ 5.643322, 48.275044 ], [ 5.626052, 48.283195 ], [ 5.611651, 48.291814 ], [ 5.608884, 48.288741 ], [ 5.604198, 48.287116 ], [ 5.598656, 48.283859 ], [ 5.588429, 48.273758 ], [ 5.584066, 48.267169 ], [ 5.581492, 48.265544 ], [ 5.577651, 48.261421 ], [ 5.569006, 48.260011 ], [ 5.563367, 48.254002 ], [ 5.557202, 48.265543 ], [ 5.543526, 48.261791 ], [ 5.542906, 48.266017 ], [ 5.541974, 48.267302 ], [ 5.537933, 48.268456 ], [ 5.531437, 48.273321 ], [ 5.523525, 48.275119 ], [ 5.522719, 48.27937 ], [ 5.51981, 48.280304 ], [ 5.518416, 48.28179 ], [ 5.518202, 48.28247 ], [ 5.519099, 48.282806 ], [ 5.511122, 48.293371 ], [ 5.512605, 48.293635 ], [ 5.508086, 48.301785 ], [ 5.506655, 48.307996 ], [ 5.502895, 48.313631 ], [ 5.500207, 48.315827 ], [ 5.501684, 48.317947 ], [ 5.500076, 48.318125 ], [ 5.506638, 48.322663 ], [ 5.508914, 48.322378 ], [ 5.511787, 48.319681 ], [ 5.517972, 48.322664 ], [ 5.523545, 48.322234 ], [ 5.533514, 48.325104 ], [ 5.530361, 48.329599 ], [ 5.526511, 48.331737 ], [ 5.524233, 48.334003 ], [ 5.525293, 48.338113 ], [ 5.522399, 48.341341 ], [ 5.526527, 48.346854 ], [ 5.524033, 48.34808 ], [ 5.506289, 48.350351 ], [ 5.49776, 48.355786 ], [ 5.491177, 48.354734 ], [ 5.487277, 48.356097 ], [ 5.484692, 48.355771 ], [ 5.484886, 48.356755 ], [ 5.483536, 48.356031 ], [ 5.480631, 48.356691 ], [ 5.474469, 48.35469 ], [ 5.474067, 48.352569 ], [ 5.468954, 48.349038 ], [ 5.461813, 48.352272 ], [ 5.459879, 48.348765 ], [ 5.453619, 48.345646 ], [ 5.445417, 48.337549 ], [ 5.439725, 48.335099 ], [ 5.42892, 48.332648 ], [ 5.426047, 48.331059 ], [ 5.42384, 48.335759 ], [ 5.418224, 48.339829 ], [ 5.416975, 48.342696 ], [ 5.41767, 48.34717 ], [ 5.419882, 48.348301 ], [ 5.422722, 48.351579 ], [ 5.419663, 48.353513 ], [ 5.417535, 48.357257 ], [ 5.418917, 48.359876 ], [ 5.41856, 48.360694 ], [ 5.42208, 48.364067 ], [ 5.423866, 48.367059 ], [ 5.427302, 48.366362 ], [ 5.430922, 48.369923 ], [ 5.433018, 48.370727 ], [ 5.431518, 48.371593 ], [ 5.436535, 48.375142 ], [ 5.436203, 48.376365 ], [ 5.442878, 48.379383 ], [ 5.441577, 48.380227 ], [ 5.428878, 48.382459 ], [ 5.409945, 48.383207 ], [ 5.407418, 48.382732 ], [ 5.393632, 48.39171 ], [ 5.401955, 48.393639 ], [ 5.407502, 48.392117 ], [ 5.412351, 48.393439 ], [ 5.416156, 48.396743 ], [ 5.419798, 48.395157 ], [ 5.42242, 48.397 ], [ 5.421177, 48.398919 ], [ 5.428271, 48.401685 ], [ 5.435878, 48.408279 ], [ 5.439903, 48.408909 ], [ 5.443124, 48.410608 ], [ 5.444686, 48.414055 ], [ 5.446671, 48.41548 ], [ 5.453583, 48.415228 ], [ 5.459335, 48.416398 ], [ 5.466027, 48.42016 ], [ 5.470068, 48.420895 ], [ 5.468886, 48.421731 ], [ 5.468347, 48.423769 ], [ 5.464656, 48.425352 ], [ 5.459972, 48.422612 ], [ 5.457226, 48.422111 ], [ 5.450762, 48.422678 ], [ 5.449803, 48.423603 ], [ 5.445941, 48.424569 ], [ 5.444678, 48.425862 ], [ 5.44204, 48.432033 ], [ 5.438644, 48.435353 ], [ 5.436462, 48.436129 ], [ 5.43628, 48.433616 ], [ 5.432794, 48.432086 ], [ 5.428301, 48.434309 ], [ 5.42036, 48.440409 ], [ 5.414761, 48.442035 ], [ 5.410271, 48.445008 ], [ 5.409483, 48.444749 ], [ 5.407626, 48.447134 ], [ 5.407616, 48.44953 ], [ 5.406369, 48.451702 ], [ 5.403317, 48.454249 ], [ 5.404021, 48.455162 ], [ 5.403898, 48.458398 ], [ 5.405427, 48.458535 ], [ 5.404359, 48.460127 ], [ 5.406015, 48.460779 ], [ 5.404054, 48.462948 ], [ 5.404701, 48.463287 ], [ 5.404249, 48.463804 ], [ 5.406474, 48.465009 ], [ 5.398169, 48.473926 ], [ 5.395225, 48.472808 ], [ 5.39304, 48.473976 ], [ 5.391992, 48.47323 ], [ 5.389434, 48.474124 ], [ 5.387568, 48.472913 ], [ 5.381171, 48.471117 ], [ 5.374782, 48.472518 ], [ 5.367913, 48.47699 ], [ 5.365086, 48.476259 ], [ 5.36393, 48.477104 ], [ 5.362922, 48.476483 ], [ 5.361028, 48.477726 ], [ 5.357832, 48.477668 ], [ 5.348632, 48.483289 ], [ 5.347962, 48.483021 ], [ 5.344906, 48.49056 ], [ 5.342535, 48.491664 ], [ 5.342589, 48.492607 ], [ 5.341575, 48.492632 ], [ 5.341191, 48.493947 ], [ 5.33928, 48.493681 ], [ 5.337844, 48.495795 ], [ 5.334634, 48.497631 ], [ 5.33245, 48.50061 ], [ 5.328519, 48.502878 ], [ 5.328809, 48.5044 ], [ 5.327276, 48.504799 ], [ 5.328788, 48.509708 ], [ 5.316858, 48.508328 ], [ 5.306025, 48.516163 ], [ 5.301374, 48.511906 ], [ 5.295729, 48.508327 ], [ 5.289151, 48.510525 ], [ 5.286195, 48.515465 ], [ 5.278624, 48.513687 ], [ 5.271112, 48.513556 ], [ 5.269782, 48.516152 ], [ 5.264547, 48.519395 ], [ 5.257907, 48.521727 ], [ 5.237717, 48.526119 ], [ 5.230631, 48.529234 ], [ 5.227194, 48.532114 ], [ 5.221946, 48.526478 ], [ 5.212254, 48.528792 ], [ 5.21258, 48.529549 ], [ 5.211315, 48.529939 ], [ 5.21218, 48.532122 ], [ 5.210909, 48.533638 ], [ 5.206581, 48.535955 ], [ 5.208589, 48.538691 ], [ 5.194898, 48.537711 ], [ 5.194178, 48.541816 ], [ 5.196882, 48.546679 ], [ 5.1912, 48.549209 ], [ 5.187414, 48.549345 ], [ 5.187258, 48.551202 ], [ 5.186169, 48.552352 ], [ 5.173754, 48.555763 ], [ 5.170206, 48.562559 ], [ 5.167156, 48.565015 ], [ 5.165073, 48.565344 ], [ 5.155939, 48.563097 ], [ 5.155507, 48.561931 ], [ 5.153128, 48.560241 ], [ 5.151814, 48.560782 ], [ 5.148896, 48.559667 ], [ 5.146287, 48.560277 ], [ 5.14501, 48.563006 ], [ 5.13073, 48.572942 ], [ 5.127056, 48.576456 ], [ 5.12505, 48.579246 ], [ 5.127061, 48.580098 ], [ 5.125451, 48.582065 ], [ 5.123492, 48.581071 ], [ 5.12259, 48.582677 ], [ 5.11828, 48.584497 ], [ 5.117766, 48.587538 ], [ 5.116983, 48.587858 ], [ 5.1215, 48.59269 ], [ 5.119449, 48.595713 ], [ 5.112007, 48.594096 ], [ 5.104551, 48.594776 ], [ 5.104223, 48.593973 ], [ 5.094838, 48.592863 ], [ 5.088513, 48.593053 ], [ 5.088608, 48.593586 ], [ 5.080841, 48.596577 ], [ 5.075827, 48.595609 ], [ 5.07032, 48.595991 ], [ 5.065896, 48.603677 ], [ 5.063842, 48.610786 ], [ 5.059589, 48.612466 ], [ 5.059013, 48.615508 ], [ 5.059527, 48.620518 ], [ 5.058063, 48.629743 ], [ 5.057017, 48.632465 ], [ 5.054198, 48.633152 ], [ 5.053695, 48.633928 ], [ 5.050761, 48.632295 ], [ 5.043734, 48.625305 ], [ 5.038668, 48.622048 ], [ 5.038793, 48.620561 ], [ 5.036625, 48.619121 ], [ 5.0351, 48.616237 ], [ 5.033115, 48.615007 ], [ 5.032708, 48.613332 ], [ 5.026849, 48.611955 ], [ 5.018918, 48.612078 ], [ 5.013321, 48.610171 ], [ 5.002686, 48.612606 ], [ 4.999507, 48.614598 ], [ 4.996698, 48.61774 ], [ 4.994787, 48.621853 ], [ 4.998694, 48.623478 ], [ 4.996313, 48.625355 ], [ 4.999637, 48.626745 ], [ 4.998199, 48.627781 ], [ 5.005296, 48.631465 ], [ 5.00413, 48.632454 ], [ 5.006173, 48.633658 ], [ 5.004704, 48.634105 ], [ 5.005056, 48.635671 ], [ 5.0029, 48.635989 ], [ 5.004229, 48.636769 ], [ 5.002972, 48.637382 ], [ 5.003859, 48.6388 ], [ 4.998958, 48.640898 ], [ 4.997304, 48.645703 ], [ 4.994681, 48.646166 ], [ 4.995612, 48.65218 ], [ 4.992814, 48.658269 ], [ 4.994239, 48.659586 ], [ 4.995949, 48.659593 ], [ 4.99486, 48.660831 ], [ 4.997965, 48.661841 ], [ 4.997655, 48.662388 ], [ 5.000671, 48.662994 ], [ 4.999248, 48.663026 ], [ 5.011049, 48.667834 ], [ 5.008296, 48.669469 ], [ 5.008076, 48.673117 ], [ 5.008853, 48.675033 ], [ 5.008191, 48.677755 ], [ 5.009092, 48.678094 ], [ 5.007427, 48.680066 ], [ 5.00314, 48.682546 ], [ 4.99902, 48.681657 ], [ 4.988431, 48.684422 ], [ 4.991151, 48.68688 ], [ 4.990162, 48.687385 ], [ 4.99074, 48.688013 ], [ 4.990305, 48.692173 ], [ 4.989429, 48.692941 ], [ 4.990565, 48.693306 ], [ 4.995199, 48.691333 ], [ 4.996792, 48.692753 ], [ 5.002086, 48.694585 ], [ 5.006395, 48.69885 ], [ 5.002631, 48.704699 ], [ 4.998759, 48.707349 ], [ 4.997257, 48.709596 ], [ 5.001759, 48.711284 ], [ 5.011784, 48.706688 ], [ 5.015657, 48.709635 ], [ 5.013629, 48.710954 ], [ 5.012605, 48.715488 ], [ 5.011119, 48.717966 ], [ 5.005636, 48.717889 ], [ 5.004193, 48.719714 ], [ 5.007258, 48.722828 ], [ 5.009393, 48.729156 ], [ 5.005444, 48.734999 ], [ 5.00914, 48.738794 ], [ 5.009219, 48.741389 ], [ 4.999959, 48.741435 ], [ 4.999477, 48.742628 ], [ 4.990123, 48.741835 ], [ 4.982044, 48.745091 ], [ 4.980339, 48.7473 ], [ 4.980218, 48.749601 ], [ 4.978628, 48.752381 ], [ 4.974568, 48.754978 ], [ 4.972253, 48.757592 ], [ 4.964524, 48.758695 ], [ 4.960281, 48.763509 ], [ 4.958045, 48.764635 ], [ 4.956658, 48.767245 ], [ 4.955035, 48.768161 ], [ 4.950134, 48.768814 ], [ 4.946108, 48.774549 ], [ 4.943573, 48.776229 ], [ 4.942729, 48.778376 ], [ 4.938043, 48.782706 ], [ 4.933802, 48.783216 ], [ 4.936969, 48.784215 ], [ 4.937976, 48.785118 ], [ 4.937264, 48.786083 ], [ 4.938323, 48.786943 ], [ 4.936487, 48.789901 ], [ 4.935895, 48.789414 ], [ 4.932489, 48.78935 ], [ 4.934731, 48.789564 ], [ 4.932998, 48.7918 ], [ 4.932532, 48.790712 ], [ 4.929064, 48.791451 ], [ 4.927531, 48.790309 ], [ 4.926273, 48.79159 ], [ 4.92655, 48.79239 ], [ 4.923805, 48.792363 ], [ 4.921288, 48.79073 ], [ 4.922015, 48.789934 ], [ 4.920958, 48.789411 ], [ 4.921704, 48.792801 ], [ 4.918169, 48.79199 ], [ 4.91775, 48.79271 ], [ 4.911985, 48.793548 ], [ 4.911983, 48.79484 ], [ 4.907989, 48.794691 ], [ 4.902902, 48.795666 ], [ 4.900907, 48.795074 ], [ 4.897917, 48.796525 ], [ 4.8955, 48.79619 ], [ 4.89304, 48.797682 ], [ 4.889421, 48.798296 ], [ 4.888389, 48.800767 ], [ 4.891097, 48.801246 ], [ 4.891602, 48.802174 ], [ 4.890467, 48.803163 ], [ 4.892547, 48.803825 ], [ 4.89068, 48.805451 ], [ 4.897072, 48.808923 ], [ 4.895116, 48.810316 ], [ 4.895294, 48.8111 ], [ 4.893993, 48.812449 ], [ 4.892349, 48.811603 ], [ 4.891783, 48.81211 ], [ 4.893109, 48.812935 ], [ 4.89089, 48.814622 ], [ 4.889897, 48.814059 ], [ 4.889267, 48.814983 ], [ 4.890102, 48.815673 ], [ 4.888789, 48.817232 ], [ 4.893818, 48.819817 ], [ 4.895298, 48.821047 ], [ 4.8949, 48.821817 ], [ 4.896443, 48.822795 ], [ 4.899907, 48.82402 ], [ 4.901753, 48.826153 ], [ 4.903629, 48.826987 ], [ 4.902683, 48.827922 ], [ 4.914568, 48.835148 ], [ 4.920202, 48.835783 ], [ 4.925156, 48.838108 ], [ 4.93603, 48.840831 ], [ 4.935591, 48.842641 ], [ 4.936936, 48.842674 ], [ 4.935906, 48.845145 ], [ 4.936148, 48.846949 ], [ 4.93741, 48.848295 ], [ 4.931358, 48.849745 ], [ 4.92754, 48.84966 ], [ 4.928397, 48.852937 ], [ 4.930302, 48.854703 ], [ 4.930266, 48.856145 ], [ 4.924526, 48.856454 ], [ 4.924502, 48.857354 ], [ 4.923265, 48.85764 ], [ 4.921146, 48.860684 ], [ 4.923868, 48.862161 ], [ 4.925259, 48.864036 ], [ 4.924676, 48.864634 ], [ 4.92207, 48.864048 ], [ 4.920732, 48.864818 ], [ 4.921574, 48.865458 ], [ 4.920544, 48.866067 ], [ 4.916985, 48.866203 ], [ 4.915591, 48.868485 ], [ 4.91168, 48.868309 ], [ 4.912996, 48.872697 ], [ 4.918822, 48.877038 ], [ 4.921769, 48.883419 ], [ 4.919722, 48.885382 ], [ 4.922497, 48.887519 ], [ 4.924558, 48.891259 ], [ 4.919882, 48.89473 ], [ 4.912461, 48.897943 ], [ 4.912433, 48.898577 ], [ 4.915688, 48.899904 ], [ 4.914691, 48.900051 ], [ 4.918824, 48.905576 ], [ 4.925932, 48.908335 ], [ 4.928707, 48.910658 ], [ 4.93362, 48.913003 ], [ 4.932862, 48.915693 ], [ 4.937469, 48.917619 ], [ 4.935917, 48.922145 ], [ 4.940699, 48.925959 ], [ 4.95066, 48.931049 ], [ 4.953773, 48.931131 ], [ 4.955468, 48.928632 ], [ 4.958438, 48.927132 ], [ 4.959272, 48.925886 ], [ 4.962919, 48.927475 ], [ 4.960365, 48.928009 ], [ 4.964288, 48.928305 ], [ 4.966075, 48.929272 ], [ 4.970017, 48.928016 ], [ 4.981833, 48.931038 ], [ 4.984187, 48.930903 ], [ 4.984119, 48.931621 ], [ 4.988806, 48.932628 ], [ 4.993059, 48.93609 ], [ 4.995067, 48.936142 ], [ 4.996473, 48.937447 ], [ 4.997615, 48.936897 ], [ 4.99735, 48.937633 ], [ 4.998558, 48.93799 ], [ 4.999769, 48.937544 ], [ 5.000204, 48.938504 ], [ 5.003582, 48.938555 ], [ 5.004016, 48.937789 ], [ 5.003405, 48.937415 ], [ 5.006386, 48.936631 ], [ 5.012967, 48.936842 ], [ 5.014156, 48.937564 ], [ 5.014349, 48.93888 ], [ 5.015491, 48.938894 ], [ 5.015718, 48.94063 ], [ 5.015009, 48.941834 ], [ 5.01629, 48.942843 ], [ 5.014424, 48.942945 ], [ 5.015315, 48.943969 ], [ 5.014005, 48.944496 ], [ 5.01484, 48.945136 ], [ 5.014206, 48.945867 ], [ 5.021429, 48.947031 ], [ 5.022614, 48.949053 ], [ 5.022023, 48.951177 ], [ 5.024139, 48.951014 ], [ 5.030947, 48.954322 ], [ 5.029727, 48.955081 ], [ 5.029797, 48.957165 ], [ 5.031855, 48.957269 ], [ 5.030689, 48.957895 ], [ 5.03205, 48.960455 ], [ 5.030661, 48.962587 ], [ 5.031899, 48.963222 ], [ 5.031506, 48.963735 ], [ 5.033155, 48.966379 ], [ 5.03514, 48.96757 ], [ 5.035021, 48.968464 ], [ 5.03872, 48.973018 ], [ 5.039495, 48.974335 ], [ 5.038408, 48.974686 ], [ 5.038774, 48.97527 ], [ 5.037218, 48.975309 ], [ 5.035273, 48.977742 ], [ 5.034369, 48.977187 ], [ 5.032199, 48.978823 ], [ 5.029064, 48.979648 ], [ 5.017247, 48.977588 ], [ 5.016486, 48.981816 ], [ 5.007337, 48.978968 ], [ 5.004166, 48.983803 ], [ 4.997373, 48.983681 ], [ 4.99575, 48.982513 ], [ 4.993686, 48.984205 ], [ 4.998805, 48.986614 ], [ 5.002175, 48.98707 ], [ 5.00138, 48.990242 ], [ 5.003746, 48.991089 ], [ 5.004729, 48.993148 ], [ 5.007046, 48.992804 ], [ 5.012215, 48.993688 ], [ 5.012122, 48.99422 ], [ 5.01385, 48.994264 ], [ 5.013825, 48.995252 ], [ 5.017074, 48.99458 ], [ 5.017787, 48.996059 ], [ 5.022683, 48.994259 ], [ 5.02979, 48.994665 ], [ 5.034465, 48.993598 ], [ 5.035129, 48.997203 ], [ 5.039303, 48.997579 ], [ 5.039035, 48.99812 ], [ 5.033262, 48.997824 ], [ 5.03179, 48.999613 ], [ 5.031568, 49.001663 ], [ 5.031351, 49.006114 ], [ 5.032967, 49.006211 ], [ 5.038494, 49.010581 ], [ 5.037483, 49.01522 ], [ 5.035927, 49.017766 ], [ 5.039573, 49.01751 ], [ 5.039652, 49.019679 ], [ 5.035422, 49.019186 ], [ 5.03564, 49.020656 ], [ 5.033454, 49.020759 ], [ 5.03572, 49.022011 ], [ 5.035271, 49.022561 ], [ 5.036523, 49.024459 ], [ 5.02018, 49.030786 ], [ 5.015334, 49.034103 ], [ 5.00931, 49.035334 ], [ 4.999534, 49.03219 ], [ 4.993073, 49.028364 ], [ 4.978015, 49.025054 ], [ 4.973045, 49.023249 ], [ 4.973063, 49.022334 ], [ 4.971414, 49.02176 ], [ 4.968652, 49.022855 ], [ 4.966932, 49.020954 ], [ 4.965322, 49.021701 ], [ 4.971333, 49.026928 ], [ 4.974055, 49.027777 ], [ 5.003411, 49.053548 ], [ 5.00049, 49.054944 ], [ 5.005231, 49.0593 ], [ 5.0061, 49.058921 ], [ 5.005976, 49.060991 ], [ 5.008084, 49.06204 ], [ 5.00776, 49.06436 ], [ 5.004915, 49.065905 ], [ 5.006662, 49.068604 ], [ 5.0094, 49.07062 ], [ 5.008971, 49.07162 ], [ 5.015277, 49.07308 ], [ 5.015512, 49.07407 ], [ 5.017896, 49.072901 ], [ 5.019187, 49.073403 ], [ 5.022743, 49.072358 ], [ 5.031076, 49.067707 ], [ 5.03065, 49.066107 ], [ 5.032368, 49.0652 ], [ 5.037407, 49.064688 ], [ 5.041322, 49.061585 ], [ 5.05046, 49.057686 ], [ 5.058039, 49.059773 ], [ 5.063954, 49.062801 ], [ 5.084891, 49.064561 ], [ 5.081667, 49.062694 ], [ 5.080552, 49.060587 ], [ 5.080657, 49.059471 ], [ 5.082199, 49.058126 ], [ 5.082299, 49.055653 ], [ 5.084716, 49.053823 ], [ 5.085929, 49.050699 ], [ 5.087643, 49.04959 ], [ 5.093525, 49.048628 ], [ 5.100769, 49.04905 ], [ 5.108797, 49.051116 ], [ 5.122388, 49.051037 ], [ 5.12899, 49.053085 ], [ 5.129134, 49.054157 ], [ 5.131671, 49.054407 ], [ 5.132311, 49.056893 ], [ 5.129868, 49.058089 ], [ 5.130583, 49.058777 ], [ 5.133106, 49.058156 ], [ 5.134625, 49.056857 ], [ 5.140627, 49.058564 ], [ 5.150719, 49.059955 ], [ 5.153565, 49.061512 ], [ 5.160798, 49.063074 ], [ 5.160068, 49.062297 ], [ 5.160089, 49.060324 ], [ 5.157732, 49.059744 ], [ 5.15835, 49.058856 ], [ 5.161195, 49.05965 ], [ 5.161566, 49.0591 ], [ 5.163874, 49.059365 ], [ 5.164304, 49.05863 ], [ 5.169434, 49.058957 ], [ 5.169481, 49.057448 ], [ 5.167849, 49.057284 ], [ 5.169362, 49.054837 ], [ 5.16848, 49.054602 ], [ 5.169204, 49.053709 ], [ 5.171875, 49.054523 ], [ 5.172324, 49.053209 ], [ 5.174536, 49.053702 ], [ 5.175796, 49.048212 ], [ 5.176887, 49.048371 ], [ 5.177289, 49.047477 ], [ 5.18213, 49.047483 ], [ 5.183993, 49.044752 ], [ 5.191206, 49.046111 ], [ 5.193129, 49.047261 ], [ 5.192803, 49.048414 ], [ 5.206128, 49.049352 ], [ 5.214174, 49.052447 ], [ 5.217526, 49.052665 ], [ 5.216719, 49.058551 ], [ 5.224816, 49.060778 ], [ 5.231205, 49.059681 ], [ 5.232257, 49.057838 ], [ 5.228205, 49.054729 ], [ 5.225281, 49.050628 ], [ 5.226755, 49.049926 ], [ 5.226505, 49.046163 ], [ 5.228208, 49.045876 ], [ 5.227022, 49.04417 ], [ 5.227567, 49.042726 ], [ 5.228266, 49.042792 ], [ 5.239114, 49.032674 ], [ 5.237713, 49.030961 ], [ 5.234214, 49.029863 ], [ 5.232546, 49.028202 ], [ 5.230401, 49.02883 ], [ 5.228864, 49.02712 ], [ 5.229009, 49.025147 ], [ 5.228034, 49.025118 ], [ 5.228135, 49.024579 ], [ 5.225102, 49.024843 ], [ 5.223883, 49.023491 ], [ 5.220533, 49.024478 ], [ 5.215721, 49.022538 ], [ 5.21345, 49.020976 ], [ 5.212307, 49.018385 ], [ 5.208769, 49.016787 ], [ 5.209249, 49.013863 ], [ 5.207374, 49.012978 ], [ 5.208734, 49.013015 ], [ 5.209475, 49.010259 ], [ 5.216435, 49.008456 ], [ 5.216282, 49.005872 ], [ 5.218013, 49.003215 ], [ 5.21717, 49.001537 ], [ 5.219974, 49.00125 ], [ 5.220496, 48.995514 ], [ 5.222242, 48.993013 ], [ 5.221998, 48.992184 ], [ 5.226093, 48.992228 ], [ 5.225728, 48.993309 ], [ 5.230827, 48.995743 ], [ 5.233304, 48.994481 ], [ 5.233593, 48.993413 ], [ 5.235732, 48.99405 ], [ 5.241796, 48.992614 ], [ 5.244947, 48.99043 ], [ 5.250574, 48.991177 ], [ 5.251145, 48.986941 ], [ 5.250165, 48.985301 ], [ 5.249158, 48.985213 ], [ 5.250217, 48.982834 ], [ 5.25302, 48.984 ], [ 5.25262, 48.984555 ], [ 5.254339, 48.986108 ], [ 5.256823, 48.986374 ], [ 5.258005, 48.987752 ], [ 5.259882, 48.986744 ], [ 5.262379, 48.987782 ], [ 5.263055, 48.988888 ], [ 5.262643, 48.989707 ], [ 5.264695, 48.990119 ], [ 5.266196, 48.991934 ], [ 5.264573, 48.992924 ], [ 5.26643, 48.993656 ], [ 5.271819, 48.989418 ], [ 5.274163, 48.990293 ], [ 5.27648, 48.989312 ], [ 5.277248, 48.990023 ], [ 5.282936, 48.987442 ], [ 5.284893, 48.988383 ], [ 5.286503, 48.987089 ], [ 5.285392, 48.986576 ], [ 5.287667, 48.984686 ], [ 5.293735, 48.987521 ], [ 5.293111, 48.985437 ], [ 5.304975, 48.987007 ], [ 5.308314, 48.982566 ], [ 5.308189, 48.978517 ], [ 5.310612, 48.979336 ], [ 5.309798, 48.978503 ], [ 5.321378, 48.96982 ], [ 5.326752, 48.972058 ], [ 5.331758, 48.97271 ], [ 5.341126, 48.964412 ], [ 5.341914, 48.96272 ], [ 5.341326, 48.960156 ], [ 5.346289, 48.961864 ], [ 5.352989, 48.966372 ], [ 5.365107, 48.969661 ], [ 5.374054, 48.970474 ], [ 5.377951, 48.971738 ], [ 5.392334, 48.972273 ], [ 5.406553, 48.974687 ], [ 5.412769, 48.978029 ], [ 5.412707, 48.979002 ], [ 5.414332, 48.979909 ], [ 5.42195, 48.983072 ], [ 5.422607, 48.984342 ], [ 5.428859, 48.988922 ], [ 5.435043, 48.991522 ], [ 5.434189, 48.99323 ], [ 5.440365, 48.994814 ], [ 5.440587, 48.994198 ], [ 5.447844, 48.996627 ], [ 5.447437, 48.997119 ], [ 5.452973, 48.99813 ], [ 5.455436, 48.999775 ], [ 5.454621, 49.000482 ], [ 5.457044, 49.002773 ], [ 5.453711, 49.003279 ], [ 5.452328, 49.001988 ], [ 5.451684, 49.00351 ], [ 5.447333, 49.004761 ], [ 5.448754, 49.005976 ], [ 5.447667, 49.006655 ], [ 5.447865, 49.008693 ], [ 5.446076, 49.009688 ], [ 5.446953, 49.010498 ], [ 5.445226, 49.011147 ], [ 5.444746, 49.012299 ], [ 5.446072, 49.012962 ], [ 5.443663, 49.01569 ], [ 5.443883, 49.016459 ], [ 5.444851, 49.015573 ], [ 5.44772, 49.015595 ], [ 5.453864, 49.013747 ], [ 5.455629, 49.011538 ], [ 5.46843, 49.016254 ], [ 5.471646, 49.015947 ], [ 5.473466, 49.016659 ], [ 5.472958, 49.018084 ], [ 5.474251, 49.019327 ], [ 5.476845, 49.020056 ], [ 5.479553, 49.023812 ], [ 5.480022, 49.026465 ], [ 5.479078, 49.027977 ], [ 5.468825, 49.032519 ], [ 5.471212, 49.03445 ], [ 5.472861, 49.037332 ], [ 5.476668, 49.037918 ], [ 5.477155, 49.037053 ], [ 5.478943, 49.039277 ], [ 5.483045, 49.041507 ], [ 5.486476, 49.041687 ], [ 5.498552, 49.03982 ], [ 5.504539, 49.041542 ], [ 5.513634, 49.041291 ], [ 5.521661, 49.043685 ], [ 5.528298, 49.043832 ], [ 5.532705, 49.043312 ], [ 5.536692, 49.041113 ], [ 5.545414, 49.041841 ], [ 5.556378, 49.040891 ], [ 5.573354, 49.026471 ], [ 5.581947, 49.023362 ], [ 5.576521, 49.019906 ], [ 5.571208, 49.01415 ], [ 5.576184, 49.012568 ], [ 5.584031, 49.013908 ], [ 5.584583, 49.012312 ], [ 5.586907, 49.011159 ], [ 5.591234, 49.012315 ], [ 5.59778, 49.015728 ], [ 5.601359, 49.016481 ], [ 5.601169, 49.012861 ], [ 5.608843, 49.009231 ], [ 5.610256, 49.006507 ], [ 5.613078, 49.004767 ], [ 5.613798, 49.002657 ], [ 5.629723, 49.005507 ], [ 5.634058, 49.005442 ], [ 5.646479, 49.012359 ], [ 5.652622, 49.0128 ], [ 5.657855, 49.014745 ], [ 5.66364, 49.015664 ], [ 5.666104, 49.017467 ], [ 5.666632, 49.019128 ], [ 5.671904, 49.022056 ], [ 5.678874, 49.022698 ], [ 5.682125, 49.024747 ], [ 5.684047, 49.02387 ], [ 5.684708, 49.025743 ], [ 5.681655, 49.026958 ], [ 5.682377, 49.028383 ], [ 5.683182, 49.02793 ], [ 5.684083, 49.028542 ], [ 5.682643, 49.029742 ], [ 5.684477, 49.030702 ], [ 5.684017, 49.031035 ], [ 5.685027, 49.031711 ], [ 5.683444, 49.032498 ], [ 5.685144, 49.03383 ], [ 5.693336, 49.027061 ], [ 5.695559, 49.029757 ], [ 5.698111, 49.028952 ], [ 5.697205, 49.028074 ], [ 5.699497, 49.026776 ], [ 5.698704, 49.025596 ], [ 5.701395, 49.022879 ], [ 5.705011, 49.020839 ], [ 5.708443, 49.023145 ], [ 5.7106, 49.019813 ], [ 5.707675, 49.018275 ], [ 5.709015, 49.016798 ], [ 5.712351, 49.018217 ], [ 5.713532, 49.017882 ], [ 5.715317, 49.015681 ], [ 5.71983, 49.017615 ], [ 5.722794, 49.020909 ], [ 5.725857, 49.018288 ], [ 5.727933, 49.01902 ], [ 5.729255, 49.017899 ], [ 5.735478, 49.01892 ], [ 5.736225, 49.018075 ], [ 5.742463, 49.021786 ], [ 5.745021, 49.021636 ], [ 5.748173, 49.023702 ], [ 5.760225, 49.026591 ], [ 5.758883, 49.029972 ], [ 5.760146, 49.03002 ], [ 5.760553, 49.031114 ], [ 5.758899, 49.033188 ], [ 5.767968, 49.034231 ], [ 5.769558, 49.034991 ], [ 5.770886, 49.037066 ], [ 5.766193, 49.037765 ], [ 5.763705, 49.039708 ], [ 5.772176, 49.044242 ], [ 5.779445, 49.051001 ], [ 5.777537, 49.05223 ], [ 5.769889, 49.046444 ], [ 5.766212, 49.045534 ], [ 5.758506, 49.054314 ], [ 5.755004, 49.053922 ], [ 5.747751, 49.05982 ], [ 5.745128, 49.05993 ], [ 5.74567, 49.060603 ], [ 5.745223, 49.063307 ], [ 5.748616, 49.065255 ], [ 5.757848, 49.075336 ], [ 5.7712, 49.080693 ], [ 5.776471, 49.083647 ], [ 5.779117, 49.080488 ], [ 5.782295, 49.081231 ], [ 5.782985, 49.080388 ], [ 5.783984, 49.080579 ], [ 5.784524, 49.079517 ], [ 5.78599, 49.079858 ], [ 5.787484, 49.076716 ], [ 5.792204, 49.077492 ], [ 5.795486, 49.074883 ], [ 5.796506, 49.075675 ], [ 5.796954, 49.073289 ], [ 5.797916, 49.073961 ], [ 5.802189, 49.072445 ], [ 5.804113, 49.0731 ], [ 5.804617, 49.075783 ], [ 5.806357, 49.076957 ], [ 5.808466, 49.075184 ], [ 5.808189, 49.073818 ], [ 5.807399, 49.073576 ], [ 5.807122, 49.0687 ], [ 5.80563, 49.067321 ], [ 5.806122, 49.065659 ], [ 5.80507, 49.064892 ], [ 5.806172, 49.063517 ], [ 5.807134, 49.063625 ], [ 5.807145, 49.060956 ], [ 5.811808, 49.061848 ], [ 5.818341, 49.064561 ], [ 5.823601, 49.06532 ], [ 5.824721, 49.063935 ], [ 5.823894, 49.06301 ], [ 5.82456, 49.062413 ], [ 5.828709, 49.064355 ], [ 5.830077, 49.064719 ], [ 5.830734, 49.064127 ], [ 5.836063, 49.066057 ], [ 5.837422, 49.065118 ], [ 5.83386, 49.062502 ], [ 5.834919, 49.061759 ], [ 5.83355, 49.060142 ], [ 5.834436, 49.058365 ], [ 5.836275, 49.058669 ], [ 5.836745, 49.058053 ], [ 5.836305, 49.056279 ], [ 5.837162, 49.056365 ], [ 5.836362, 49.054875 ], [ 5.839369, 49.052262 ], [ 5.84049, 49.04981 ], [ 5.844873, 49.048262 ], [ 5.845839, 49.049225 ], [ 5.845395, 49.046622 ], [ 5.847642, 49.044222 ], [ 5.851891, 49.044604 ], [ 5.852248, 49.042808 ], [ 5.853981, 49.043135 ], [ 5.854211, 49.042039 ], [ 5.853597, 49.040683 ], [ 5.849914, 49.038044 ], [ 5.8443, 49.035833 ], [ 5.83052, 49.032592 ], [ 5.83093, 49.031663 ], [ 5.829497, 49.031667 ], [ 5.82892, 49.029688 ], [ 5.829616, 49.028457 ], [ 5.828861, 49.028425 ], [ 5.829478, 49.027285 ], [ 5.828767, 49.02719 ], [ 5.827847, 49.024511 ], [ 5.820834, 49.022016 ], [ 5.820018, 49.020019 ], [ 5.820557, 49.018588 ], [ 5.821349, 49.01843 ], [ 5.820863, 49.017782 ], [ 5.821604, 49.014567 ], [ 5.820955, 49.013532 ], [ 5.816291, 49.011143 ], [ 5.813472, 49.004915 ], [ 5.814587, 49.005022 ], [ 5.815724, 49.008479 ], [ 5.819226, 49.007712 ], [ 5.823702, 49.008151 ], [ 5.82466, 49.006809 ], [ 5.827619, 49.007364 ], [ 5.828276, 49.006495 ], [ 5.82419, 49.005102 ], [ 5.820411, 49.005326 ], [ 5.820224, 49.0047 ], [ 5.823061, 49.003959 ], [ 5.817917, 49.002434 ], [ 5.816369, 49.001253 ], [ 5.817049, 48.999747 ], [ 5.815174, 48.9969 ], [ 5.808194, 48.990175 ], [ 5.8061, 48.988649 ], [ 5.80143, 48.987312 ], [ 5.800583, 48.986235 ], [ 5.805775, 48.982681 ], [ 5.808793, 48.982593 ], [ 5.815795, 48.980009 ], [ 5.817727, 48.980355 ], [ 5.816852, 48.978522 ], [ 5.820152, 48.976878 ], [ 5.825874, 48.9778 ], [ 5.834535, 48.975666 ], [ 5.834971, 48.974406 ], [ 5.834173, 48.973115 ], [ 5.831562, 48.971851 ], [ 5.832232, 48.969926 ], [ 5.83413, 48.970147 ], [ 5.843245, 48.964197 ], [ 5.849298, 48.961315 ], [ 5.848567, 48.960766 ], [ 5.850531, 48.959513 ], [ 5.849627, 48.958909 ], [ 5.850557, 48.957682 ], [ 5.847783, 48.956231 ], [ 5.848695, 48.955721 ], [ 5.847956, 48.955561 ], [ 5.848106, 48.954286 ], [ 5.849214, 48.95402 ], [ 5.848812, 48.9532 ], [ 5.847946, 48.953508 ], [ 5.847258, 48.95182 ], [ 5.836415, 48.951943 ], [ 5.834539, 48.950649 ], [ 5.835553, 48.946197 ], [ 5.834957, 48.944826 ], [ 5.834178, 48.945241 ], [ 5.83422, 48.944525 ], [ 5.831875, 48.943905 ], [ 5.82925, 48.943847 ], [ 5.827547, 48.944786 ], [ 5.824636, 48.943575 ], [ 5.817034, 48.942592 ], [ 5.809407, 48.944125 ], [ 5.803681, 48.947134 ], [ 5.80161, 48.945979 ], [ 5.800241, 48.946748 ], [ 5.795177, 48.944841 ], [ 5.792359, 48.943224 ], [ 5.789642, 48.939633 ], [ 5.788259, 48.939079 ], [ 5.788559, 48.936695 ], [ 5.787617, 48.935302 ], [ 5.788763, 48.934548 ], [ 5.787222, 48.932785 ], [ 5.786177, 48.932257 ], [ 5.784904, 48.933315 ], [ 5.779828, 48.934338 ], [ 5.776781, 48.931598 ], [ 5.782553, 48.930536 ], [ 5.784177, 48.929047 ], [ 5.778788, 48.925193 ], [ 5.772155, 48.923428 ], [ 5.770024, 48.924066 ], [ 5.765572, 48.922466 ], [ 5.763286, 48.922867 ], [ 5.758268, 48.921931 ], [ 5.756346, 48.92327 ], [ 5.755093, 48.923098 ], [ 5.751078, 48.921365 ], [ 5.749659, 48.919997 ], [ 5.75005, 48.918992 ], [ 5.747751, 48.917383 ], [ 5.748109, 48.91623 ], [ 5.746981, 48.91608 ], [ 5.749292, 48.914359 ], [ 5.753186, 48.913126 ], [ 5.757652, 48.912967 ], [ 5.756351, 48.909022 ], [ 5.760856, 48.903954 ], [ 5.763435, 48.903532 ], [ 5.765099, 48.901879 ], [ 5.764891, 48.899926 ], [ 5.767064, 48.896632 ], [ 5.771278, 48.894142 ], [ 5.775095, 48.894909 ], [ 5.779188, 48.891367 ], [ 5.783464, 48.889197 ], [ 5.785623, 48.890555 ], [ 5.7861, 48.890271 ], [ 5.783924, 48.888944 ], [ 5.785281, 48.887894 ], [ 5.786183, 48.888471 ], [ 5.789936, 48.887249 ], [ 5.790598, 48.886133 ], [ 5.790319, 48.883488 ], [ 5.787693, 48.879429 ], [ 5.78494, 48.877214 ], [ 5.782348, 48.876165 ], [ 5.77965, 48.876612 ], [ 5.775789, 48.875149 ], [ 5.773972, 48.875516 ], [ 5.773152, 48.874461 ], [ 5.773817, 48.874216 ], [ 5.773413, 48.873541 ], [ 5.769678, 48.875492 ], [ 5.76412, 48.872759 ], [ 5.767216, 48.869468 ], [ 5.768234, 48.869394 ], [ 5.768751, 48.867117 ], [ 5.767883, 48.866999 ], [ 5.768733, 48.864783 ], [ 5.767324, 48.864321 ], [ 5.769223, 48.859799 ], [ 5.771016, 48.858317 ], [ 5.775154, 48.857367 ], [ 5.777664, 48.855238 ], [ 5.775799, 48.853257 ], [ 5.776463, 48.852939 ], [ 5.775965, 48.852167 ], [ 5.773468, 48.851776 ], [ 5.775784, 48.848368 ], [ 5.774804, 48.847992 ], [ 5.775563, 48.846767 ], [ 5.77851, 48.844643 ], [ 5.776634, 48.843335 ], [ 5.778814, 48.840882 ], [ 5.778859, 48.838027 ], [ 5.777858, 48.837368 ], [ 5.780784, 48.835596 ], [ 5.782073, 48.832602 ], [ 5.780034, 48.831326 ], [ 5.781684, 48.828254 ], [ 5.779964, 48.824436 ], [ 5.772901, 48.822104 ], [ 5.775916, 48.81518 ], [ 5.768899, 48.804333 ], [ 5.757196, 48.800726 ], [ 5.758568, 48.796519 ], [ 5.762556, 48.79407 ], [ 5.767321, 48.796489 ], [ 5.790583, 48.803102 ], [ 5.793667, 48.793732 ], [ 5.802024, 48.795366 ], [ 5.802528, 48.797269 ], [ 5.799658, 48.808874 ], [ 5.800772, 48.81088 ], [ 5.79905, 48.816297 ], [ 5.809789, 48.816996 ], [ 5.809378, 48.818767 ], [ 5.812551, 48.819169 ], [ 5.811943, 48.821125 ], [ 5.818103, 48.82093 ], [ 5.819984, 48.822 ], [ 5.819698, 48.824384 ], [ 5.822252, 48.824379 ], [ 5.822523, 48.82496 ], [ 5.824146, 48.824422 ], [ 5.825807, 48.826464 ], [ 5.825093, 48.82698 ], [ 5.826112, 48.83024 ], [ 5.82857, 48.83209 ], [ 5.827796, 48.835357 ], [ 5.828268, 48.837831 ], [ 5.839043, 48.838236 ], [ 5.843259, 48.836905 ], [ 5.853093, 48.836334 ], [ 5.860866, 48.839294 ], [ 5.862012, 48.840115 ], [ 5.861671, 48.840559 ], [ 5.865574, 48.842827 ], [ 5.862422, 48.842756 ], [ 5.866653, 48.84576 ], [ 5.865614, 48.846338 ], [ 5.864377, 48.845877 ], [ 5.861938, 48.847831 ], [ 5.8641, 48.849869 ], [ 5.864532, 48.857153 ], [ 5.868096, 48.860054 ], [ 5.867006, 48.861822 ], [ 5.871386, 48.862536 ], [ 5.872912, 48.863671 ], [ 5.876834, 48.861244 ], [ 5.88355, 48.862893 ], [ 5.884736, 48.862479 ], [ 5.88515, 48.861372 ], [ 5.887664, 48.86223 ], [ 5.896281, 48.856648 ], [ 5.901209, 48.857397 ], [ 5.901906, 48.857307 ], [ 5.901846, 48.856292 ], [ 5.902755, 48.856661 ], [ 5.905707, 48.855694 ], [ 5.907853, 48.85647 ], [ 5.91057, 48.855777 ], [ 5.910396, 48.856616 ], [ 5.924379, 48.858054 ], [ 5.931618, 48.854673 ], [ 5.931691, 48.852634 ], [ 5.933322, 48.852049 ], [ 5.934246, 48.852448 ], [ 5.934381, 48.854283 ], [ 5.938702, 48.855939 ], [ 5.936638, 48.860921 ], [ 5.940095, 48.863642 ], [ 5.93975, 48.864552 ], [ 5.946977, 48.86338 ], [ 5.951819, 48.865347 ], [ 5.954417, 48.865247 ], [ 5.963827, 48.868967 ], [ 5.965462, 48.868433 ], [ 5.968965, 48.870295 ], [ 5.967773, 48.872366 ], [ 5.97279, 48.876791 ], [ 5.972296, 48.878512 ], [ 5.972917, 48.881291 ], [ 5.974734, 48.88195 ], [ 5.975622, 48.883372 ], [ 5.977708, 48.883604 ], [ 5.97496, 48.886376 ], [ 5.975238, 48.888085 ], [ 5.974392, 48.889644 ], [ 5.975154, 48.892619 ], [ 5.973011, 48.895686 ], [ 5.973508, 48.896931 ], [ 5.974112, 48.896777 ], [ 5.975707, 48.899878 ], [ 5.981201, 48.90213 ], [ 5.97793, 48.904129 ], [ 5.978609, 48.905052 ], [ 5.981918, 48.906301 ], [ 5.986396, 48.905956 ], [ 5.990903, 48.907848 ], [ 5.98884, 48.909736 ], [ 5.98803, 48.912488 ], [ 5.986425, 48.914526 ], [ 5.988525, 48.9161 ], [ 5.987636, 48.917772 ], [ 5.983059, 48.918828 ], [ 5.980171, 48.920589 ], [ 5.978241, 48.923618 ], [ 5.978598, 48.927672 ], [ 5.983234, 48.927995 ], [ 5.983142, 48.929276 ], [ 5.979991, 48.930149 ], [ 5.980634, 48.931069 ], [ 5.987797, 48.934626 ], [ 5.981768, 48.940543 ], [ 5.981853, 48.941477 ], [ 5.975956, 48.94551 ], [ 5.976063, 48.946685 ], [ 5.970954, 48.948372 ], [ 5.972619, 48.950189 ], [ 5.969762, 48.951566 ], [ 5.973991, 48.953409 ], [ 5.969348, 48.956354 ], [ 5.967152, 48.960059 ], [ 5.96309, 48.959643 ], [ 5.957781, 48.960396 ], [ 5.955748, 48.961262 ], [ 5.954897, 48.963808 ], [ 5.971611, 48.963743 ], [ 5.966301, 48.961938 ], [ 5.970474, 48.959081 ], [ 5.979635, 48.958123 ], [ 5.981152, 48.955454 ], [ 5.983976, 48.9579 ], [ 5.983904, 48.961261 ], [ 5.985717, 48.961967 ], [ 5.984906, 48.964338 ], [ 5.997737, 48.96589 ], [ 6.000111, 48.964799 ], [ 6.001455, 48.965072 ], [ 6.002596, 48.964121 ], [ 6.011001, 48.969239 ], [ 6.015133, 48.970246 ], [ 6.016946, 48.969618 ], [ 6.018352, 48.971609 ], [ 6.018114, 48.973558 ], [ 6.020484, 48.974754 ], [ 6.018505, 48.975701 ], [ 6.019425, 48.97572 ], [ 6.019943, 48.976731 ], [ 6.018465, 48.977324 ], [ 6.018874, 48.978548 ], [ 6.012237, 48.9787 ], [ 6.011695, 48.978054 ], [ 6.008193, 48.978814 ], [ 6.004425, 48.978204 ], [ 6.003804, 48.979788 ], [ 6.001495, 48.980471 ], [ 5.995358, 48.980806 ], [ 5.990611, 48.982057 ], [ 5.974458, 48.979927 ], [ 5.964413, 48.984773 ], [ 5.969232, 48.9871 ], [ 5.969027, 48.988142 ], [ 5.974365, 48.989655 ], [ 5.975082, 48.988658 ], [ 5.975395, 48.989794 ], [ 5.977179, 48.991019 ], [ 5.982084, 48.991611 ], [ 5.986579, 48.993655 ], [ 5.988172, 48.995583 ], [ 5.992927, 48.995865 ], [ 6.001108, 48.999119 ], [ 6.02463, 49.001645 ], [ 6.029991, 49.001066 ], [ 6.039263, 48.997547 ], [ 6.043475, 49.001679 ], [ 6.046981, 48.995985 ], [ 6.045434, 48.994509 ], [ 6.045712, 48.993695 ], [ 6.0418, 48.992562 ], [ 6.044902, 48.990274 ], [ 6.044921, 48.98305 ], [ 6.040754, 48.982603 ], [ 6.038811, 48.983437 ], [ 6.039684, 48.984325 ], [ 6.029414, 48.989969 ], [ 6.029325, 48.987398 ], [ 6.03128, 48.984299 ], [ 6.040464, 48.981627 ], [ 6.042834, 48.979529 ], [ 6.043393, 48.977311 ], [ 6.045549, 48.977825 ], [ 6.04631, 48.976409 ], [ 6.047896, 48.976595 ], [ 6.047944, 48.977296 ], [ 6.061891, 48.977969 ], [ 6.062559, 48.978213 ], [ 6.061845, 48.979903 ], [ 6.064419, 48.979968 ], [ 6.065877, 48.981105 ], [ 6.073102, 48.981448 ], [ 6.074066, 48.978404 ], [ 6.069928, 48.971534 ], [ 6.078367, 48.967468 ], [ 6.078981, 48.965051 ], [ 6.08154, 48.963067 ], [ 6.093952, 48.967625 ], [ 6.10218, 48.969342 ], [ 6.104751, 48.969652 ], [ 6.106206, 48.968111 ], [ 6.108659, 48.969186 ], [ 6.11262, 48.969063 ], [ 6.117225, 48.967746 ], [ 6.115338, 48.967024 ], [ 6.116121, 48.96562 ], [ 6.112408, 48.965026 ], [ 6.113322, 48.963212 ], [ 6.114588, 48.963301 ], [ 6.114419, 48.961865 ], [ 6.11697, 48.962128 ], [ 6.120098, 48.96105 ], [ 6.117972, 48.958406 ], [ 6.119593, 48.957793 ], [ 6.120645, 48.958609 ], [ 6.12122, 48.958318 ], [ 6.120237, 48.957582 ], [ 6.123957, 48.956331 ], [ 6.125956, 48.956528 ], [ 6.123237, 48.949417 ], [ 6.129163, 48.94956 ], [ 6.129696, 48.948738 ], [ 6.128937, 48.947614 ], [ 6.130069, 48.946681 ], [ 6.128266, 48.945983 ], [ 6.12459, 48.941484 ], [ 6.124861, 48.939013 ], [ 6.13201, 48.934649 ], [ 6.147337, 48.932579 ], [ 6.150111, 48.933587 ], [ 6.148553, 48.937429 ], [ 6.149438, 48.938988 ], [ 6.157331, 48.943729 ], [ 6.160814, 48.943887 ], [ 6.165307, 48.941992 ], [ 6.165482, 48.941243 ], [ 6.172395, 48.944281 ], [ 6.173823, 48.943016 ], [ 6.168988, 48.938315 ], [ 6.170058, 48.937286 ], [ 6.172109, 48.9376 ], [ 6.172464, 48.936358 ], [ 6.17656, 48.934664 ], [ 6.179807, 48.935702 ], [ 6.1879, 48.935837 ], [ 6.189674, 48.937 ], [ 6.194883, 48.93663 ], [ 6.206242, 48.937727 ], [ 6.20596, 48.93934 ], [ 6.212065, 48.938188 ], [ 6.212563, 48.939475 ], [ 6.214006, 48.939688 ], [ 6.222424, 48.938901 ], [ 6.223042, 48.936616 ], [ 6.22563, 48.936701 ], [ 6.22609, 48.935139 ], [ 6.225095, 48.934131 ], [ 6.225282, 48.932354 ], [ 6.223943, 48.932401 ], [ 6.223618, 48.92914 ], [ 6.222955, 48.929181 ], [ 6.224179, 48.927134 ], [ 6.22741, 48.927224 ], [ 6.226735, 48.929072 ], [ 6.227492, 48.929208 ], [ 6.228476, 48.927173 ], [ 6.235065, 48.92945 ], [ 6.236645, 48.92477 ], [ 6.24102, 48.925566 ], [ 6.241595, 48.923577 ], [ 6.245705, 48.923708 ], [ 6.252322, 48.926898 ], [ 6.253437, 48.92812 ], [ 6.253076, 48.928708 ], [ 6.256279, 48.929292 ], [ 6.255075, 48.931159 ], [ 6.258444, 48.932112 ], [ 6.261805, 48.931688 ], [ 6.262566, 48.933511 ], [ 6.265361, 48.932679 ], [ 6.271237, 48.933306 ], [ 6.273194, 48.933008 ], [ 6.271589, 48.932108 ], [ 6.274352, 48.93045 ], [ 6.273126, 48.92959 ], [ 6.274348, 48.928606 ], [ 6.27717, 48.927872 ], [ 6.280457, 48.929711 ], [ 6.282805, 48.928488 ], [ 6.285297, 48.928364 ], [ 6.286529, 48.927273 ], [ 6.287741, 48.927777 ], [ 6.288918, 48.922958 ], [ 6.286805, 48.922395 ], [ 6.288329, 48.916303 ], [ 6.304541, 48.918565 ], [ 6.311335, 48.92109 ], [ 6.313972, 48.918769 ], [ 6.309324, 48.914064 ], [ 6.310048, 48.911764 ], [ 6.312872, 48.910594 ], [ 6.315913, 48.910466 ], [ 6.315882, 48.908978 ], [ 6.317855, 48.908003 ], [ 6.322402, 48.908439 ], [ 6.322509, 48.9074 ], [ 6.326789, 48.907464 ], [ 6.328183, 48.903885 ], [ 6.325411, 48.902603 ], [ 6.328419, 48.900217 ], [ 6.325632, 48.895823 ], [ 6.312581, 48.892476 ], [ 6.309046, 48.892326 ], [ 6.309307, 48.891595 ], [ 6.308183, 48.891184 ], [ 6.308373, 48.889377 ], [ 6.30491, 48.889568 ], [ 6.305837, 48.887643 ], [ 6.304445, 48.887813 ], [ 6.302994, 48.886856 ], [ 6.301291, 48.8844 ], [ 6.302033, 48.88418 ], [ 6.300647, 48.883761 ], [ 6.30084, 48.883057 ], [ 6.298717, 48.882246 ], [ 6.297298, 48.882585 ], [ 6.297983, 48.881022 ], [ 6.301182, 48.879406 ], [ 6.307692, 48.879027 ], [ 6.309838, 48.878171 ], [ 6.309322, 48.877113 ], [ 6.30758, 48.876483 ], [ 6.308091, 48.875063 ], [ 6.31091, 48.873336 ], [ 6.312322, 48.865063 ], [ 6.310604, 48.863117 ], [ 6.30758, 48.86236 ], [ 6.303653, 48.864545 ], [ 6.302453, 48.866088 ], [ 6.297707, 48.86684 ], [ 6.29653, 48.864089 ], [ 6.295296, 48.863326 ], [ 6.297465, 48.860641 ], [ 6.295322, 48.859045 ], [ 6.295884, 48.858287 ], [ 6.299366, 48.858672 ], [ 6.298773, 48.85484 ], [ 6.300102, 48.852332 ], [ 6.299193, 48.851654 ], [ 6.291988, 48.851537 ], [ 6.289531, 48.850955 ], [ 6.289304, 48.849912 ], [ 6.287498, 48.849152 ], [ 6.285791, 48.849549 ], [ 6.284374, 48.848283 ], [ 6.284138, 48.846267 ], [ 6.290986, 48.841652 ], [ 6.291472, 48.842551 ], [ 6.292645, 48.842633 ], [ 6.300635, 48.840651 ], [ 6.303307, 48.837994 ], [ 6.303625, 48.834743 ], [ 6.306314, 48.833255 ], [ 6.309325, 48.833035 ], [ 6.31585, 48.836979 ], [ 6.319506, 48.836668 ], [ 6.320917, 48.83786 ], [ 6.327208, 48.835857 ], [ 6.330137, 48.835878 ], [ 6.339502, 48.833711 ], [ 6.339734, 48.831916 ], [ 6.338439, 48.830485 ], [ 6.338686, 48.829161 ], [ 6.336572, 48.828413 ], [ 6.337993, 48.827013 ], [ 6.334211, 48.825788 ], [ 6.325979, 48.825497 ], [ 6.323946, 48.826409 ], [ 6.323841, 48.82782 ], [ 6.321178, 48.829532 ], [ 6.317274, 48.830693 ], [ 6.316284, 48.830332 ], [ 6.314801, 48.827425 ], [ 6.312109, 48.825621 ], [ 6.303798, 48.827212 ], [ 6.301404, 48.826398 ], [ 6.301136, 48.823842 ], [ 6.306974, 48.821149 ], [ 6.318862, 48.822814 ], [ 6.318864, 48.821944 ], [ 6.325188, 48.82058 ], [ 6.33003, 48.823114 ], [ 6.331876, 48.823318 ], [ 6.333638, 48.82087 ], [ 6.332553, 48.814249 ], [ 6.33445, 48.814121 ], [ 6.338649, 48.811126 ], [ 6.343628, 48.811011 ], [ 6.345997, 48.812289 ], [ 6.350367, 48.813182 ], [ 6.351113, 48.81246 ], [ 6.353248, 48.813534 ], [ 6.35622, 48.811558 ], [ 6.357146, 48.810312 ], [ 6.355256, 48.81142 ], [ 6.353737, 48.811156 ], [ 6.353266, 48.810362 ], [ 6.354542, 48.808606 ], [ 6.346943, 48.806894 ], [ 6.345762, 48.806075 ], [ 6.346463, 48.804662 ], [ 6.345546, 48.804049 ], [ 6.348401, 48.801561 ], [ 6.349773, 48.801565 ], [ 6.34991, 48.800597 ], [ 6.351217, 48.799783 ], [ 6.353839, 48.798959 ], [ 6.352727, 48.798345 ], [ 6.354289, 48.797075 ], [ 6.356019, 48.793812 ], [ 6.355457, 48.792046 ], [ 6.356092, 48.791188 ], [ 6.355122, 48.788653 ], [ 6.356239, 48.785886 ], [ 6.354762, 48.784631 ], [ 6.354863, 48.782361 ], [ 6.357614, 48.779078 ], [ 6.360438, 48.77885 ], [ 6.362418, 48.780465 ], [ 6.36419, 48.779847 ], [ 6.364484, 48.780973 ], [ 6.366788, 48.78127 ], [ 6.365956, 48.781886 ], [ 6.366081, 48.783096 ], [ 6.370845, 48.784782 ], [ 6.375526, 48.783633 ], [ 6.382255, 48.78013 ], [ 6.383177, 48.781138 ], [ 6.386196, 48.781462 ], [ 6.389724, 48.780336 ], [ 6.393447, 48.775955 ], [ 6.395678, 48.774668 ], [ 6.397337, 48.77611 ], [ 6.401398, 48.776239 ], [ 6.40094, 48.776881 ], [ 6.40339, 48.777393 ], [ 6.407722, 48.780431 ], [ 6.409827, 48.779479 ], [ 6.409782, 48.780295 ], [ 6.413924, 48.782401 ], [ 6.415063, 48.78189 ], [ 6.42067, 48.784164 ], [ 6.425505, 48.783875 ], [ 6.424781, 48.78473 ], [ 6.426341, 48.786663 ], [ 6.429211, 48.787323 ], [ 6.428408, 48.788202 ], [ 6.432133, 48.788391 ], [ 6.433298, 48.789138 ], [ 6.43374, 48.787302 ], [ 6.43552, 48.787631 ], [ 6.436044, 48.786567 ], [ 6.437971, 48.785833 ], [ 6.437722, 48.78486 ], [ 6.440881, 48.783331 ], [ 6.440692, 48.781732 ], [ 6.442815, 48.780496 ], [ 6.443918, 48.778584 ], [ 6.447416, 48.779213 ], [ 6.447801, 48.778154 ], [ 6.452637, 48.77993 ], [ 6.453889, 48.778274 ], [ 6.451531, 48.775695 ], [ 6.452781, 48.775422 ], [ 6.451386, 48.772235 ], [ 6.453313, 48.771717 ], [ 6.452674, 48.770571 ], [ 6.454164, 48.770513 ], [ 6.453421, 48.766079 ], [ 6.459752, 48.765917 ], [ 6.461076, 48.767522 ], [ 6.464136, 48.768282 ], [ 6.464336, 48.769278 ], [ 6.466048, 48.770344 ], [ 6.465391, 48.767943 ], [ 6.465957, 48.7666 ], [ 6.472264, 48.765401 ], [ 6.473929, 48.766653 ], [ 6.475613, 48.765609 ], [ 6.476666, 48.766751 ], [ 6.479108, 48.766248 ], [ 6.485565, 48.767047 ], [ 6.485445, 48.765775 ], [ 6.488438, 48.766403 ], [ 6.494616, 48.762112 ], [ 6.495922, 48.76261 ], [ 6.50317, 48.757468 ], [ 6.511986, 48.754557 ], [ 6.511033, 48.752815 ], [ 6.505589, 48.752401 ], [ 6.503923, 48.749084 ], [ 6.505187, 48.74737 ], [ 6.51464, 48.750427 ], [ 6.514321, 48.751385 ], [ 6.515518, 48.751883 ], [ 6.514359, 48.753807 ], [ 6.524044, 48.752652 ], [ 6.527113, 48.750166 ], [ 6.529325, 48.750412 ], [ 6.534744, 48.748928 ], [ 6.538633, 48.751392 ], [ 6.540331, 48.754007 ], [ 6.545635, 48.753408 ], [ 6.547834, 48.755117 ], [ 6.549891, 48.753151 ], [ 6.553645, 48.754968 ], [ 6.554147, 48.754088 ], [ 6.560019, 48.755394 ], [ 6.559205, 48.756171 ], [ 6.562398, 48.756479 ], [ 6.564248, 48.749553 ], [ 6.565958, 48.749727 ], [ 6.56628, 48.748747 ], [ 6.568156, 48.747842 ], [ 6.571662, 48.743299 ], [ 6.573103, 48.742596 ], [ 6.574422, 48.739632 ], [ 6.575456, 48.740019 ], [ 6.580531, 48.734824 ], [ 6.584531, 48.73307 ], [ 6.589738, 48.732498 ], [ 6.594902, 48.729292 ], [ 6.597964, 48.722578 ], [ 6.599089, 48.715701 ], [ 6.602332, 48.715878 ], [ 6.605934, 48.717311 ], [ 6.608205, 48.716208 ], [ 6.610393, 48.71694 ], [ 6.616657, 48.714714 ], [ 6.619942, 48.712138 ], [ 6.623637, 48.713722 ], [ 6.625992, 48.713188 ], [ 6.637489, 48.704599 ], [ 6.638753, 48.701132 ], [ 6.642767, 48.702643 ], [ 6.645699, 48.704794 ], [ 6.645659, 48.705895 ], [ 6.649139, 48.706689 ], [ 6.650352, 48.705349 ], [ 6.654069, 48.705914 ], [ 6.658408, 48.708043 ], [ 6.661955, 48.706039 ], [ 6.666969, 48.700468 ], [ 6.671594, 48.696823 ], [ 6.676792, 48.689001 ], [ 6.672249, 48.688196 ], [ 6.672139, 48.686376 ], [ 6.670154, 48.686122 ], [ 6.672163, 48.680433 ], [ 6.6703, 48.672056 ], [ 6.666753, 48.671355 ], [ 6.667984, 48.670723 ], [ 6.667355, 48.667723 ], [ 6.668164, 48.66728 ], [ 6.671888, 48.670197 ], [ 6.67241, 48.672676 ], [ 6.674738, 48.672469 ], [ 6.677723, 48.673525 ], [ 6.678793, 48.675272 ], [ 6.67812, 48.678111 ], [ 6.684986, 48.681265 ], [ 6.683778, 48.683322 ], [ 6.68606, 48.6842 ], [ 6.684951, 48.685379 ], [ 6.685636, 48.685767 ], [ 6.686648, 48.685358 ], [ 6.689062, 48.681746 ], [ 6.694697, 48.679783 ], [ 6.694954, 48.676997 ], [ 6.690519, 48.675551 ], [ 6.692218, 48.673067 ], [ 6.699578, 48.671362 ], [ 6.703809, 48.67452 ], [ 6.706026, 48.672138 ], [ 6.707324, 48.672328 ], [ 6.709107, 48.671074 ], [ 6.712385, 48.673242 ], [ 6.71288, 48.672836 ], [ 6.711653, 48.67128 ], [ 6.715587, 48.667534 ], [ 6.718165, 48.668114 ], [ 6.721136, 48.670015 ], [ 6.7241, 48.666224 ], [ 6.72746, 48.664175 ], [ 6.733819, 48.663236 ], [ 6.73646, 48.666733 ], [ 6.740653, 48.668989 ], [ 6.74838, 48.667043 ], [ 6.749171, 48.666126 ], [ 6.753163, 48.667902 ], [ 6.755023, 48.669902 ], [ 6.759913, 48.669918 ], [ 6.761584, 48.667499 ], [ 6.760907, 48.666039 ], [ 6.756129, 48.664107 ], [ 6.759508, 48.662745 ], [ 6.759049, 48.65963 ], [ 6.762443, 48.656272 ], [ 6.764145, 48.651985 ], [ 6.773024, 48.651482 ], [ 6.777169, 48.653992 ], [ 6.779117, 48.652832 ], [ 6.774257, 48.647881 ], [ 6.778443, 48.64608 ], [ 6.78249, 48.642723 ], [ 6.809536, 48.64746 ], [ 6.815886, 48.646742 ], [ 6.821613, 48.645088 ], [ 6.826113, 48.645344 ], [ 6.826452, 48.645981 ], [ 6.828747, 48.64449 ], [ 6.834402, 48.643758 ], [ 6.836449, 48.64233 ], [ 6.837465, 48.638719 ], [ 6.841982, 48.634891 ], [ 6.844051, 48.625973 ], [ 6.846041, 48.625325 ], [ 6.847375, 48.623311 ], [ 6.848813, 48.623793 ], [ 6.849335, 48.622648 ], [ 6.851609, 48.622987 ], [ 6.853122, 48.621278 ], [ 6.855173, 48.621662 ], [ 6.85938, 48.62122 ], [ 6.860859, 48.620264 ], [ 6.865953, 48.620285 ], [ 6.86733, 48.621785 ], [ 6.86912, 48.620904 ], [ 6.875609, 48.622844 ], [ 6.876336, 48.622391 ], [ 6.880965, 48.625202 ], [ 6.881448, 48.624645 ], [ 6.885179, 48.625291 ], [ 6.886111, 48.62408 ], [ 6.89103, 48.624028 ], [ 6.893157, 48.625271 ], [ 6.895137, 48.622716 ], [ 6.896919, 48.621993 ], [ 6.902608, 48.62166 ], [ 6.905639, 48.619921 ], [ 6.911383, 48.620557 ], [ 6.918213, 48.624767 ], [ 6.919119, 48.627344 ], [ 6.917622, 48.629555 ], [ 6.919571, 48.631558 ], [ 6.919885, 48.63404 ], [ 6.930272, 48.635592 ], [ 6.934617, 48.633238 ], [ 6.934459, 48.627687 ], [ 6.935749, 48.625593 ], [ 6.93731, 48.624176 ], [ 6.94027, 48.623991 ], [ 6.945231, 48.618727 ], [ 6.941879, 48.617488 ], [ 6.939989, 48.614921 ], [ 6.950915, 48.610905 ], [ 6.960792, 48.608282 ], [ 6.964292, 48.608794 ], [ 6.96784, 48.610698 ], [ 6.968686, 48.609825 ], [ 6.969035, 48.610988 ], [ 6.974508, 48.612195 ], [ 6.975243, 48.611502 ], [ 6.980187, 48.611791 ], [ 6.981346, 48.61107 ], [ 6.985813, 48.613047 ], [ 6.989858, 48.611646 ], [ 6.991444, 48.60935 ], [ 6.993219, 48.610104 ], [ 6.999054, 48.608012 ], [ 7.004558, 48.608525 ], [ 7.007575, 48.610812 ], [ 7.009959, 48.611512 ], [ 7.016293, 48.608545 ], [ 7.016813, 48.604571 ], [ 7.011231, 48.602141 ], [ 7.010325, 48.602865 ], [ 7.008138, 48.601093 ], [ 6.99644, 48.596565 ], [ 6.992684, 48.596693 ], [ 6.995784, 48.594542 ], [ 6.993322, 48.593574 ], [ 6.996829, 48.592519 ], [ 7.000491, 48.592476 ], [ 7.007129, 48.588689 ], [ 7.009838, 48.588313 ], [ 7.012148, 48.585531 ], [ 7.017948, 48.583479 ], [ 7.019235, 48.580203 ], [ 7.022051, 48.579199 ], [ 7.028588, 48.580526 ], [ 7.034152, 48.580552 ], [ 7.033963, 48.577226 ], [ 7.036082, 48.573766 ], [ 7.038588, 48.57203 ], [ 7.043127, 48.571492 ], [ 7.044596, 48.568181 ], [ 7.043505, 48.563969 ], [ 7.045946, 48.559967 ], [ 7.049144, 48.558313 ], [ 7.053322, 48.558103 ], [ 7.054334, 48.555686 ], [ 7.053291, 48.55416 ], [ 7.053949, 48.551856 ], [ 7.074038, 48.54588 ], [ 7.084119, 48.545412 ], [ 7.084032, 48.54122 ], [ 7.067904, 48.541139 ], [ 7.056462, 48.539151 ], [ 7.058683, 48.537571 ], [ 7.061534, 48.537146 ], [ 7.070122, 48.537819 ], [ 7.079633, 48.536617 ], [ 7.074031, 48.533811 ], [ 7.070392, 48.52851 ], [ 7.064726, 48.52378 ], [ 7.070919, 48.522486 ], [ 7.080724, 48.512629 ], [ 7.082968, 48.515111 ], [ 7.082861, 48.517289 ], [ 7.086791, 48.515612 ], [ 7.090087, 48.516081 ], [ 7.096124, 48.515265 ], [ 7.09769, 48.515458 ], [ 7.103443, 48.519258 ], [ 7.10463, 48.518524 ], [ 7.104798, 48.51704 ], [ 7.106131, 48.517005 ], [ 7.10663, 48.515244 ], [ 7.110017, 48.513955 ], [ 7.11499, 48.514042 ], [ 7.117903, 48.515438 ], [ 7.117255, 48.51335 ], [ 7.119811, 48.514058 ], [ 7.120274, 48.515222 ], [ 7.120909, 48.514129 ], [ 7.125536, 48.512716 ], [ 7.124656, 48.511908 ], [ 7.128099, 48.509576 ], [ 7.120713, 48.505203 ], [ 7.127335, 48.504007 ], [ 7.128688, 48.502042 ], [ 7.132509, 48.502149 ], [ 7.132392, 48.501028 ], [ 7.129514, 48.499938 ], [ 7.132875, 48.498892 ], [ 7.135645, 48.499094 ], [ 7.135567, 48.49739 ], [ 7.127962, 48.500001 ], [ 7.126985, 48.498959 ], [ 7.122063, 48.500699 ], [ 7.11389, 48.499651 ], [ 7.115508, 48.498821 ], [ 7.114872, 48.498531 ], [ 7.111502, 48.499478 ], [ 7.103223, 48.499823 ], [ 7.100536, 48.502849 ], [ 7.100057, 48.504633 ], [ 7.09949, 48.504469 ], [ 7.100137, 48.503258 ], [ 7.098785, 48.501189 ], [ 7.095126, 48.501931 ], [ 7.095583, 48.50457 ], [ 7.094251, 48.506193 ], [ 7.09062, 48.503653 ], [ 7.090916, 48.498273 ], [ 7.094522, 48.495462 ], [ 7.09366, 48.489282 ], [ 7.097696, 48.487625 ], [ 7.105059, 48.487181 ], [ 7.118255, 48.484282 ], [ 7.118982, 48.483351 ], [ 7.117002, 48.482441 ], [ 7.11686, 48.479319 ], [ 7.118791, 48.474528 ], [ 7.118252, 48.473609 ], [ 7.114549, 48.472362 ], [ 7.109886, 48.466841 ], [ 7.109427, 48.465932 ], [ 7.110677, 48.464267 ], [ 7.110238, 48.462329 ], [ 7.105656, 48.457499 ], [ 7.104308, 48.453061 ], [ 7.101909, 48.451411 ], [ 7.104891, 48.448624 ], [ 7.106877, 48.448138 ], [ 7.106873, 48.446608 ], [ 7.104822, 48.444599 ], [ 7.106613, 48.443856 ], [ 7.105901, 48.441804 ], [ 7.106357, 48.441269 ], [ 7.109638, 48.439626 ], [ 7.109256, 48.437847 ], [ 7.105616, 48.437437 ], [ 7.099817, 48.434657 ], [ 7.095855, 48.42714 ], [ 7.097629, 48.417154 ], [ 7.095756, 48.412725 ], [ 7.092199, 48.410183 ], [ 7.097508, 48.405782 ], [ 7.0938, 48.403847 ], [ 7.088609, 48.402805 ], [ 7.084979, 48.397881 ], [ 7.087755, 48.395689 ], [ 7.089995, 48.395778 ], [ 7.093396, 48.394253 ], [ 7.094595, 48.392744 ], [ 7.096282, 48.39294 ], [ 7.09716, 48.390368 ], [ 7.100818, 48.390361 ], [ 7.103924, 48.388511 ], [ 7.105397, 48.386105 ], [ 7.105318, 48.38442 ], [ 7.109336, 48.37874 ], [ 7.108161, 48.376985 ], [ 7.105972, 48.377443 ], [ 7.106645, 48.376065 ], [ 7.10541, 48.375125 ], [ 7.100918, 48.374054 ], [ 7.096191, 48.371282 ], [ 7.085663, 48.360141 ], [ 7.083046, 48.356014 ], [ 7.075872, 48.352653 ], [ 7.078529, 48.35107 ], [ 7.090377, 48.348503 ], [ 7.094397, 48.348458 ], [ 7.098236, 48.347128 ], [ 7.097927, 48.346359 ], [ 7.100569, 48.34483 ], [ 7.102558, 48.34528 ], [ 7.108871, 48.343859 ], [ 7.112766, 48.338899 ], [ 7.113307, 48.337697 ], [ 7.112668, 48.336087 ], [ 7.11333, 48.335414 ], [ 7.119911, 48.333506 ], [ 7.133261, 48.333335 ], [ 7.140802, 48.331781 ], [ 7.149777, 48.333642 ], [ 7.152574, 48.333204 ], [ 7.164121, 48.337262 ], [ 7.169538, 48.342323 ], [ 7.174956, 48.341814 ], [ 7.177767, 48.340468 ], [ 7.183877, 48.339198 ], [ 7.184689, 48.336239 ], [ 7.180867, 48.335151 ], [ 7.180508, 48.329221 ], [ 7.176994, 48.328425 ], [ 7.177432, 48.32545 ], [ 7.182302, 48.32462 ], [ 7.191543, 48.324892 ], [ 7.191457, 48.321581 ], [ 7.189765, 48.318768 ], [ 7.197086, 48.315474 ], [ 7.197271, 48.311121 ], [ 7.198345, 48.310303 ], [ 7.19661, 48.306457 ], [ 7.194081, 48.303988 ], [ 7.193615, 48.302023 ], [ 7.186674, 48.301828 ], [ 7.172443, 48.297484 ], [ 7.173591, 48.295953 ], [ 7.172222, 48.293464 ], [ 7.175535, 48.291111 ], [ 7.177038, 48.288991 ], [ 7.173382, 48.287682 ], [ 7.172176, 48.285597 ], [ 7.168801, 48.285263 ], [ 7.164059, 48.281216 ], [ 7.158519, 48.273798 ], [ 7.160763, 48.271123 ], [ 7.159517, 48.26879 ], [ 7.154025, 48.265297 ], [ 7.147692, 48.264381 ], [ 7.146471, 48.260242 ], [ 7.142687, 48.259329 ], [ 7.141447, 48.258156 ], [ 7.141243, 48.255989 ], [ 7.139102, 48.253695 ], [ 7.139064, 48.250285 ], [ 7.13304, 48.247534 ], [ 7.133554, 48.245937 ], [ 7.132711, 48.243102 ], [ 7.134258, 48.237755 ], [ 7.130473, 48.236424 ], [ 7.129754, 48.231493 ], [ 7.130267, 48.229763 ], [ 7.128248, 48.225892 ], [ 7.126415, 48.224913 ], [ 7.12601, 48.222275 ], [ 7.123021, 48.216248 ], [ 7.115402, 48.212163 ], [ 7.11558, 48.210395 ], [ 7.117888, 48.208211 ], [ 7.113445, 48.204858 ], [ 7.108646, 48.203262 ], [ 7.107038, 48.201451 ], [ 7.104941, 48.200559 ], [ 7.107025, 48.19938 ], [ 7.108189, 48.197633 ], [ 7.106145, 48.194383 ], [ 7.099891, 48.189198 ], [ 7.095386, 48.188249 ], [ 7.091137, 48.184019 ], [ 7.085784, 48.184062 ], [ 7.084728, 48.182748 ], [ 7.085379, 48.181415 ], [ 7.083403, 48.17744 ], [ 7.081327, 48.175787 ], [ 7.083226, 48.172494 ], [ 7.077561, 48.170921 ], [ 7.080294, 48.165605 ], [ 7.078777, 48.163837 ], [ 7.075865, 48.162567 ], [ 7.075038, 48.160123 ], [ 7.072613, 48.158599 ], [ 7.071164, 48.156721 ], [ 7.070727, 48.153133 ], [ 7.067844, 48.150279 ], [ 7.064796, 48.145513 ], [ 7.062438, 48.144536 ], [ 7.059855, 48.144918 ], [ 7.058008, 48.137823 ], [ 7.065668, 48.133792 ], [ 7.07006, 48.129586 ], [ 7.084036, 48.129167 ], [ 7.083621, 48.121962 ], [ 7.077035, 48.108939 ], [ 7.071354, 48.107672 ], [ 7.06836, 48.104072 ], [ 7.067518, 48.100984 ], [ 7.064807, 48.098772 ], [ 7.057301, 48.088592 ], [ 7.052469, 48.085786 ], [ 7.05164, 48.082623 ], [ 7.047019, 48.079975 ], [ 7.037476, 48.078147 ], [ 7.036486, 48.076715 ], [ 7.030058, 48.072337 ], [ 7.029945, 48.066112 ], [ 7.022797, 48.063775 ], [ 7.024228, 48.061453 ], [ 7.022514, 48.058054 ], [ 7.023405, 48.055991 ], [ 7.018868, 48.055086 ], [ 7.016157, 48.051869 ], [ 7.014101, 48.047704 ], [ 7.012057, 48.046265 ], [ 7.011921, 48.045057 ], [ 7.009712, 48.04285 ], [ 7.016364, 48.03725 ], [ 7.012975, 48.036653 ], [ 7.010619, 48.034857 ], [ 7.009212, 48.032927 ], [ 7.012333, 48.031711 ], [ 7.00751, 48.028805 ], [ 7.007692, 48.028043 ], [ 7.001667, 48.021873 ], [ 6.999941, 48.021151 ], [ 6.994232, 48.021028 ], [ 6.990467, 48.019607 ], [ 6.986208, 48.015923 ], [ 6.985625, 48.013885 ], [ 6.982952, 48.010889 ], [ 6.983031, 48.009859 ], [ 6.974724, 48.009016 ], [ 6.969034, 48.006272 ], [ 6.968078, 48.004315 ], [ 6.961404, 48.000265 ], [ 6.958556, 48.000693 ], [ 6.957871, 48.001578 ], [ 6.953596, 48.003051 ], [ 6.943824, 47.999517 ], [ 6.943404, 47.993247 ], [ 6.944103, 47.99218 ], [ 6.943539, 47.990116 ], [ 6.94543, 47.987303 ], [ 6.941922, 47.983662 ], [ 6.943761, 47.980378 ], [ 6.942306, 47.97985 ], [ 6.942157, 47.978144 ], [ 6.938968, 47.977729 ], [ 6.939087, 47.975247 ], [ 6.931888, 47.973082 ], [ 6.930682, 47.971929 ], [ 6.930718, 47.969271 ], [ 6.928929, 47.968756 ], [ 6.927986, 47.967171 ], [ 6.928848, 47.966281 ], [ 6.928125, 47.961825 ], [ 6.925702, 47.960551 ], [ 6.926454, 47.957783 ], [ 6.923617, 47.953892 ], [ 6.923524, 47.952508 ], [ 6.925059, 47.950959 ], [ 6.922222, 47.949471 ], [ 6.922098, 47.948034 ], [ 6.920762, 47.947432 ], [ 6.919399, 47.944277 ], [ 6.921444, 47.942836 ], [ 6.922428, 47.94104 ], [ 6.922465, 47.940046 ], [ 6.921222, 47.939279 ], [ 6.921834, 47.938101 ], [ 6.925107, 47.935621 ], [ 6.925423, 47.933852 ], [ 6.924315, 47.931913 ], [ 6.925707, 47.930958 ], [ 6.925743, 47.92983 ], [ 6.922716, 47.926134 ], [ 6.920893, 47.925438 ], [ 6.912351, 47.918375 ], [ 6.915439, 47.918434 ], [ 6.917341, 47.916423 ], [ 6.919363, 47.917411 ], [ 6.926667, 47.917136 ], [ 6.927037, 47.912349 ], [ 6.928735, 47.909534 ], [ 6.926317, 47.906387 ], [ 6.922717, 47.905415 ], [ 6.916725, 47.90213 ], [ 6.918293, 47.89839 ], [ 6.910133, 47.894618 ], [ 6.900219, 47.891195 ], [ 6.896809, 47.891166 ], [ 6.896686, 47.890466 ], [ 6.898123, 47.887088 ], [ 6.897398, 47.885675 ], [ 6.897813, 47.884263 ], [ 6.907034, 47.884037 ], [ 6.909705, 47.881635 ], [ 6.907559, 47.880053 ], [ 6.904177, 47.879454 ], [ 6.90487, 47.875619 ], [ 6.908154, 47.871931 ], [ 6.906795, 47.870064 ], [ 6.906525, 47.865057 ], [ 6.907004, 47.863975 ], [ 6.908843, 47.863364 ], [ 6.911179, 47.863604 ], [ 6.915806, 47.858727 ], [ 6.919395, 47.858119 ], [ 6.918144, 47.856655 ], [ 6.917966, 47.854627 ], [ 6.919922, 47.850156 ], [ 6.915239, 47.846778 ], [ 6.906936, 47.84614 ], [ 6.900951, 47.840719 ], [ 6.898036, 47.83906 ], [ 6.897645, 47.835755 ], [ 6.895459, 47.832801 ], [ 6.888521, 47.833425 ], [ 6.884555, 47.831699 ], [ 6.879874, 47.831537 ], [ 6.874538, 47.829019 ], [ 6.867667, 47.829457 ], [ 6.859205, 47.824678 ], [ 6.857746, 47.823136 ], [ 6.852027, 47.824835 ], [ 6.845879, 47.822894 ], [ 6.842345, 47.825091 ], [ 6.839542, 47.824722 ], [ 6.835501, 47.821499 ], [ 6.833966, 47.818599 ], [ 6.823837, 47.814256 ], [ 6.823608, 47.813284 ], [ 6.820753, 47.814873 ], [ 6.820867, 47.815938 ], [ 6.817258, 47.818619 ], [ 6.811081, 47.819971 ], [ 6.811209, 47.821497 ], [ 6.808048, 47.822069 ], [ 6.802336, 47.825069 ], [ 6.799857, 47.827839 ], [ 6.792782, 47.829727 ], [ 6.788709, 47.833844 ], [ 6.788647, 47.834701 ], [ 6.790658, 47.836336 ], [ 6.792547, 47.840497 ], [ 6.792225, 47.842221 ], [ 6.790375, 47.844093 ], [ 6.791758, 47.844626 ], [ 6.791148, 47.845325 ], [ 6.789639, 47.844887 ], [ 6.788017, 47.845489 ], [ 6.784785, 47.850027 ], [ 6.782616, 47.85128 ], [ 6.777903, 47.850919 ], [ 6.770162, 47.851979 ], [ 6.766621, 47.852835 ], [ 6.766418, 47.853608 ], [ 6.764465, 47.853457 ], [ 6.763884, 47.857428 ], [ 6.760366, 47.858602 ], [ 6.756044, 47.85918 ], [ 6.753304, 47.858687 ], [ 6.741079, 47.861871 ], [ 6.737221, 47.860986 ], [ 6.737823, 47.861788 ], [ 6.737184, 47.864949 ], [ 6.730718, 47.866197 ], [ 6.729338, 47.868777 ], [ 6.725095, 47.869525 ], [ 6.719392, 47.872708 ], [ 6.710964, 47.875348 ], [ 6.709244, 47.877516 ], [ 6.706239, 47.878561 ], [ 6.705881, 47.880386 ], [ 6.703676, 47.881418 ], [ 6.696862, 47.882838 ], [ 6.692642, 47.885633 ], [ 6.689676, 47.886424 ], [ 6.689231, 47.887634 ], [ 6.68551, 47.888445 ], [ 6.682742, 47.89062 ], [ 6.676306, 47.890334 ], [ 6.67176, 47.892853 ], [ 6.666931, 47.893775 ], [ 6.662669, 47.897449 ], [ 6.659233, 47.89803 ], [ 6.654805, 47.901069 ], [ 6.64641, 47.903225 ], [ 6.643744, 47.905034 ], [ 6.639284, 47.910287 ], [ 6.641964, 47.91852 ], [ 6.639789, 47.91896 ], [ 6.640138, 47.919938 ], [ 6.633976, 47.920795 ], [ 6.629098, 47.925072 ], [ 6.630809, 47.927981 ], [ 6.62815, 47.929881 ], [ 6.622089, 47.930328 ], [ 6.617395, 47.931941 ], [ 6.611593, 47.937242 ], [ 6.607259, 47.942489 ], [ 6.607365, 47.943791 ], [ 6.605422, 47.944627 ], [ 6.589709, 47.9426 ], [ 6.590104, 47.941794 ], [ 6.568284, 47.934495 ], [ 6.563411, 47.931385 ], [ 6.560947, 47.928232 ], [ 6.559429, 47.92462 ], [ 6.552025, 47.915496 ], [ 6.552376, 47.911743 ], [ 6.543961, 47.908446 ], [ 6.544519, 47.905364 ], [ 6.544003, 47.903086 ], [ 6.540916, 47.902161 ], [ 6.537932, 47.90254 ], [ 6.534894, 47.901388 ], [ 6.519509, 47.899914 ], [ 6.503214, 47.896219 ], [ 6.478265, 47.885443 ], [ 6.474081, 47.890995 ], [ 6.478359, 47.890812 ], [ 6.477277, 47.893721 ], [ 6.472471, 47.893529 ], [ 6.465521, 47.897106 ], [ 6.462287, 47.899427 ], [ 6.461464, 47.902 ], [ 6.460076, 47.902458 ], [ 6.4583, 47.905827 ], [ 6.456018, 47.906627 ], [ 6.460436, 47.913451 ], [ 6.463423, 47.913976 ], [ 6.461011, 47.91641 ], [ 6.462661, 47.917283 ], [ 6.458825, 47.918551 ], [ 6.458976, 47.919626 ], [ 6.457773, 47.920524 ], [ 6.451855, 47.920237 ], [ 6.44796, 47.922671 ], [ 6.448119, 47.926269 ], [ 6.441607, 47.930756 ], [ 6.441125, 47.933132 ], [ 6.436306, 47.936498 ], [ 6.436816, 47.93702 ], [ 6.434502, 47.941739 ], [ 6.434804, 47.942925 ], [ 6.43159, 47.943854 ], [ 6.42933, 47.943341 ], [ 6.425601, 47.943853 ], [ 6.418221, 47.942697 ], [ 6.415231, 47.943431 ], [ 6.408339, 47.943288 ], [ 6.407327, 47.94476 ], [ 6.407683, 47.947629 ], [ 6.405823, 47.949585 ], [ 6.405358, 47.953112 ], [ 6.398951, 47.955281 ], [ 6.394188, 47.955167 ], [ 6.391399, 47.957244 ], [ 6.390344, 47.959217 ], [ 6.391011, 47.960517 ], [ 6.389102, 47.960744 ], [ 6.385167, 47.958577 ], [ 6.379311, 47.958641 ], [ 6.364995, 47.96257 ], [ 6.363889, 47.961256 ], [ 6.361548, 47.961337 ], [ 6.360496, 47.958087 ], [ 6.358998, 47.957778 ], [ 6.35508, 47.959129 ], [ 6.34834, 47.956728 ], [ 6.344614, 47.954283 ], [ 6.339031, 47.954405 ], [ 6.334322, 47.955844 ], [ 6.328981, 47.953495 ], [ 6.323989, 47.94842 ], [ 6.319428, 47.949902 ], [ 6.307282, 47.950136 ], [ 6.301246, 47.95367 ], [ 6.295957, 47.955517 ], [ 6.289078, 47.955841 ], [ 6.277332, 47.953806 ], [ 6.250772, 47.939076 ], [ 6.243243, 47.939643 ], [ 6.2387, 47.937094 ], [ 6.238631, 47.933449 ], [ 6.237983, 47.93284 ], [ 6.219218, 47.935741 ], [ 6.218793, 47.934382 ], [ 6.214337, 47.930415 ], [ 6.205349, 47.931965 ], [ 6.205738, 47.935159 ], [ 6.20871, 47.939646 ], [ 6.208643, 47.942103 ], [ 6.207015, 47.943549 ], [ 6.207973, 47.946807 ], [ 6.200577, 47.948039 ], [ 6.197115, 47.947433 ], [ 6.196507, 47.949209 ], [ 6.197367, 47.951792 ], [ 6.190889, 47.953942 ], [ 6.186638, 47.953541 ], [ 6.182386, 47.955887 ], [ 6.18206, 47.956933 ], [ 6.180329, 47.95618 ], [ 6.179063, 47.954421 ], [ 6.173878, 47.95225 ], [ 6.167989, 47.952353 ], [ 6.166506, 47.953167 ], [ 6.166069, 47.954531 ], [ 6.164977, 47.954253 ], [ 6.162078, 47.956778 ], [ 6.162269, 47.957582 ], [ 6.160743, 47.958712 ], [ 6.160798, 47.964752 ], [ 6.157332, 47.967805 ], [ 6.155605, 47.96682 ], [ 6.155399, 47.964514 ], [ 6.149771, 47.96559 ], [ 6.149475, 47.96822 ], [ 6.150291, 47.970241 ], [ 6.155183, 47.9721 ], [ 6.16454, 47.973114 ], [ 6.16392, 47.975019 ], [ 6.165283, 47.976731 ], [ 6.16202, 47.978356 ], [ 6.157366, 47.984176 ], [ 6.160711, 47.989451 ], [ 6.159745, 47.992302 ], [ 6.157697, 47.991987 ], [ 6.152265, 47.994541 ], [ 6.153034, 48.000242 ], [ 6.155182, 48.002702 ], [ 6.156325, 48.005184 ], [ 6.156189, 48.006764 ], [ 6.152089, 48.009548 ], [ 6.147019, 48.015521 ], [ 6.138618, 48.017189 ], [ 6.137524, 48.018755 ], [ 6.134864, 48.020011 ], [ 6.131239, 48.019994 ], [ 6.133485, 48.021362 ], [ 6.131306, 48.024135 ], [ 6.121584, 48.020116 ], [ 6.117346, 48.019948 ], [ 6.109451, 48.013814 ], [ 6.109391, 48.012618 ], [ 6.097739, 48.015043 ], [ 6.080887, 48.012947 ], [ 6.073196, 48.015935 ], [ 6.069547, 48.013874 ], [ 6.055706, 48.008823 ], [ 6.041132, 48.004473 ], [ 6.032136, 47.998778 ], [ 6.03063, 47.994595 ], [ 6.032248, 47.991876 ], [ 6.032159, 47.990619 ], [ 6.02495, 47.991829 ], [ 6.024671, 47.987093 ], [ 6.018998, 47.987478 ], [ 6.018291, 47.984079 ], [ 6.022415, 47.9815 ], [ 6.023725, 47.982198 ], [ 6.02608, 47.981358 ], [ 6.022961, 47.97713 ], [ 6.020603, 47.975904 ], [ 6.017283, 47.972497 ], [ 6.019084, 47.969768 ], [ 6.012143, 47.971848 ], [ 6.009464, 47.967072 ], [ 6.008677, 47.967322 ], [ 6.006235, 47.964022 ], [ 6.009331, 47.961314 ], [ 6.005269, 47.95784 ], [ 6.002266, 47.956089 ], [ 5.996971, 47.95702 ], [ 5.995786, 47.958317 ], [ 5.993103, 47.957321 ], [ 5.992151, 47.958071 ], [ 5.989371, 47.956627 ], [ 5.987337, 47.958222 ], [ 5.98398, 47.95621 ], [ 5.981953, 47.957942 ], [ 5.977952, 47.957086 ], [ 5.975648, 47.957958 ], [ 5.970534, 47.957201 ] ] ] ] } }
]
}
