{
"type": "FeatureCollection",
"name": "Plaque Sud54",
"crs": { "type": "name", "properties": { "name": "urn:ogc:def:crs:OGC:1.3:CRS84" } },
"xy_coordinate_resolution": 1e-06,
"features": [
{ "type": "Feature", "properties": { "fid": 1, "nom_territoire": "Sud54" }, "geometry": { "type": "MultiPolygon", "coordinates": [ [ [ [ 6.200158, 48.398035 ], [ 6.197632, 48.398613 ], [ 6.196138, 48.396921 ], [ 6.19103, 48.395417 ], [ 6.190192, 48.396885 ], [ 6.189039, 48.396833 ], [ 6.187912, 48.39786 ], [ 6.178463, 48.39761 ], [ 6.178238, 48.40044 ], [ 6.180373, 48.403318 ], [ 6.180544, 48.405542 ], [ 6.181866, 48.405832 ], [ 6.184542, 48.408335 ], [ 6.183686, 48.409408 ], [ 6.181253, 48.410043 ], [ 6.181879, 48.412062 ], [ 6.177028, 48.409008 ], [ 6.178397, 48.406852 ], [ 6.173415, 48.406665 ], [ 6.173485, 48.405549 ], [ 6.169766, 48.405507 ], [ 6.169349, 48.406287 ], [ 6.165517, 48.405645 ], [ 6.160204, 48.406007 ], [ 6.150111, 48.409493 ], [ 6.148826, 48.407301 ], [ 6.147203, 48.407808 ], [ 6.146908, 48.404264 ], [ 6.150561, 48.4033 ], [ 6.14974, 48.399154 ], [ 6.150611, 48.399036 ], [ 6.151621, 48.396515 ], [ 6.147298, 48.394561 ], [ 6.149135, 48.393176 ], [ 6.14902, 48.391336 ], [ 6.15252, 48.389197 ], [ 6.153401, 48.387424 ], [ 6.151392, 48.38612 ], [ 6.149899, 48.383593 ], [ 6.150235, 48.382576 ], [ 6.152016, 48.382632 ], [ 6.15244, 48.381434 ], [ 6.149334, 48.380642 ], [ 6.149847, 48.380023 ], [ 6.147164, 48.378625 ], [ 6.147519, 48.377938 ], [ 6.144229, 48.376343 ], [ 6.139429, 48.372043 ], [ 6.141208, 48.372165 ], [ 6.141796, 48.370211 ], [ 6.132712, 48.362682 ], [ 6.126661, 48.365676 ], [ 6.125062, 48.367326 ], [ 6.122847, 48.365241 ], [ 6.122521, 48.363669 ], [ 6.121038, 48.363751 ], [ 6.120655, 48.362188 ], [ 6.119851, 48.362194 ], [ 6.120468, 48.358563 ], [ 6.116731, 48.354042 ], [ 6.115123, 48.355164 ], [ 6.11136, 48.354484 ], [ 6.109278, 48.355586 ], [ 6.106043, 48.355653 ], [ 6.103005, 48.354715 ], [ 6.102129, 48.356633 ], [ 6.098736, 48.356391 ], [ 6.099111, 48.356918 ], [ 6.097289, 48.357877 ], [ 6.099, 48.359892 ], [ 6.098114, 48.361721 ], [ 6.095493, 48.360217 ], [ 6.092739, 48.361063 ], [ 6.09376, 48.363849 ], [ 6.098284, 48.363831 ], [ 6.09794, 48.368641 ], [ 6.099017, 48.36894 ], [ 6.097467, 48.372614 ], [ 6.096619, 48.372267 ], [ 6.096624, 48.373254 ], [ 6.095603, 48.373151 ], [ 6.094217, 48.374545 ], [ 6.092177, 48.374341 ], [ 6.091442, 48.375408 ], [ 6.092099, 48.376099 ], [ 6.089011, 48.38102 ], [ 6.091246, 48.381556 ], [ 6.091218, 48.382256 ], [ 6.088267, 48.382466 ], [ 6.087189, 48.383827 ], [ 6.085831, 48.383449 ], [ 6.086104, 48.382953 ], [ 6.082165, 48.38231 ], [ 6.078384, 48.378834 ], [ 6.076817, 48.379903 ], [ 6.073246, 48.376949 ], [ 6.069074, 48.37529 ], [ 6.069392, 48.3733 ], [ 6.074742, 48.376373 ], [ 6.076938, 48.375399 ], [ 6.079849, 48.369082 ], [ 6.079375, 48.363377 ], [ 6.078201, 48.362509 ], [ 6.075725, 48.362831 ], [ 6.070835, 48.360959 ], [ 6.071183, 48.359738 ], [ 6.065551, 48.359086 ], [ 6.061669, 48.359693 ], [ 6.058233, 48.362624 ], [ 6.056844, 48.3625 ], [ 6.0548, 48.365856 ], [ 6.051939, 48.365035 ], [ 6.050493, 48.366082 ], [ 6.049287, 48.365456 ], [ 6.04859, 48.366153 ], [ 6.046522, 48.36524 ], [ 6.048523, 48.362983 ], [ 6.0427, 48.360413 ], [ 6.039445, 48.359939 ], [ 6.03856, 48.3608 ], [ 6.040641, 48.361654 ], [ 6.039494, 48.363245 ], [ 6.029819, 48.360337 ], [ 6.025228, 48.356969 ], [ 6.023096, 48.357395 ], [ 6.022627, 48.356464 ], [ 6.021275, 48.357416 ], [ 6.022467, 48.358045 ], [ 6.020488, 48.3614 ], [ 6.0173, 48.36042 ], [ 6.016111, 48.361582 ], [ 6.013626, 48.359872 ], [ 6.011348, 48.360973 ], [ 6.009112, 48.360615 ], [ 6.008342, 48.361643 ], [ 6.003633, 48.36319 ], [ 6.003101, 48.36228 ], [ 6.006064, 48.358204 ], [ 6.003873, 48.357555 ], [ 6.001364, 48.360654 ], [ 5.998242, 48.358737 ], [ 5.994434, 48.354985 ], [ 5.994408, 48.35405 ], [ 5.98801, 48.35538 ], [ 5.983963, 48.352863 ], [ 5.985316, 48.351858 ], [ 5.983951, 48.350476 ], [ 5.983433, 48.350807 ], [ 5.980607, 48.349005 ], [ 5.972072, 48.352853 ], [ 5.966217, 48.35139 ], [ 5.966174, 48.350188 ], [ 5.961515, 48.350084 ], [ 5.961483, 48.350702 ], [ 5.959236, 48.35042 ], [ 5.957414, 48.355111 ], [ 5.953252, 48.358026 ], [ 5.9549, 48.36045 ], [ 5.954261, 48.361152 ], [ 5.955445, 48.362646 ], [ 5.954817, 48.363555 ], [ 5.960451, 48.36472 ], [ 5.957488, 48.365219 ], [ 5.956688, 48.367473 ], [ 5.952086, 48.365665 ], [ 5.951611, 48.3671 ], [ 5.949381, 48.368963 ], [ 5.949235, 48.371041 ], [ 5.9526, 48.37134 ], [ 5.953388, 48.374326 ], [ 5.948614, 48.374563 ], [ 5.944421, 48.375978 ], [ 5.943736, 48.374495 ], [ 5.940604, 48.374744 ], [ 5.936835, 48.373006 ], [ 5.933958, 48.370027 ], [ 5.933799, 48.368653 ], [ 5.931498, 48.368925 ], [ 5.930571, 48.366733 ], [ 5.927864, 48.365106 ], [ 5.926097, 48.365548 ], [ 5.925456, 48.362887 ], [ 5.92207, 48.362605 ], [ 5.920899, 48.360789 ], [ 5.917233, 48.363062 ], [ 5.915061, 48.361022 ], [ 5.912351, 48.359859 ], [ 5.912082, 48.364242 ], [ 5.911059, 48.365236 ], [ 5.918453, 48.369496 ], [ 5.920997, 48.370139 ], [ 5.921542, 48.368626 ], [ 5.926095, 48.370335 ], [ 5.927593, 48.371646 ], [ 5.931022, 48.37805 ], [ 5.929591, 48.379633 ], [ 5.929011, 48.38216 ], [ 5.927907, 48.382367 ], [ 5.924799, 48.389108 ], [ 5.927705, 48.393859 ], [ 5.92608, 48.395814 ], [ 5.924581, 48.396271 ], [ 5.925452, 48.396843 ], [ 5.920335, 48.401249 ], [ 5.920249, 48.403164 ], [ 5.918523, 48.405342 ], [ 5.911098, 48.403454 ], [ 5.907186, 48.399828 ], [ 5.904785, 48.400301 ], [ 5.911549, 48.405825 ], [ 5.909642, 48.407086 ], [ 5.912766, 48.411986 ], [ 5.911051, 48.411645 ], [ 5.909305, 48.41254 ], [ 5.910398, 48.416434 ], [ 5.907954, 48.41655 ], [ 5.907257, 48.419348 ], [ 5.911506, 48.42246 ], [ 5.910969, 48.423815 ], [ 5.913299, 48.425117 ], [ 5.915321, 48.427792 ], [ 5.920371, 48.427559 ], [ 5.918754, 48.424647 ], [ 5.921988, 48.423096 ], [ 5.924285, 48.423297 ], [ 5.924904, 48.421822 ], [ 5.931357, 48.434174 ], [ 5.923412, 48.43645 ], [ 5.912507, 48.435364 ], [ 5.910208, 48.435846 ], [ 5.908421, 48.437416 ], [ 5.898402, 48.435888 ], [ 5.897766, 48.436382 ], [ 5.898203, 48.434366 ], [ 5.901271, 48.433734 ], [ 5.904557, 48.431556 ], [ 5.907058, 48.431451 ], [ 5.909293, 48.429277 ], [ 5.906449, 48.427802 ], [ 5.907086, 48.425225 ], [ 5.905399, 48.418638 ], [ 5.900857, 48.416548 ], [ 5.900589, 48.414621 ], [ 5.899513, 48.413889 ], [ 5.900383, 48.413773 ], [ 5.899295, 48.408901 ], [ 5.896254, 48.406923 ], [ 5.894693, 48.406844 ], [ 5.895194, 48.405254 ], [ 5.890422, 48.404858 ], [ 5.8898, 48.405642 ], [ 5.888991, 48.404676 ], [ 5.884584, 48.404457 ], [ 5.882551, 48.403394 ], [ 5.878606, 48.405006 ], [ 5.876016, 48.40348 ], [ 5.875894, 48.401349 ], [ 5.874152, 48.400615 ], [ 5.872059, 48.404131 ], [ 5.872513, 48.404838 ], [ 5.870697, 48.405972 ], [ 5.867729, 48.40706 ], [ 5.860718, 48.407324 ], [ 5.855381, 48.409373 ], [ 5.859336, 48.416499 ], [ 5.867575, 48.421193 ], [ 5.869701, 48.42446 ], [ 5.872951, 48.427323 ], [ 5.875862, 48.429304 ], [ 5.877708, 48.42922 ], [ 5.883245, 48.434156 ], [ 5.885388, 48.437842 ], [ 5.885044, 48.439359 ], [ 5.890873, 48.442923 ], [ 5.89654, 48.444827 ], [ 5.899082, 48.446834 ], [ 5.899654, 48.448378 ], [ 5.898563, 48.449256 ], [ 5.887019, 48.453832 ], [ 5.886069, 48.45758 ], [ 5.886891, 48.459939 ], [ 5.89221, 48.462373 ], [ 5.893309, 48.463876 ], [ 5.890597, 48.467241 ], [ 5.885581, 48.469151 ], [ 5.887777, 48.470614 ], [ 5.891921, 48.47165 ], [ 5.903565, 48.480245 ], [ 5.904304, 48.482922 ], [ 5.901791, 48.482998 ], [ 5.899168, 48.485328 ], [ 5.906501, 48.495162 ], [ 5.898733, 48.493515 ], [ 5.887496, 48.494133 ], [ 5.870265, 48.499612 ], [ 5.862195, 48.50696 ], [ 5.852302, 48.506734 ], [ 5.848203, 48.504552 ], [ 5.846266, 48.505978 ], [ 5.845987, 48.507131 ], [ 5.838134, 48.504955 ], [ 5.83656, 48.503717 ], [ 5.837265, 48.501007 ], [ 5.833189, 48.500922 ], [ 5.829144, 48.499439 ], [ 5.826378, 48.49674 ], [ 5.823019, 48.49612 ], [ 5.819357, 48.497975 ], [ 5.810807, 48.498399 ], [ 5.810488, 48.496012 ], [ 5.806495, 48.493159 ], [ 5.798271, 48.491443 ], [ 5.790298, 48.488122 ], [ 5.789749, 48.486362 ], [ 5.78656, 48.482735 ], [ 5.78488, 48.484251 ], [ 5.785375, 48.485005 ], [ 5.775518, 48.487869 ], [ 5.771758, 48.491758 ], [ 5.765167, 48.496541 ], [ 5.764865, 48.499943 ], [ 5.765988, 48.504677 ], [ 5.76342, 48.507894 ], [ 5.761601, 48.512427 ], [ 5.762645, 48.514074 ], [ 5.761642, 48.515584 ], [ 5.763521, 48.51624 ], [ 5.760909, 48.520174 ], [ 5.760991, 48.523088 ], [ 5.762321, 48.526682 ], [ 5.765833, 48.532061 ], [ 5.766314, 48.535202 ], [ 5.771634, 48.534785 ], [ 5.77439, 48.535467 ], [ 5.776519, 48.538067 ], [ 5.776541, 48.541044 ], [ 5.768002, 48.542773 ], [ 5.767858, 48.544102 ], [ 5.762146, 48.545246 ], [ 5.762943, 48.546401 ], [ 5.755528, 48.546842 ], [ 5.755939, 48.547419 ], [ 5.753164, 48.547988 ], [ 5.750824, 48.549879 ], [ 5.744382, 48.552704 ], [ 5.740594, 48.553412 ], [ 5.732914, 48.552779 ], [ 5.729733, 48.553354 ], [ 5.71536, 48.561833 ], [ 5.713485, 48.565082 ], [ 5.714143, 48.573238 ], [ 5.712753, 48.577438 ], [ 5.713012, 48.580696 ], [ 5.715458, 48.584861 ], [ 5.714827, 48.585467 ], [ 5.716314, 48.586023 ], [ 5.714962, 48.588753 ], [ 5.718577, 48.590492 ], [ 5.717422, 48.59157 ], [ 5.724853, 48.592989 ], [ 5.725912, 48.592351 ], [ 5.735026, 48.594527 ], [ 5.738751, 48.596672 ], [ 5.743056, 48.597177 ], [ 5.747912, 48.599835 ], [ 5.75221, 48.606535 ], [ 5.755726, 48.606145 ], [ 5.761168, 48.60765 ], [ 5.762197, 48.607999 ], [ 5.761145, 48.608962 ], [ 5.761901, 48.609487 ], [ 5.763438, 48.609807 ], [ 5.763638, 48.607836 ], [ 5.767368, 48.608707 ], [ 5.778081, 48.607001 ], [ 5.790915, 48.607564 ], [ 5.794668, 48.609564 ], [ 5.79579, 48.611899 ], [ 5.797967, 48.613479 ], [ 5.797654, 48.616775 ], [ 5.803611, 48.625204 ], [ 5.797056, 48.628207 ], [ 5.792541, 48.628828 ], [ 5.78279, 48.625414 ], [ 5.774441, 48.621239 ], [ 5.765836, 48.618896 ], [ 5.758542, 48.621158 ], [ 5.759217, 48.625302 ], [ 5.761324, 48.628024 ], [ 5.760852, 48.631639 ], [ 5.756451, 48.635436 ], [ 5.756392, 48.63711 ], [ 5.755012, 48.638373 ], [ 5.7535, 48.641753 ], [ 5.751806, 48.641841 ], [ 5.751787, 48.643203 ], [ 5.750009, 48.644267 ], [ 5.748083, 48.648836 ], [ 5.747836, 48.651865 ], [ 5.746685, 48.653107 ], [ 5.744272, 48.65156 ], [ 5.742855, 48.652599 ], [ 5.745621, 48.655007 ], [ 5.744487, 48.656784 ], [ 5.747319, 48.659162 ], [ 5.748967, 48.666838 ], [ 5.744731, 48.671251 ], [ 5.748087, 48.676085 ], [ 5.747755, 48.677418 ], [ 5.753703, 48.683982 ], [ 5.754525, 48.689042 ], [ 5.7577, 48.695519 ], [ 5.764867, 48.701477 ], [ 5.758477, 48.703563 ], [ 5.753188, 48.707891 ], [ 5.752816, 48.709645 ], [ 5.754051, 48.710987 ], [ 5.755178, 48.714568 ], [ 5.750686, 48.714092 ], [ 5.738607, 48.715624 ], [ 5.74626, 48.716813 ], [ 5.740124, 48.72094 ], [ 5.738482, 48.720389 ], [ 5.719014, 48.732951 ], [ 5.725849, 48.737395 ], [ 5.713944, 48.744538 ], [ 5.725624, 48.752865 ], [ 5.732573, 48.748561 ], [ 5.738562, 48.751735 ], [ 5.738729, 48.754935 ], [ 5.741992, 48.752817 ], [ 5.745601, 48.759236 ], [ 5.734313, 48.761528 ], [ 5.735139, 48.764401 ], [ 5.73761, 48.768378 ], [ 5.736815, 48.770509 ], [ 5.767606, 48.790285 ], [ 5.771596, 48.789415 ], [ 5.774546, 48.79122 ], [ 5.776312, 48.790262 ], [ 5.778198, 48.799845 ], [ 5.790583, 48.803102 ], [ 5.793667, 48.793732 ], [ 5.802024, 48.795366 ], [ 5.802528, 48.797269 ], [ 5.799658, 48.808874 ], [ 5.800772, 48.81088 ], [ 5.79905, 48.816297 ], [ 5.809789, 48.816996 ], [ 5.809378, 48.818767 ], [ 5.812551, 48.819169 ], [ 5.811943, 48.821125 ], [ 5.818103, 48.82093 ], [ 5.819984, 48.822 ], [ 5.819698, 48.824384 ], [ 5.822252, 48.824379 ], [ 5.822523, 48.82496 ], [ 5.824146, 48.824422 ], [ 5.825807, 48.826464 ], [ 5.825093, 48.82698 ], [ 5.826112, 48.83024 ], [ 5.82857, 48.83209 ], [ 5.827796, 48.835357 ], [ 5.828268, 48.837831 ], [ 5.839043, 48.838236 ], [ 5.843259, 48.836905 ], [ 5.854051, 48.836403 ], [ 5.85883, 48.839018 ], [ 5.860866, 48.839294 ], [ 5.862012, 48.840115 ], [ 5.861671, 48.840559 ], [ 5.865574, 48.842827 ], [ 5.862422, 48.842756 ], [ 5.866653, 48.84576 ], [ 5.865614, 48.846338 ], [ 5.864377, 48.845877 ], [ 5.861938, 48.847831 ], [ 5.8641, 48.849869 ], [ 5.864532, 48.857153 ], [ 5.868096, 48.860054 ], [ 5.867006, 48.861822 ], [ 5.871386, 48.862536 ], [ 5.872912, 48.863671 ], [ 5.876834, 48.861244 ], [ 5.88355, 48.862893 ], [ 5.884736, 48.862479 ], [ 5.88515, 48.861372 ], [ 5.887664, 48.86223 ], [ 5.896281, 48.856648 ], [ 5.901209, 48.857397 ], [ 5.901906, 48.857307 ], [ 5.901846, 48.856292 ], [ 5.902755, 48.856661 ], [ 5.905707, 48.855694 ], [ 5.907853, 48.85647 ], [ 5.91057, 48.855777 ], [ 5.910396, 48.856616 ], [ 5.924379, 48.858054 ], [ 5.931618, 48.854673 ], [ 5.931691, 48.852634 ], [ 5.933322, 48.852049 ], [ 5.934246, 48.852448 ], [ 5.934381, 48.854283 ], [ 5.938702, 48.855939 ], [ 5.936638, 48.860921 ], [ 5.940095, 48.863642 ], [ 5.93975, 48.864552 ], [ 5.946977, 48.86338 ], [ 5.951819, 48.865347 ], [ 5.954417, 48.865247 ], [ 5.963827, 48.868967 ], [ 5.965462, 48.868433 ], [ 5.968965, 48.870295 ], [ 5.967773, 48.872366 ], [ 5.97279, 48.876791 ], [ 5.972296, 48.878512 ], [ 5.972917, 48.881291 ], [ 5.974734, 48.88195 ], [ 5.975622, 48.883372 ], [ 5.977708, 48.883604 ], [ 5.97496, 48.886376 ], [ 5.975238, 48.888085 ], [ 5.974392, 48.889644 ], [ 5.975154, 48.892619 ], [ 5.973011, 48.895686 ], [ 5.973508, 48.896931 ], [ 5.974112, 48.896777 ], [ 5.975707, 48.899878 ], [ 5.981201, 48.90213 ], [ 5.97793, 48.904129 ], [ 5.978609, 48.905052 ], [ 5.981918, 48.906301 ], [ 5.986396, 48.905956 ], [ 5.990903, 48.907848 ], [ 5.98884, 48.909736 ], [ 5.98803, 48.912488 ], [ 5.986425, 48.914526 ], [ 5.988525, 48.9161 ], [ 5.987636, 48.917772 ], [ 5.983059, 48.918828 ], [ 5.980171, 48.920589 ], [ 5.978241, 48.923618 ], [ 5.978598, 48.927672 ], [ 5.983234, 48.927995 ], [ 5.983142, 48.929276 ], [ 5.979991, 48.930149 ], [ 5.980634, 48.931069 ], [ 5.987797, 48.934626 ], [ 5.981768, 48.940543 ], [ 5.981853, 48.941477 ], [ 5.975956, 48.94551 ], [ 5.976063, 48.946685 ], [ 5.970954, 48.948372 ], [ 5.972619, 48.950189 ], [ 5.969762, 48.951566 ], [ 5.973991, 48.953409 ], [ 5.969348, 48.956354 ], [ 5.967152, 48.960059 ], [ 5.96309, 48.959643 ], [ 5.957781, 48.960396 ], [ 5.955748, 48.961262 ], [ 5.954897, 48.963808 ], [ 5.971611, 48.963743 ], [ 5.966301, 48.961938 ], [ 5.970474, 48.959081 ], [ 5.979635, 48.958123 ], [ 5.981152, 48.955454 ], [ 5.983976, 48.9579 ], [ 5.983904, 48.961261 ], [ 5.985717, 48.961967 ], [ 5.984906, 48.964338 ], [ 5.997737, 48.96589 ], [ 6.000111, 48.964799 ], [ 6.001455, 48.965072 ], [ 6.002596, 48.964121 ], [ 6.011001, 48.969239 ], [ 6.015133, 48.970246 ], [ 6.016946, 48.969618 ], [ 6.018352, 48.971609 ], [ 6.018114, 48.973558 ], [ 6.020484, 48.974754 ], [ 6.018505, 48.975701 ], [ 6.019425, 48.97572 ], [ 6.019943, 48.976731 ], [ 6.018465, 48.977324 ], [ 6.018874, 48.978548 ], [ 6.012237, 48.9787 ], [ 6.011695, 48.978054 ], [ 6.008193, 48.978814 ], [ 6.004425, 48.978204 ], [ 6.003804, 48.979788 ], [ 6.001495, 48.980471 ], [ 5.995358, 48.980806 ], [ 5.990611, 48.982057 ], [ 5.974458, 48.979927 ], [ 5.964413, 48.984773 ], [ 5.969232, 48.9871 ], [ 5.969027, 48.988142 ], [ 5.974365, 48.989655 ], [ 5.975082, 48.988658 ], [ 5.975395, 48.989794 ], [ 5.977179, 48.991019 ], [ 5.982084, 48.991611 ], [ 5.986579, 48.993655 ], [ 5.988447, 48.995687 ], [ 5.992927, 48.995865 ], [ 6.001108, 48.999119 ], [ 6.020606, 49.001564 ], [ 6.029991, 49.001066 ], [ 6.039263, 48.997547 ], [ 6.043475, 49.001679 ], [ 6.046981, 48.995985 ], [ 6.045434, 48.994509 ], [ 6.045712, 48.993695 ], [ 6.0418, 48.992562 ], [ 6.044902, 48.990274 ], [ 6.044921, 48.98305 ], [ 6.040754, 48.982603 ], [ 6.038811, 48.983437 ], [ 6.039684, 48.984325 ], [ 6.029414, 48.989969 ], [ 6.029325, 48.987398 ], [ 6.03128, 48.984299 ], [ 6.040464, 48.981627 ], [ 6.042834, 48.979529 ], [ 6.043393, 48.977311 ], [ 6.045549, 48.977825 ], [ 6.04631, 48.976409 ], [ 6.047896, 48.976595 ], [ 6.047944, 48.977296 ], [ 6.061891, 48.977969 ], [ 6.062559, 48.978213 ], [ 6.061845, 48.979903 ], [ 6.064419, 48.979968 ], [ 6.065877, 48.981105 ], [ 6.073102, 48.981448 ], [ 6.074066, 48.978404 ], [ 6.069928, 48.971534 ], [ 6.078367, 48.967468 ], [ 6.078981, 48.965051 ], [ 6.08154, 48.963067 ], [ 6.093952, 48.967625 ], [ 6.10218, 48.969342 ], [ 6.104751, 48.969652 ], [ 6.106206, 48.968111 ], [ 6.108659, 48.969186 ], [ 6.11262, 48.969063 ], [ 6.117225, 48.967746 ], [ 6.115338, 48.967024 ], [ 6.116121, 48.96562 ], [ 6.112408, 48.965026 ], [ 6.113322, 48.963212 ], [ 6.114588, 48.963301 ], [ 6.114419, 48.961865 ], [ 6.11697, 48.962128 ], [ 6.120098, 48.96105 ], [ 6.117972, 48.958406 ], [ 6.119593, 48.957793 ], [ 6.120645, 48.958609 ], [ 6.12122, 48.958318 ], [ 6.120237, 48.957582 ], [ 6.123957, 48.956331 ], [ 6.125956, 48.956528 ], [ 6.123237, 48.949417 ], [ 6.129163, 48.94956 ], [ 6.129696, 48.948738 ], [ 6.128937, 48.947614 ], [ 6.130069, 48.946681 ], [ 6.128266, 48.945983 ], [ 6.12459, 48.941484 ], [ 6.124861, 48.939013 ], [ 6.132521, 48.934495 ], [ 6.147337, 48.932579 ], [ 6.150111, 48.933587 ], [ 6.148553, 48.937429 ], [ 6.149438, 48.938988 ], [ 6.157331, 48.943729 ], [ 6.160814, 48.943887 ], [ 6.165307, 48.941992 ], [ 6.165482, 48.941243 ], [ 6.172395, 48.944281 ], [ 6.173823, 48.943016 ], [ 6.168988, 48.938315 ], [ 6.170058, 48.937286 ], [ 6.172109, 48.9376 ], [ 6.172464, 48.936358 ], [ 6.17656, 48.934664 ], [ 6.179807, 48.935702 ], [ 6.1879, 48.935837 ], [ 6.189674, 48.937 ], [ 6.194883, 48.93663 ], [ 6.206242, 48.937727 ], [ 6.20596, 48.93934 ], [ 6.212065, 48.938188 ], [ 6.212563, 48.939475 ], [ 6.214006, 48.939688 ], [ 6.222424, 48.938901 ], [ 6.223042, 48.936616 ], [ 6.22563, 48.936701 ], [ 6.22609, 48.935139 ], [ 6.225095, 48.934131 ], [ 6.225282, 48.932354 ], [ 6.223943, 48.932401 ], [ 6.223618, 48.92914 ], [ 6.222955, 48.929181 ], [ 6.224179, 48.927134 ], [ 6.22741, 48.927224 ], [ 6.226735, 48.929072 ], [ 6.227492, 48.929208 ], [ 6.228476, 48.927173 ], [ 6.235065, 48.92945 ], [ 6.236645, 48.92477 ], [ 6.24102, 48.925566 ], [ 6.241595, 48.923577 ], [ 6.245705, 48.923708 ], [ 6.252322, 48.926898 ], [ 6.253437, 48.92812 ], [ 6.253076, 48.928708 ], [ 6.256279, 48.929292 ], [ 6.255075, 48.931159 ], [ 6.258444, 48.932112 ], [ 6.261805, 48.931688 ], [ 6.262566, 48.933511 ], [ 6.265361, 48.932679 ], [ 6.271237, 48.933306 ], [ 6.273194, 48.933008 ], [ 6.271589, 48.932108 ], [ 6.274352, 48.93045 ], [ 6.273126, 48.92959 ], [ 6.274348, 48.928606 ], [ 6.27717, 48.927872 ], [ 6.280457, 48.929711 ], [ 6.282805, 48.928488 ], [ 6.285297, 48.928364 ], [ 6.286529, 48.927273 ], [ 6.287741, 48.927777 ], [ 6.288918, 48.922958 ], [ 6.286805, 48.922395 ], [ 6.288329, 48.916303 ], [ 6.304541, 48.918565 ], [ 6.311335, 48.92109 ], [ 6.313972, 48.918769 ], [ 6.309324, 48.914064 ], [ 6.310048, 48.911764 ], [ 6.312872, 48.910594 ], [ 6.315913, 48.910466 ], [ 6.315882, 48.908978 ], [ 6.317855, 48.908003 ], [ 6.322402, 48.908439 ], [ 6.322509, 48.9074 ], [ 6.326789, 48.907464 ], [ 6.328183, 48.903885 ], [ 6.325411, 48.902603 ], [ 6.328419, 48.900217 ], [ 6.325632, 48.895823 ], [ 6.312581, 48.892476 ], [ 6.309046, 48.892326 ], [ 6.309307, 48.891595 ], [ 6.308183, 48.891184 ], [ 6.308373, 48.889377 ], [ 6.30491, 48.889568 ], [ 6.305837, 48.887643 ], [ 6.304445, 48.887813 ], [ 6.302994, 48.886856 ], [ 6.301291, 48.8844 ], [ 6.302033, 48.88418 ], [ 6.300647, 48.883761 ], [ 6.30084, 48.883057 ], [ 6.298717, 48.882246 ], [ 6.297298, 48.882585 ], [ 6.297983, 48.881022 ], [ 6.301182, 48.879406 ], [ 6.307692, 48.879027 ], [ 6.309838, 48.878171 ], [ 6.309322, 48.877113 ], [ 6.30758, 48.876483 ], [ 6.308091, 48.875063 ], [ 6.31091, 48.873336 ], [ 6.312322, 48.865063 ], [ 6.310604, 48.863117 ], [ 6.30758, 48.86236 ], [ 6.303653, 48.864545 ], [ 6.302453, 48.866088 ], [ 6.297707, 48.86684 ], [ 6.29653, 48.864089 ], [ 6.295296, 48.863326 ], [ 6.297465, 48.860641 ], [ 6.295322, 48.859045 ], [ 6.295884, 48.858287 ], [ 6.299366, 48.858672 ], [ 6.298773, 48.85484 ], [ 6.300102, 48.852332 ], [ 6.299193, 48.851654 ], [ 6.291988, 48.851537 ], [ 6.289531, 48.850955 ], [ 6.289304, 48.849912 ], [ 6.287498, 48.849152 ], [ 6.285791, 48.849549 ], [ 6.284374, 48.848283 ], [ 6.284138, 48.846267 ], [ 6.290986, 48.841652 ], [ 6.291472, 48.842551 ], [ 6.292645, 48.842633 ], [ 6.300635, 48.840651 ], [ 6.303307, 48.837994 ], [ 6.303625, 48.834743 ], [ 6.306314, 48.833255 ], [ 6.309325, 48.833035 ], [ 6.31585, 48.836979 ], [ 6.319506, 48.836668 ], [ 6.320917, 48.83786 ], [ 6.327208, 48.835857 ], [ 6.330137, 48.835878 ], [ 6.339502, 48.833711 ], [ 6.339734, 48.831916 ], [ 6.338439, 48.830485 ], [ 6.338686, 48.829161 ], [ 6.336572, 48.828413 ], [ 6.337993, 48.827013 ], [ 6.334211, 48.825788 ], [ 6.325979, 48.825497 ], [ 6.323946, 48.826409 ], [ 6.323841, 48.82782 ], [ 6.321178, 48.829532 ], [ 6.317274, 48.830693 ], [ 6.316284, 48.830332 ], [ 6.314801, 48.827425 ], [ 6.312109, 48.825621 ], [ 6.303798, 48.827212 ], [ 6.301404, 48.826398 ], [ 6.301136, 48.823842 ], [ 6.306974, 48.821149 ], [ 6.318862, 48.822814 ], [ 6.318864, 48.821944 ], [ 6.325188, 48.82058 ], [ 6.33003, 48.823114 ], [ 6.331876, 48.823318 ], [ 6.333638, 48.82087 ], [ 6.332553, 48.814249 ], [ 6.33445, 48.814121 ], [ 6.338649, 48.811126 ], [ 6.343628, 48.811011 ], [ 6.345997, 48.812289 ], [ 6.350367, 48.813182 ], [ 6.351113, 48.81246 ], [ 6.353248, 48.813534 ], [ 6.35622, 48.811558 ], [ 6.357146, 48.810312 ], [ 6.355256, 48.81142 ], [ 6.353737, 48.811156 ], [ 6.353266, 48.810362 ], [ 6.354542, 48.808606 ], [ 6.346943, 48.806894 ], [ 6.345762, 48.806075 ], [ 6.346463, 48.804662 ], [ 6.345546, 48.804049 ], [ 6.348401, 48.801561 ], [ 6.349773, 48.801565 ], [ 6.34991, 48.800597 ], [ 6.351217, 48.799783 ], [ 6.353839, 48.798959 ], [ 6.352727, 48.798345 ], [ 6.354289, 48.797075 ], [ 6.356019, 48.793812 ], [ 6.355457, 48.792046 ], [ 6.356092, 48.791188 ], [ 6.355122, 48.788653 ], [ 6.356239, 48.785886 ], [ 6.354762, 48.784631 ], [ 6.354863, 48.782361 ], [ 6.357614, 48.779078 ], [ 6.360438, 48.77885 ], [ 6.362418, 48.780465 ], [ 6.36419, 48.779847 ], [ 6.364484, 48.780973 ], [ 6.366788, 48.78127 ], [ 6.365956, 48.781886 ], [ 6.366081, 48.783096 ], [ 6.370845, 48.784782 ], [ 6.375526, 48.783633 ], [ 6.382255, 48.78013 ], [ 6.383177, 48.781138 ], [ 6.386196, 48.781462 ], [ 6.389724, 48.780336 ], [ 6.393447, 48.775955 ], [ 6.395678, 48.774668 ], [ 6.397337, 48.77611 ], [ 6.401398, 48.776239 ], [ 6.40094, 48.776881 ], [ 6.40339, 48.777393 ], [ 6.407722, 48.780431 ], [ 6.409827, 48.779479 ], [ 6.409782, 48.780295 ], [ 6.413924, 48.782401 ], [ 6.415063, 48.78189 ], [ 6.42067, 48.784164 ], [ 6.425505, 48.783875 ], [ 6.424781, 48.78473 ], [ 6.426341, 48.786663 ], [ 6.429211, 48.787323 ], [ 6.428408, 48.788202 ], [ 6.432133, 48.788391 ], [ 6.433298, 48.789138 ], [ 6.43374, 48.787302 ], [ 6.43552, 48.787631 ], [ 6.436044, 48.786567 ], [ 6.437971, 48.785833 ], [ 6.437722, 48.78486 ], [ 6.440881, 48.783331 ], [ 6.440692, 48.781732 ], [ 6.442815, 48.780496 ], [ 6.443918, 48.778584 ], [ 6.447416, 48.779213 ], [ 6.447801, 48.778154 ], [ 6.452637, 48.77993 ], [ 6.453889, 48.778274 ], [ 6.451531, 48.775695 ], [ 6.452781, 48.775422 ], [ 6.451386, 48.772235 ], [ 6.453313, 48.771717 ], [ 6.452674, 48.770571 ], [ 6.454164, 48.770513 ], [ 6.453421, 48.766079 ], [ 6.459752, 48.765917 ], [ 6.461076, 48.767522 ], [ 6.464136, 48.768282 ], [ 6.464336, 48.769278 ], [ 6.466048, 48.770344 ], [ 6.465391, 48.767943 ], [ 6.465957, 48.7666 ], [ 6.472264, 48.765401 ], [ 6.473929, 48.766653 ], [ 6.475613, 48.765609 ], [ 6.476666, 48.766751 ], [ 6.479108, 48.766248 ], [ 6.485565, 48.767047 ], [ 6.485445, 48.765775 ], [ 6.488438, 48.766403 ], [ 6.494616, 48.762112 ], [ 6.495922, 48.76261 ], [ 6.50317, 48.757468 ], [ 6.511986, 48.754557 ], [ 6.511033, 48.752815 ], [ 6.505589, 48.752401 ], [ 6.503923, 48.749084 ], [ 6.505187, 48.74737 ], [ 6.51464, 48.750427 ], [ 6.514321, 48.751385 ], [ 6.515518, 48.751883 ], [ 6.514359, 48.753807 ], [ 6.524044, 48.752652 ], [ 6.527113, 48.750166 ], [ 6.529325, 48.750412 ], [ 6.534744, 48.748928 ], [ 6.538633, 48.751392 ], [ 6.540331, 48.754007 ], [ 6.545635, 48.753408 ], [ 6.547834, 48.755117 ], [ 6.549891, 48.753151 ], [ 6.553645, 48.754968 ], [ 6.554147, 48.754088 ], [ 6.560019, 48.755394 ], [ 6.559205, 48.756171 ], [ 6.562398, 48.756479 ], [ 6.564248, 48.749553 ], [ 6.565958, 48.749727 ], [ 6.56628, 48.748747 ], [ 6.568156, 48.747842 ], [ 6.571662, 48.743299 ], [ 6.573103, 48.742596 ], [ 6.574422, 48.739632 ], [ 6.575456, 48.740019 ], [ 6.580531, 48.734824 ], [ 6.584531, 48.73307 ], [ 6.589738, 48.732498 ], [ 6.594902, 48.729292 ], [ 6.597964, 48.722578 ], [ 6.599089, 48.715701 ], [ 6.602332, 48.715878 ], [ 6.605934, 48.717311 ], [ 6.608205, 48.716208 ], [ 6.610393, 48.71694 ], [ 6.616657, 48.714714 ], [ 6.619942, 48.712138 ], [ 6.623637, 48.713722 ], [ 6.625992, 48.713188 ], [ 6.637489, 48.704599 ], [ 6.638753, 48.701132 ], [ 6.642767, 48.702643 ], [ 6.645699, 48.704794 ], [ 6.645659, 48.705895 ], [ 6.649139, 48.706689 ], [ 6.650352, 48.705349 ], [ 6.654069, 48.705914 ], [ 6.658408, 48.708043 ], [ 6.661955, 48.706039 ], [ 6.666969, 48.700468 ], [ 6.671594, 48.696823 ], [ 6.676792, 48.689001 ], [ 6.672249, 48.688196 ], [ 6.672139, 48.686376 ], [ 6.670154, 48.686122 ], [ 6.672163, 48.680433 ], [ 6.6703, 48.672056 ], [ 6.666753, 48.671355 ], [ 6.667984, 48.670723 ], [ 6.667355, 48.667723 ], [ 6.668164, 48.66728 ], [ 6.671888, 48.670197 ], [ 6.67241, 48.672676 ], [ 6.674738, 48.672469 ], [ 6.677723, 48.673525 ], [ 6.678793, 48.675272 ], [ 6.67812, 48.678111 ], [ 6.684986, 48.681265 ], [ 6.683778, 48.683322 ], [ 6.68606, 48.6842 ], [ 6.684951, 48.685379 ], [ 6.685636, 48.685767 ], [ 6.686648, 48.685358 ], [ 6.689062, 48.681746 ], [ 6.694697, 48.679783 ], [ 6.694954, 48.676997 ], [ 6.690519, 48.675551 ], [ 6.692218, 48.673067 ], [ 6.699578, 48.671362 ], [ 6.703809, 48.67452 ], [ 6.706026, 48.672138 ], [ 6.707324, 48.672328 ], [ 6.709107, 48.671074 ], [ 6.712385, 48.673242 ], [ 6.71288, 48.672836 ], [ 6.711653, 48.67128 ], [ 6.715587, 48.667534 ], [ 6.718165, 48.668114 ], [ 6.721136, 48.670015 ], [ 6.7241, 48.666224 ], [ 6.72746, 48.664175 ], [ 6.733819, 48.663236 ], [ 6.73646, 48.666733 ], [ 6.740653, 48.668989 ], [ 6.74838, 48.667043 ], [ 6.749171, 48.666126 ], [ 6.753163, 48.667902 ], [ 6.755023, 48.669902 ], [ 6.759913, 48.669918 ], [ 6.761584, 48.667499 ], [ 6.760907, 48.666039 ], [ 6.756129, 48.664107 ], [ 6.759508, 48.662745 ], [ 6.759049, 48.65963 ], [ 6.762443, 48.656272 ], [ 6.764145, 48.651985 ], [ 6.773024, 48.651482 ], [ 6.777169, 48.653992 ], [ 6.779117, 48.652832 ], [ 6.774257, 48.647881 ], [ 6.778443, 48.64608 ], [ 6.78249, 48.642723 ], [ 6.809536, 48.64746 ], [ 6.815886, 48.646742 ], [ 6.821613, 48.645088 ], [ 6.826113, 48.645344 ], [ 6.826452, 48.645981 ], [ 6.828747, 48.64449 ], [ 6.834402, 48.643758 ], [ 6.836449, 48.64233 ], [ 6.837465, 48.638719 ], [ 6.841982, 48.634891 ], [ 6.844051, 48.625973 ], [ 6.846041, 48.625325 ], [ 6.847375, 48.623311 ], [ 6.848813, 48.623793 ], [ 6.849335, 48.622648 ], [ 6.851609, 48.622987 ], [ 6.853122, 48.621278 ], [ 6.85938, 48.62122 ], [ 6.860859, 48.620264 ], [ 6.866435, 48.620356 ], [ 6.86733, 48.621785 ], [ 6.86912, 48.620904 ], [ 6.871286, 48.621059 ], [ 6.874723, 48.622641 ], [ 6.877432, 48.622775 ], [ 6.880578, 48.625092 ], [ 6.885179, 48.625291 ], [ 6.886111, 48.62408 ], [ 6.89103, 48.624028 ], [ 6.893157, 48.625271 ], [ 6.895137, 48.622716 ], [ 6.902608, 48.62166 ], [ 6.905639, 48.619921 ], [ 6.911383, 48.620557 ], [ 6.918213, 48.624767 ], [ 6.919119, 48.627344 ], [ 6.917622, 48.629555 ], [ 6.919571, 48.631558 ], [ 6.919885, 48.63404 ], [ 6.930925, 48.635422 ], [ 6.934617, 48.633238 ], [ 6.934459, 48.627687 ], [ 6.935749, 48.625593 ], [ 6.93731, 48.624176 ], [ 6.94027, 48.623991 ], [ 6.945231, 48.618727 ], [ 6.941879, 48.617488 ], [ 6.939989, 48.614921 ], [ 6.950915, 48.610905 ], [ 6.960792, 48.608282 ], [ 6.964292, 48.608794 ], [ 6.96784, 48.610698 ], [ 6.968686, 48.609825 ], [ 6.969035, 48.610988 ], [ 6.974508, 48.612195 ], [ 6.975243, 48.611502 ], [ 6.980187, 48.611791 ], [ 6.981346, 48.61107 ], [ 6.985813, 48.613047 ], [ 6.989858, 48.611646 ], [ 6.991444, 48.60935 ], [ 6.993219, 48.610104 ], [ 6.998899, 48.608032 ], [ 7.004558, 48.608525 ], [ 7.007575, 48.610812 ], [ 7.009959, 48.611512 ], [ 7.015967, 48.608766 ], [ 7.016898, 48.604927 ], [ 7.016285, 48.604134 ], [ 7.011231, 48.602141 ], [ 7.010325, 48.602865 ], [ 7.008138, 48.601093 ], [ 6.99644, 48.596565 ], [ 6.992684, 48.596693 ], [ 6.995784, 48.594542 ], [ 6.993322, 48.593574 ], [ 6.996829, 48.592519 ], [ 7.000491, 48.592476 ], [ 7.007129, 48.588689 ], [ 7.009838, 48.588313 ], [ 7.012148, 48.585531 ], [ 7.017948, 48.583479 ], [ 7.019235, 48.580203 ], [ 7.022051, 48.579199 ], [ 7.028588, 48.580526 ], [ 7.034152, 48.580552 ], [ 7.033963, 48.577226 ], [ 7.036082, 48.573766 ], [ 7.038588, 48.57203 ], [ 7.043127, 48.571492 ], [ 7.044596, 48.568181 ], [ 7.043505, 48.563969 ], [ 7.045946, 48.559967 ], [ 7.049144, 48.558313 ], [ 7.053322, 48.558103 ], [ 7.054334, 48.555686 ], [ 7.053291, 48.55416 ], [ 7.053949, 48.551856 ], [ 7.074038, 48.54588 ], [ 7.084119, 48.545412 ], [ 7.084032, 48.54122 ], [ 7.067904, 48.541139 ], [ 7.056462, 48.539151 ], [ 7.058683, 48.537571 ], [ 7.061534, 48.537146 ], [ 7.070122, 48.537819 ], [ 7.079633, 48.536617 ], [ 7.074031, 48.533811 ], [ 7.070392, 48.52851 ], [ 7.064726, 48.52378 ], [ 7.070919, 48.522486 ], [ 7.076984, 48.516377 ], [ 7.074351, 48.515625 ], [ 7.07298, 48.514348 ], [ 7.065071, 48.51248 ], [ 7.058486, 48.513852 ], [ 7.051001, 48.511839 ], [ 7.047405, 48.509724 ], [ 7.046067, 48.511235 ], [ 7.040567, 48.509211 ], [ 7.037784, 48.506552 ], [ 7.024697, 48.504559 ], [ 7.023024, 48.503922 ], [ 7.023435, 48.502966 ], [ 7.022464, 48.501454 ], [ 7.017471, 48.499212 ], [ 7.014076, 48.49538 ], [ 7.012488, 48.496677 ], [ 7.010435, 48.496505 ], [ 7.007169, 48.49425 ], [ 7.005368, 48.491927 ], [ 7.002619, 48.492055 ], [ 7.00328, 48.494244 ], [ 6.999752, 48.494946 ], [ 6.991626, 48.493802 ], [ 6.988182, 48.491467 ], [ 6.987948, 48.492493 ], [ 6.985661, 48.492907 ], [ 6.9801, 48.492623 ], [ 6.970851, 48.48743 ], [ 6.971342, 48.486481 ], [ 6.97408, 48.485266 ], [ 6.964173, 48.47755 ], [ 6.962602, 48.479945 ], [ 6.956399, 48.483651 ], [ 6.954477, 48.482041 ], [ 6.952573, 48.481691 ], [ 6.951353, 48.483426 ], [ 6.949643, 48.484133 ], [ 6.945073, 48.483111 ], [ 6.938129, 48.483641 ], [ 6.937615, 48.479973 ], [ 6.933516, 48.477341 ], [ 6.933794, 48.475864 ], [ 6.928321, 48.47643 ], [ 6.928266, 48.474783 ], [ 6.92724, 48.473694 ], [ 6.919718, 48.471696 ], [ 6.917782, 48.467201 ], [ 6.91872, 48.46496 ], [ 6.918129, 48.461358 ], [ 6.919277, 48.458052 ], [ 6.917836, 48.454965 ], [ 6.921332, 48.450758 ], [ 6.920676, 48.44544 ], [ 6.921709, 48.443141 ], [ 6.921473, 48.442193 ], [ 6.918215, 48.440806 ], [ 6.921413, 48.439197 ], [ 6.919958, 48.436568 ], [ 6.913358, 48.431206 ], [ 6.908685, 48.43034 ], [ 6.904287, 48.427105 ], [ 6.902381, 48.427174 ], [ 6.90111, 48.4238 ], [ 6.898928, 48.423791 ], [ 6.896855, 48.422776 ], [ 6.892796, 48.418158 ], [ 6.891541, 48.417578 ], [ 6.890717, 48.41848 ], [ 6.887693, 48.418276 ], [ 6.884554, 48.417037 ], [ 6.877726, 48.41672 ], [ 6.878615, 48.419985 ], [ 6.870282, 48.420466 ], [ 6.866379, 48.428488 ], [ 6.866653, 48.433917 ], [ 6.864375, 48.43677 ], [ 6.857618, 48.433213 ], [ 6.854969, 48.432887 ], [ 6.848563, 48.423729 ], [ 6.841307, 48.422531 ], [ 6.827949, 48.416473 ], [ 6.823034, 48.406715 ], [ 6.823192, 48.405066 ], [ 6.815166, 48.398845 ], [ 6.815083, 48.394975 ], [ 6.813162, 48.396559 ], [ 6.809895, 48.395945 ], [ 6.809791, 48.396997 ], [ 6.807863, 48.397847 ], [ 6.807901, 48.3999 ], [ 6.801659, 48.400601 ], [ 6.799627, 48.401184 ], [ 6.798457, 48.402146 ], [ 6.798719, 48.402834 ], [ 6.793869, 48.403406 ], [ 6.793011, 48.400923 ], [ 6.791533, 48.400981 ], [ 6.790742, 48.399634 ], [ 6.788265, 48.398456 ], [ 6.788015, 48.397155 ], [ 6.785621, 48.396611 ], [ 6.782979, 48.38923 ], [ 6.782142, 48.390173 ], [ 6.783598, 48.394581 ], [ 6.783491, 48.396845 ], [ 6.788923, 48.401292 ], [ 6.789004, 48.402282 ], [ 6.781817, 48.402605 ], [ 6.76726, 48.399206 ], [ 6.764621, 48.404178 ], [ 6.761299, 48.406025 ], [ 6.76213, 48.408454 ], [ 6.764971, 48.411907 ], [ 6.757054, 48.411262 ], [ 6.749607, 48.412103 ], [ 6.74361, 48.411346 ], [ 6.739473, 48.411747 ], [ 6.738702, 48.410838 ], [ 6.739163, 48.415478 ], [ 6.737722, 48.415588 ], [ 6.735479, 48.417174 ], [ 6.72528, 48.415502 ], [ 6.722243, 48.415953 ], [ 6.719378, 48.417559 ], [ 6.716384, 48.42095 ], [ 6.713524, 48.42278 ], [ 6.70869, 48.41898 ], [ 6.706908, 48.416487 ], [ 6.699504, 48.413085 ], [ 6.690569, 48.415605 ], [ 6.683583, 48.419163 ], [ 6.682792, 48.424553 ], [ 6.681205, 48.420633 ], [ 6.676491, 48.423453 ], [ 6.667654, 48.426344 ], [ 6.662579, 48.426612 ], [ 6.659411, 48.425062 ], [ 6.65684, 48.426341 ], [ 6.657573, 48.427344 ], [ 6.654646, 48.427133 ], [ 6.653667, 48.428304 ], [ 6.651294, 48.427066 ], [ 6.644998, 48.427069 ], [ 6.644917, 48.428649 ], [ 6.648103, 48.434098 ], [ 6.642811, 48.444943 ], [ 6.637829, 48.44722 ], [ 6.635868, 48.450317 ], [ 6.637682, 48.452003 ], [ 6.63577, 48.453777 ], [ 6.638947, 48.456662 ], [ 6.638392, 48.457959 ], [ 6.638784, 48.463938 ], [ 6.63769, 48.46463 ], [ 6.636789, 48.466657 ], [ 6.637236, 48.467108 ], [ 6.634601, 48.468453 ], [ 6.635427, 48.468904 ], [ 6.634695, 48.469721 ], [ 6.635221, 48.470639 ], [ 6.632363, 48.47146 ], [ 6.632536, 48.472319 ], [ 6.623141, 48.473125 ], [ 6.619053, 48.472107 ], [ 6.610853, 48.467936 ], [ 6.609585, 48.469219 ], [ 6.60613, 48.466372 ], [ 6.597443, 48.467066 ], [ 6.595654, 48.464439 ], [ 6.596279, 48.464005 ], [ 6.594986, 48.463503 ], [ 6.595706, 48.462924 ], [ 6.584203, 48.460434 ], [ 6.57768, 48.45191 ], [ 6.576969, 48.448877 ], [ 6.573645, 48.445595 ], [ 6.575059, 48.444139 ], [ 6.574805, 48.443347 ], [ 6.56985, 48.440887 ], [ 6.567212, 48.440901 ], [ 6.568661, 48.436666 ], [ 6.567335, 48.435394 ], [ 6.567248, 48.433229 ], [ 6.568421, 48.431684 ], [ 6.569576, 48.433127 ], [ 6.573788, 48.433494 ], [ 6.577852, 48.429179 ], [ 6.578227, 48.425537 ], [ 6.580021, 48.422011 ], [ 6.584054, 48.417293 ], [ 6.578848, 48.415545 ], [ 6.578884, 48.416668 ], [ 6.577446, 48.417201 ], [ 6.576952, 48.416885 ], [ 6.577648, 48.416345 ], [ 6.575312, 48.415794 ], [ 6.576122, 48.414417 ], [ 6.574195, 48.414642 ], [ 6.573486, 48.416733 ], [ 6.571577, 48.418595 ], [ 6.570592, 48.418201 ], [ 6.571668, 48.416089 ], [ 6.568038, 48.41798 ], [ 6.566543, 48.419989 ], [ 6.566289, 48.421936 ], [ 6.565374, 48.421731 ], [ 6.565843, 48.420897 ], [ 6.564393, 48.420793 ], [ 6.563217, 48.421985 ], [ 6.554835, 48.42331 ], [ 6.549544, 48.425255 ], [ 6.545578, 48.427808 ], [ 6.540728, 48.428031 ], [ 6.535623, 48.431645 ], [ 6.534206, 48.431684 ], [ 6.529863, 48.42931 ], [ 6.522594, 48.42807 ], [ 6.520965, 48.427014 ], [ 6.522149, 48.425531 ], [ 6.508596, 48.419936 ], [ 6.508129, 48.418323 ], [ 6.506073, 48.416285 ], [ 6.500571, 48.414235 ], [ 6.494985, 48.415463 ], [ 6.491284, 48.417538 ], [ 6.483134, 48.415234 ], [ 6.473005, 48.411161 ], [ 6.470982, 48.409207 ], [ 6.466746, 48.410355 ], [ 6.465848, 48.411647 ], [ 6.462767, 48.412889 ], [ 6.460021, 48.41321 ], [ 6.458164, 48.415399 ], [ 6.458884, 48.416635 ], [ 6.456882, 48.417815 ], [ 6.442251, 48.412772 ], [ 6.442236, 48.413362 ], [ 6.439891, 48.413633 ], [ 6.435498, 48.412795 ], [ 6.422397, 48.407281 ], [ 6.421255, 48.405655 ], [ 6.421665, 48.403976 ], [ 6.420278, 48.401097 ], [ 6.417266, 48.400891 ], [ 6.415439, 48.398044 ], [ 6.414956, 48.395619 ], [ 6.414019, 48.395741 ], [ 6.413354, 48.394144 ], [ 6.413994, 48.39359 ], [ 6.411979, 48.392028 ], [ 6.410507, 48.393081 ], [ 6.409827, 48.391945 ], [ 6.408838, 48.392272 ], [ 6.404009, 48.390784 ], [ 6.400041, 48.396153 ], [ 6.398769, 48.395489 ], [ 6.398539, 48.396355 ], [ 6.39554, 48.39473 ], [ 6.394517, 48.393243 ], [ 6.38856, 48.390863 ], [ 6.384139, 48.394688 ], [ 6.389469, 48.400829 ], [ 6.388463, 48.401689 ], [ 6.384272, 48.400155 ], [ 6.391225, 48.403901 ], [ 6.391509, 48.405826 ], [ 6.390293, 48.405823 ], [ 6.392186, 48.406523 ], [ 6.392899, 48.408749 ], [ 6.391752, 48.409644 ], [ 6.390381, 48.40853 ], [ 6.388237, 48.409439 ], [ 6.381674, 48.406272 ], [ 6.384388, 48.40817 ], [ 6.38313, 48.409343 ], [ 6.383802, 48.410351 ], [ 6.381786, 48.411911 ], [ 6.378944, 48.408823 ], [ 6.378497, 48.409165 ], [ 6.380543, 48.411143 ], [ 6.380717, 48.41251 ], [ 6.378537, 48.412528 ], [ 6.382095, 48.413734 ], [ 6.383559, 48.415169 ], [ 6.383122, 48.415431 ], [ 6.368, 48.407793 ], [ 6.363614, 48.406152 ], [ 6.363689, 48.407995 ], [ 6.357389, 48.404482 ], [ 6.35404, 48.403961 ], [ 6.349903, 48.40547 ], [ 6.336459, 48.404555 ], [ 6.330141, 48.405137 ], [ 6.321109, 48.409636 ], [ 6.316159, 48.408955 ], [ 6.307366, 48.411652 ], [ 6.304154, 48.415884 ], [ 6.30626, 48.416278 ], [ 6.306845, 48.417744 ], [ 6.303606, 48.420123 ], [ 6.302793, 48.423673 ], [ 6.301949, 48.424282 ], [ 6.30456, 48.425828 ], [ 6.300222, 48.431161 ], [ 6.300129, 48.433706 ], [ 6.295631, 48.434748 ], [ 6.29505, 48.434188 ], [ 6.295427, 48.432955 ], [ 6.291009, 48.427654 ], [ 6.28828, 48.429968 ], [ 6.282365, 48.430316 ], [ 6.283466, 48.428284 ], [ 6.280991, 48.427331 ], [ 6.282695, 48.425773 ], [ 6.280679, 48.423322 ], [ 6.27931, 48.424058 ], [ 6.276097, 48.423796 ], [ 6.275515, 48.423008 ], [ 6.27503, 48.4248 ], [ 6.27413, 48.424504 ], [ 6.270132, 48.42628 ], [ 6.260436, 48.406396 ], [ 6.253427, 48.406511 ], [ 6.252792, 48.407405 ], [ 6.249888, 48.406095 ], [ 6.244505, 48.40543 ], [ 6.233341, 48.397114 ], [ 6.232099, 48.400225 ], [ 6.225033, 48.399549 ], [ 6.225464, 48.40028 ], [ 6.224402, 48.400096 ], [ 6.22415, 48.40117 ], [ 6.221431, 48.39946 ], [ 6.219772, 48.400785 ], [ 6.218448, 48.400243 ], [ 6.217383, 48.401741 ], [ 6.207013, 48.397522 ], [ 6.206295, 48.398032 ], [ 6.206863, 48.398418 ], [ 6.202888, 48.400245 ], [ 6.200158, 48.398035 ] ] ] ] } }
]
}
