{
"type": "FeatureCollection",
"name": "Plaque Vosges Ouest",
"crs": { "type": "name", "properties": { "name": "urn:ogc:def:crs:OGC:1.3:CRS84" } },
"xy_coordinate_resolution": 1e-06,
"features": [
{ "type": "Feature", "properties": { "fid": 1, "nom_territoire": "Vosges Ouest" }, "geometry": { "type": "MultiPolygon", "coordinates": [ [ [ [ 5.970534, 47.957201 ], [ 5.969023, 47.947505 ], [ 5.962438, 47.944998 ], [ 5.960326, 47.943533 ], [ 5.960022, 47.942011 ], [ 5.953718, 47.93703 ], [ 5.9511, 47.936663 ], [ 5.949358, 47.935448 ], [ 5.947102, 47.936288 ], [ 5.937238, 47.936981 ], [ 5.935824, 47.936253 ], [ 5.93422, 47.937356 ], [ 5.928684, 47.938115 ], [ 5.932253, 47.941503 ], [ 5.932321, 47.943742 ], [ 5.933282, 47.943827 ], [ 5.934, 47.945516 ], [ 5.937314, 47.947934 ], [ 5.938154, 47.951713 ], [ 5.941838, 47.952386 ], [ 5.946452, 47.955169 ], [ 5.946644, 47.957009 ], [ 5.947461, 47.957017 ], [ 5.947797, 47.958527 ], [ 5.949226, 47.958414 ], [ 5.951815, 47.96108 ], [ 5.953821, 47.961018 ], [ 5.956403, 47.964516 ], [ 5.959912, 47.965996 ], [ 5.960132, 47.968025 ], [ 5.958488, 47.968481 ], [ 5.958827, 47.970496 ], [ 5.949544, 47.972943 ], [ 5.950082, 47.975646 ], [ 5.947528, 47.979712 ], [ 5.946692, 47.979243 ], [ 5.944198, 47.98004 ], [ 5.943471, 47.979208 ], [ 5.936887, 47.979005 ], [ 5.933827, 47.976536 ], [ 5.932686, 47.977381 ], [ 5.922533, 47.971974 ], [ 5.919099, 47.968794 ], [ 5.919948, 47.968452 ], [ 5.918835, 47.966866 ], [ 5.917384, 47.966235 ], [ 5.919903, 47.962872 ], [ 5.919036, 47.959973 ], [ 5.919964, 47.95981 ], [ 5.920483, 47.956598 ], [ 5.918624, 47.956224 ], [ 5.918767, 47.954332 ], [ 5.917405, 47.950002 ], [ 5.918016, 47.947441 ], [ 5.909991, 47.946861 ], [ 5.899556, 47.944449 ], [ 5.89521, 47.940536 ], [ 5.892904, 47.937141 ], [ 5.89342, 47.935865 ], [ 5.895843, 47.935026 ], [ 5.89766, 47.930943 ], [ 5.890513, 47.927491 ], [ 5.884746, 47.926183 ], [ 5.884755, 47.929511 ], [ 5.883169, 47.93082 ], [ 5.881692, 47.930775 ], [ 5.881443, 47.933032 ], [ 5.878495, 47.934022 ], [ 5.875259, 47.938329 ], [ 5.872815, 47.937921 ], [ 5.86974, 47.939328 ], [ 5.868646, 47.944988 ], [ 5.863433, 47.94618 ], [ 5.857591, 47.945064 ], [ 5.857388, 47.947909 ], [ 5.856474, 47.949315 ], [ 5.853051, 47.950229 ], [ 5.854047, 47.951099 ], [ 5.852424, 47.953893 ], [ 5.854115, 47.955147 ], [ 5.850864, 47.957631 ], [ 5.849675, 47.959916 ], [ 5.850232, 47.962241 ], [ 5.849087, 47.964165 ], [ 5.849485, 47.965098 ], [ 5.854224, 47.965811 ], [ 5.853557, 47.969882 ], [ 5.848675, 47.969039 ], [ 5.8465, 47.969599 ], [ 5.845776, 47.970791 ], [ 5.845834, 47.975695 ], [ 5.842808, 47.975561 ], [ 5.840536, 47.971623 ], [ 5.84003, 47.965022 ], [ 5.831575, 47.957759 ], [ 5.828585, 47.957127 ], [ 5.827863, 47.958365 ], [ 5.822785, 47.958606 ], [ 5.815268, 47.95739 ], [ 5.811101, 47.955173 ], [ 5.811527, 47.953495 ], [ 5.808465, 47.952776 ], [ 5.809335, 47.948699 ], [ 5.805269, 47.946975 ], [ 5.804028, 47.947564 ], [ 5.804211, 47.949195 ], [ 5.803335, 47.950014 ], [ 5.798132, 47.950516 ], [ 5.795271, 47.949791 ], [ 5.794468, 47.95184 ], [ 5.790909, 47.951309 ], [ 5.787282, 47.952594 ], [ 5.786999, 47.953411 ], [ 5.788378, 47.954001 ], [ 5.78629, 47.95563 ], [ 5.787315, 47.957227 ], [ 5.786212, 47.95879 ], [ 5.786649, 47.959317 ], [ 5.784633, 47.960277 ], [ 5.78401, 47.962005 ], [ 5.782863, 47.961905 ], [ 5.785913, 47.96447 ], [ 5.784737, 47.96698 ], [ 5.782705, 47.96767 ], [ 5.780371, 47.969899 ], [ 5.78101, 47.970465 ], [ 5.780849, 47.97209 ], [ 5.779046, 47.974259 ], [ 5.77933, 47.976546 ], [ 5.778487, 47.978011 ], [ 5.785269, 47.981277 ], [ 5.788634, 47.983517 ], [ 5.789124, 47.984853 ], [ 5.793227, 47.987117 ], [ 5.792004, 47.988909 ], [ 5.794981, 47.993412 ], [ 5.794679, 47.998011 ], [ 5.786781, 48.00234 ], [ 5.786256, 48.004561 ], [ 5.787609, 48.007806 ], [ 5.785594, 48.012906 ], [ 5.783075, 48.015411 ], [ 5.780686, 48.020927 ], [ 5.779166, 48.022322 ], [ 5.776422, 48.022402 ], [ 5.776088, 48.024482 ], [ 5.777745, 48.031365 ], [ 5.77682, 48.033642 ], [ 5.775048, 48.031174 ], [ 5.770538, 48.029911 ], [ 5.7645, 48.02991 ], [ 5.764413, 48.034771 ], [ 5.761312, 48.035582 ], [ 5.760045, 48.037779 ], [ 5.754221, 48.0408 ], [ 5.748892, 48.042739 ], [ 5.744854, 48.047763 ], [ 5.740572, 48.050048 ], [ 5.735956, 48.049237 ], [ 5.726957, 48.046032 ], [ 5.725038, 48.044377 ], [ 5.720829, 48.044187 ], [ 5.720194, 48.050458 ], [ 5.721279, 48.052722 ], [ 5.71708, 48.055273 ], [ 5.717095, 48.057612 ], [ 5.716233, 48.057773 ], [ 5.715431, 48.059911 ], [ 5.715733, 48.061477 ], [ 5.712761, 48.061203 ], [ 5.709193, 48.065359 ], [ 5.69872, 48.066793 ], [ 5.698587, 48.069486 ], [ 5.69683, 48.072461 ], [ 5.697066, 48.076145 ], [ 5.696323, 48.077751 ], [ 5.69176, 48.075082 ], [ 5.689481, 48.075147 ], [ 5.687253, 48.076021 ], [ 5.683834, 48.079607 ], [ 5.68287, 48.079245 ], [ 5.681047, 48.080737 ], [ 5.675069, 48.081904 ], [ 5.675221, 48.079019 ], [ 5.673324, 48.078758 ], [ 5.669822, 48.081782 ], [ 5.668074, 48.08132 ], [ 5.666923, 48.08371 ], [ 5.665141, 48.08421 ], [ 5.663026, 48.083686 ], [ 5.662094, 48.084883 ], [ 5.658492, 48.085094 ], [ 5.657524, 48.086283 ], [ 5.653177, 48.084055 ], [ 5.652797, 48.08015 ], [ 5.65393, 48.080028 ], [ 5.654736, 48.077891 ], [ 5.657659, 48.076323 ], [ 5.66128, 48.07199 ], [ 5.658526, 48.070898 ], [ 5.659135, 48.068856 ], [ 5.655929, 48.069127 ], [ 5.64662, 48.07272 ], [ 5.645673, 48.074726 ], [ 5.646752, 48.075866 ], [ 5.645097, 48.077308 ], [ 5.645831, 48.078322 ], [ 5.644161, 48.079539 ], [ 5.642298, 48.078737 ], [ 5.640928, 48.08044 ], [ 5.638869, 48.080813 ], [ 5.63774, 48.08206 ], [ 5.633794, 48.080191 ], [ 5.633147, 48.080569 ], [ 5.633956, 48.081717 ], [ 5.630365, 48.084065 ], [ 5.629687, 48.083648 ], [ 5.629197, 48.08472 ], [ 5.630489, 48.086056 ], [ 5.633684, 48.087307 ], [ 5.633462, 48.09043 ], [ 5.636054, 48.090231 ], [ 5.636712, 48.088094 ], [ 5.638667, 48.088881 ], [ 5.637943, 48.09045 ], [ 5.63846, 48.091111 ], [ 5.637591, 48.09147 ], [ 5.639283, 48.094887 ], [ 5.637395, 48.09584 ], [ 5.63744, 48.097639 ], [ 5.643159, 48.100028 ], [ 5.643034, 48.101127 ], [ 5.647837, 48.103781 ], [ 5.647669, 48.104326 ], [ 5.650467, 48.104868 ], [ 5.653385, 48.107141 ], [ 5.656568, 48.105874 ], [ 5.659329, 48.105976 ], [ 5.665407, 48.106479 ], [ 5.666281, 48.107534 ], [ 5.667503, 48.106645 ], [ 5.671475, 48.108432 ], [ 5.671914, 48.109438 ], [ 5.669649, 48.110858 ], [ 5.670349, 48.112369 ], [ 5.667902, 48.112978 ], [ 5.668313, 48.115217 ], [ 5.667564, 48.116138 ], [ 5.661593, 48.115227 ], [ 5.660733, 48.115767 ], [ 5.661523, 48.117057 ], [ 5.661009, 48.117674 ], [ 5.659285, 48.118037 ], [ 5.658218, 48.119238 ], [ 5.657132, 48.119089 ], [ 5.658006, 48.120094 ], [ 5.656553, 48.120545 ], [ 5.657988, 48.121989 ], [ 5.659013, 48.121195 ], [ 5.659274, 48.122133 ], [ 5.661789, 48.123637 ], [ 5.660887, 48.124248 ], [ 5.662518, 48.128791 ], [ 5.666626, 48.129979 ], [ 5.666829, 48.131054 ], [ 5.668662, 48.132396 ], [ 5.668287, 48.132857 ], [ 5.67178, 48.132567 ], [ 5.677489, 48.137009 ], [ 5.676816, 48.138015 ], [ 5.67484, 48.138463 ], [ 5.676864, 48.145123 ], [ 5.684281, 48.145045 ], [ 5.685017, 48.146369 ], [ 5.685352, 48.150621 ], [ 5.680843, 48.150724 ], [ 5.684693, 48.153819 ], [ 5.684094, 48.158414 ], [ 5.686349, 48.165065 ], [ 5.685733, 48.167335 ], [ 5.683, 48.17027 ], [ 5.683323, 48.173406 ], [ 5.682239, 48.175705 ], [ 5.679642, 48.179289 ], [ 5.687059, 48.180326 ], [ 5.697176, 48.189317 ], [ 5.70182, 48.190445 ], [ 5.710975, 48.189418 ], [ 5.711712, 48.190432 ], [ 5.716879, 48.189158 ], [ 5.723581, 48.190811 ], [ 5.727141, 48.189673 ], [ 5.73098, 48.189697 ], [ 5.731328, 48.194052 ], [ 5.730249, 48.195073 ], [ 5.729717, 48.198313 ], [ 5.728029, 48.198983 ], [ 5.721158, 48.206979 ], [ 5.718242, 48.214499 ], [ 5.715297, 48.216878 ], [ 5.71214, 48.218049 ], [ 5.710848, 48.219931 ], [ 5.697453, 48.22738 ], [ 5.693249, 48.231144 ], [ 5.687733, 48.234429 ], [ 5.682663, 48.232829 ], [ 5.680842, 48.230688 ], [ 5.676943, 48.228909 ], [ 5.662804, 48.235339 ], [ 5.645864, 48.239912 ], [ 5.641534, 48.241753 ], [ 5.640897, 48.242355 ], [ 5.644295, 48.250935 ], [ 5.648717, 48.253941 ], [ 5.651134, 48.256592 ], [ 5.653814, 48.268522 ], [ 5.645935, 48.271821 ], [ 5.643322, 48.275044 ], [ 5.626052, 48.283195 ], [ 5.611651, 48.291814 ], [ 5.608884, 48.288741 ], [ 5.604198, 48.287116 ], [ 5.598656, 48.283859 ], [ 5.588429, 48.273758 ], [ 5.584066, 48.267169 ], [ 5.581492, 48.265544 ], [ 5.577651, 48.261421 ], [ 5.569006, 48.260011 ], [ 5.563367, 48.254002 ], [ 5.557202, 48.265543 ], [ 5.543526, 48.261791 ], [ 5.542906, 48.266017 ], [ 5.541974, 48.267302 ], [ 5.537933, 48.268456 ], [ 5.531437, 48.273321 ], [ 5.523525, 48.275119 ], [ 5.522719, 48.27937 ], [ 5.51981, 48.280304 ], [ 5.518416, 48.28179 ], [ 5.518202, 48.28247 ], [ 5.519099, 48.282806 ], [ 5.511122, 48.293371 ], [ 5.512605, 48.293635 ], [ 5.508086, 48.301785 ], [ 5.506179, 48.309044 ], [ 5.502895, 48.313631 ], [ 5.500207, 48.315827 ], [ 5.501684, 48.317947 ], [ 5.500157, 48.318347 ], [ 5.506638, 48.322663 ], [ 5.508914, 48.322378 ], [ 5.511787, 48.319681 ], [ 5.517972, 48.322664 ], [ 5.523545, 48.322234 ], [ 5.533514, 48.325104 ], [ 5.530361, 48.329599 ], [ 5.526511, 48.331737 ], [ 5.524233, 48.334003 ], [ 5.525293, 48.338113 ], [ 5.522399, 48.341341 ], [ 5.526527, 48.346854 ], [ 5.520761, 48.348947 ], [ 5.506289, 48.350351 ], [ 5.49776, 48.355786 ], [ 5.491177, 48.354734 ], [ 5.487277, 48.356097 ], [ 5.484692, 48.355771 ], [ 5.484886, 48.356755 ], [ 5.483536, 48.356031 ], [ 5.480631, 48.356691 ], [ 5.474469, 48.35469 ], [ 5.474067, 48.352569 ], [ 5.468954, 48.349038 ], [ 5.461813, 48.352272 ], [ 5.459879, 48.348765 ], [ 5.453619, 48.345646 ], [ 5.445417, 48.337549 ], [ 5.439725, 48.335099 ], [ 5.42892, 48.332648 ], [ 5.426047, 48.331059 ], [ 5.42384, 48.335759 ], [ 5.418224, 48.339829 ], [ 5.416975, 48.342696 ], [ 5.41767, 48.34717 ], [ 5.419882, 48.348301 ], [ 5.422722, 48.351579 ], [ 5.419663, 48.353513 ], [ 5.417535, 48.357257 ], [ 5.418917, 48.359876 ], [ 5.41856, 48.360694 ], [ 5.42208, 48.364067 ], [ 5.423866, 48.367059 ], [ 5.427302, 48.366362 ], [ 5.430922, 48.369923 ], [ 5.433018, 48.370727 ], [ 5.431518, 48.371593 ], [ 5.436535, 48.375142 ], [ 5.436203, 48.376365 ], [ 5.442878, 48.379383 ], [ 5.441577, 48.380227 ], [ 5.428878, 48.382459 ], [ 5.409945, 48.383207 ], [ 5.407418, 48.382732 ], [ 5.393632, 48.39171 ], [ 5.401955, 48.393639 ], [ 5.407502, 48.392117 ], [ 5.412351, 48.393439 ], [ 5.416156, 48.396743 ], [ 5.419798, 48.395157 ], [ 5.42242, 48.397 ], [ 5.421177, 48.398919 ], [ 5.428271, 48.401685 ], [ 5.435878, 48.408279 ], [ 5.439903, 48.408909 ], [ 5.443124, 48.410608 ], [ 5.444686, 48.414055 ], [ 5.446671, 48.41548 ], [ 5.453583, 48.415228 ], [ 5.459335, 48.416398 ], [ 5.466027, 48.42016 ], [ 5.470068, 48.420895 ], [ 5.486221, 48.414629 ], [ 5.488727, 48.414742 ], [ 5.491698, 48.416773 ], [ 5.496225, 48.415574 ], [ 5.500011, 48.413197 ], [ 5.50272, 48.409194 ], [ 5.512016, 48.410199 ], [ 5.513899, 48.410801 ], [ 5.513744, 48.412173 ], [ 5.509339, 48.415824 ], [ 5.512018, 48.419566 ], [ 5.511546, 48.422925 ], [ 5.513221, 48.425805 ], [ 5.514664, 48.426076 ], [ 5.513949, 48.42972 ], [ 5.514753, 48.429579 ], [ 5.515832, 48.431053 ], [ 5.52028, 48.432394 ], [ 5.52366, 48.432393 ], [ 5.523605, 48.432904 ], [ 5.52808, 48.432805 ], [ 5.530336, 48.43135 ], [ 5.539184, 48.43417 ], [ 5.544014, 48.434434 ], [ 5.545616, 48.435235 ], [ 5.545346, 48.436323 ], [ 5.546852, 48.437722 ], [ 5.55051, 48.439826 ], [ 5.560999, 48.439973 ], [ 5.56082, 48.441471 ], [ 5.564651, 48.441087 ], [ 5.563992, 48.43981 ], [ 5.568201, 48.439779 ], [ 5.566899, 48.433098 ], [ 5.576691, 48.432219 ], [ 5.58062, 48.439102 ], [ 5.588611, 48.442337 ], [ 5.609061, 48.442599 ], [ 5.610901, 48.440853 ], [ 5.615573, 48.440396 ], [ 5.616422, 48.433662 ], [ 5.615787, 48.432396 ], [ 5.621486, 48.425994 ], [ 5.622562, 48.42889 ], [ 5.618331, 48.439679 ], [ 5.618469, 48.443021 ], [ 5.631713, 48.451804 ], [ 5.638309, 48.453904 ], [ 5.644717, 48.453748 ], [ 5.649464, 48.455006 ], [ 5.648596, 48.455608 ], [ 5.653471, 48.458605 ], [ 5.648485, 48.46327 ], [ 5.645104, 48.464449 ], [ 5.643059, 48.467525 ], [ 5.637821, 48.469452 ], [ 5.642237, 48.472444 ], [ 5.654942, 48.468494 ], [ 5.655805, 48.472074 ], [ 5.661325, 48.471195 ], [ 5.670503, 48.472398 ], [ 5.678163, 48.47176 ], [ 5.682578, 48.470529 ], [ 5.680583, 48.468736 ], [ 5.683295, 48.468961 ], [ 5.68953, 48.467537 ], [ 5.690774, 48.466936 ], [ 5.689325, 48.466084 ], [ 5.694568, 48.464832 ], [ 5.694811, 48.463478 ], [ 5.713407, 48.460378 ], [ 5.713788, 48.461552 ], [ 5.71921, 48.460145 ], [ 5.723458, 48.462956 ], [ 5.729647, 48.464856 ], [ 5.733956, 48.465875 ], [ 5.740238, 48.465866 ], [ 5.739915, 48.469806 ], [ 5.740769, 48.471731 ], [ 5.742923, 48.472219 ], [ 5.741583, 48.4742 ], [ 5.746694, 48.476526 ], [ 5.747183, 48.475944 ], [ 5.748998, 48.476792 ], [ 5.750446, 48.483616 ], [ 5.755275, 48.491573 ], [ 5.765167, 48.496541 ], [ 5.771758, 48.491758 ], [ 5.77615, 48.487466 ], [ 5.785375, 48.485005 ], [ 5.78488, 48.484251 ], [ 5.78702, 48.482787 ], [ 5.790298, 48.488122 ], [ 5.798271, 48.491443 ], [ 5.806495, 48.493159 ], [ 5.810488, 48.496012 ], [ 5.810807, 48.498399 ], [ 5.819357, 48.497975 ], [ 5.823696, 48.4961 ], [ 5.826378, 48.49674 ], [ 5.829144, 48.499439 ], [ 5.833189, 48.500922 ], [ 5.837265, 48.501007 ], [ 5.83672, 48.504023 ], [ 5.841566, 48.506209 ], [ 5.845987, 48.507131 ], [ 5.846266, 48.505978 ], [ 5.848203, 48.504552 ], [ 5.852302, 48.506734 ], [ 5.85835, 48.507176 ], [ 5.862195, 48.50696 ], [ 5.870265, 48.499612 ], [ 5.887496, 48.494133 ], [ 5.898733, 48.493515 ], [ 5.906501, 48.495162 ], [ 5.899168, 48.485328 ], [ 5.901791, 48.482998 ], [ 5.904304, 48.482922 ], [ 5.903565, 48.480245 ], [ 5.891921, 48.47165 ], [ 5.887777, 48.470614 ], [ 5.885581, 48.469151 ], [ 5.890597, 48.467241 ], [ 5.893309, 48.463876 ], [ 5.89221, 48.462373 ], [ 5.886891, 48.459939 ], [ 5.886069, 48.45758 ], [ 5.887019, 48.453832 ], [ 5.898563, 48.449256 ], [ 5.899654, 48.448378 ], [ 5.899082, 48.446834 ], [ 5.89654, 48.444827 ], [ 5.890873, 48.442923 ], [ 5.885044, 48.439359 ], [ 5.885388, 48.437842 ], [ 5.883245, 48.434156 ], [ 5.877708, 48.42922 ], [ 5.875862, 48.429304 ], [ 5.872951, 48.427323 ], [ 5.869701, 48.42446 ], [ 5.867575, 48.421193 ], [ 5.859336, 48.416499 ], [ 5.855381, 48.409373 ], [ 5.860718, 48.407324 ], [ 5.867729, 48.40706 ], [ 5.870697, 48.405972 ], [ 5.872513, 48.404838 ], [ 5.872059, 48.404131 ], [ 5.874152, 48.400615 ], [ 5.875894, 48.401349 ], [ 5.876016, 48.40348 ], [ 5.878606, 48.405006 ], [ 5.882551, 48.403394 ], [ 5.884584, 48.404457 ], [ 5.888991, 48.404676 ], [ 5.8898, 48.405642 ], [ 5.890422, 48.404858 ], [ 5.895194, 48.405254 ], [ 5.894693, 48.406844 ], [ 5.896254, 48.406923 ], [ 5.899295, 48.408901 ], [ 5.900383, 48.413773 ], [ 5.899513, 48.413889 ], [ 5.900589, 48.414621 ], [ 5.900857, 48.416548 ], [ 5.905399, 48.418638 ], [ 5.907086, 48.425225 ], [ 5.906449, 48.427802 ], [ 5.909293, 48.429277 ], [ 5.907058, 48.431451 ], [ 5.904557, 48.431556 ], [ 5.901271, 48.433734 ], [ 5.898203, 48.434366 ], [ 5.897766, 48.436382 ], [ 5.898402, 48.435888 ], [ 5.908421, 48.437416 ], [ 5.910208, 48.435846 ], [ 5.912507, 48.435364 ], [ 5.923412, 48.43645 ], [ 5.931357, 48.434174 ], [ 5.924904, 48.421822 ], [ 5.924285, 48.423297 ], [ 5.921988, 48.423096 ], [ 5.918754, 48.424647 ], [ 5.920371, 48.427559 ], [ 5.915321, 48.427792 ], [ 5.913299, 48.425117 ], [ 5.910969, 48.423815 ], [ 5.911506, 48.42246 ], [ 5.907257, 48.419348 ], [ 5.907954, 48.41655 ], [ 5.910398, 48.416434 ], [ 5.909305, 48.41254 ], [ 5.911051, 48.411645 ], [ 5.912766, 48.411986 ], [ 5.909642, 48.407086 ], [ 5.911549, 48.405825 ], [ 5.904785, 48.400301 ], [ 5.907186, 48.399828 ], [ 5.911098, 48.403454 ], [ 5.918523, 48.405342 ], [ 5.920249, 48.403164 ], [ 5.920335, 48.401249 ], [ 5.925452, 48.396843 ], [ 5.924581, 48.396271 ], [ 5.92608, 48.395814 ], [ 5.927705, 48.393859 ], [ 5.924799, 48.389108 ], [ 5.927907, 48.382367 ], [ 5.929011, 48.38216 ], [ 5.929591, 48.379633 ], [ 5.931022, 48.37805 ], [ 5.927593, 48.371646 ], [ 5.926095, 48.370335 ], [ 5.921542, 48.368626 ], [ 5.920997, 48.370139 ], [ 5.918453, 48.369496 ], [ 5.911059, 48.365236 ], [ 5.912082, 48.364242 ], [ 5.912351, 48.359859 ], [ 5.915061, 48.361022 ], [ 5.917233, 48.363062 ], [ 5.920899, 48.360789 ], [ 5.92207, 48.362605 ], [ 5.925456, 48.362887 ], [ 5.926097, 48.365548 ], [ 5.927864, 48.365106 ], [ 5.930571, 48.366733 ], [ 5.931498, 48.368925 ], [ 5.933799, 48.368653 ], [ 5.933958, 48.370027 ], [ 5.936649, 48.372869 ], [ 5.940604, 48.374744 ], [ 5.943736, 48.374495 ], [ 5.944421, 48.375978 ], [ 5.948614, 48.374563 ], [ 5.953388, 48.374326 ], [ 5.9526, 48.37134 ], [ 5.949235, 48.371041 ], [ 5.949381, 48.368963 ], [ 5.951611, 48.3671 ], [ 5.952086, 48.365665 ], [ 5.956688, 48.367473 ], [ 5.957488, 48.365219 ], [ 5.960451, 48.36472 ], [ 5.954817, 48.363555 ], [ 5.955445, 48.362646 ], [ 5.954261, 48.361152 ], [ 5.9549, 48.36045 ], [ 5.953252, 48.358026 ], [ 5.957414, 48.355111 ], [ 5.959236, 48.35042 ], [ 5.961483, 48.350702 ], [ 5.961515, 48.350084 ], [ 5.966174, 48.350188 ], [ 5.966217, 48.35139 ], [ 5.972072, 48.352853 ], [ 5.980607, 48.349005 ], [ 5.983433, 48.350807 ], [ 5.983951, 48.350476 ], [ 5.985316, 48.351858 ], [ 5.983963, 48.352863 ], [ 5.98801, 48.35538 ], [ 5.994408, 48.35405 ], [ 5.994434, 48.354985 ], [ 5.998242, 48.358737 ], [ 6.001364, 48.360654 ], [ 6.003873, 48.357555 ], [ 6.006064, 48.358204 ], [ 6.003101, 48.36228 ], [ 6.003633, 48.36319 ], [ 6.008342, 48.361643 ], [ 6.009112, 48.360615 ], [ 6.011348, 48.360973 ], [ 6.013626, 48.359872 ], [ 6.016111, 48.361582 ], [ 6.0173, 48.36042 ], [ 6.020488, 48.3614 ], [ 6.022467, 48.358045 ], [ 6.021275, 48.357416 ], [ 6.022627, 48.356464 ], [ 6.023096, 48.357395 ], [ 6.025228, 48.356969 ], [ 6.029819, 48.360337 ], [ 6.039494, 48.363245 ], [ 6.040641, 48.361654 ], [ 6.03856, 48.3608 ], [ 6.039445, 48.359939 ], [ 6.0427, 48.360413 ], [ 6.048523, 48.362983 ], [ 6.046522, 48.36524 ], [ 6.04859, 48.366153 ], [ 6.049287, 48.365456 ], [ 6.050493, 48.366082 ], [ 6.051939, 48.365035 ], [ 6.0548, 48.365856 ], [ 6.056844, 48.3625 ], [ 6.058233, 48.362624 ], [ 6.061669, 48.359693 ], [ 6.065551, 48.359086 ], [ 6.071289, 48.35976 ], [ 6.070835, 48.360959 ], [ 6.075725, 48.362831 ], [ 6.078201, 48.362509 ], [ 6.079375, 48.363377 ], [ 6.079849, 48.369082 ], [ 6.076938, 48.375399 ], [ 6.074742, 48.376373 ], [ 6.069392, 48.3733 ], [ 6.069074, 48.37529 ], [ 6.073246, 48.376949 ], [ 6.076817, 48.379903 ], [ 6.078384, 48.378834 ], [ 6.082165, 48.38231 ], [ 6.086104, 48.382953 ], [ 6.085831, 48.383449 ], [ 6.087189, 48.383827 ], [ 6.088267, 48.382466 ], [ 6.091218, 48.382256 ], [ 6.091246, 48.381556 ], [ 6.089011, 48.38102 ], [ 6.092099, 48.376099 ], [ 6.091442, 48.375408 ], [ 6.092177, 48.374341 ], [ 6.094217, 48.374545 ], [ 6.095603, 48.373151 ], [ 6.096624, 48.373254 ], [ 6.096619, 48.372267 ], [ 6.097467, 48.372614 ], [ 6.099017, 48.36894 ], [ 6.09794, 48.368641 ], [ 6.098284, 48.363831 ], [ 6.09376, 48.363849 ], [ 6.092739, 48.361063 ], [ 6.095493, 48.360217 ], [ 6.098114, 48.361721 ], [ 6.099, 48.359892 ], [ 6.097289, 48.357877 ], [ 6.099111, 48.356918 ], [ 6.098736, 48.356391 ], [ 6.102129, 48.356633 ], [ 6.103005, 48.354715 ], [ 6.106043, 48.355653 ], [ 6.109278, 48.355586 ], [ 6.11136, 48.354484 ], [ 6.115123, 48.355164 ], [ 6.116731, 48.354042 ], [ 6.120468, 48.358563 ], [ 6.119851, 48.362194 ], [ 6.120655, 48.362188 ], [ 6.121038, 48.363751 ], [ 6.122521, 48.363669 ], [ 6.122847, 48.365241 ], [ 6.125062, 48.367326 ], [ 6.126661, 48.365676 ], [ 6.132712, 48.362682 ], [ 6.141796, 48.370211 ], [ 6.141208, 48.372165 ], [ 6.139429, 48.372043 ], [ 6.144229, 48.376343 ], [ 6.147519, 48.377938 ], [ 6.147164, 48.378625 ], [ 6.149847, 48.380023 ], [ 6.149334, 48.380642 ], [ 6.15244, 48.381434 ], [ 6.152016, 48.382632 ], [ 6.150235, 48.382576 ], [ 6.149899, 48.383593 ], [ 6.151392, 48.38612 ], [ 6.153401, 48.387424 ], [ 6.15252, 48.389197 ], [ 6.14902, 48.391336 ], [ 6.149135, 48.393176 ], [ 6.147298, 48.394561 ], [ 6.151621, 48.396515 ], [ 6.150611, 48.399036 ], [ 6.14974, 48.399154 ], [ 6.150561, 48.4033 ], [ 6.146908, 48.404264 ], [ 6.147203, 48.407808 ], [ 6.148826, 48.407301 ], [ 6.150111, 48.409493 ], [ 6.160204, 48.406007 ], [ 6.165517, 48.405645 ], [ 6.169349, 48.406287 ], [ 6.169766, 48.405507 ], [ 6.173485, 48.405549 ], [ 6.173415, 48.406665 ], [ 6.178397, 48.406852 ], [ 6.177028, 48.409008 ], [ 6.181879, 48.412062 ], [ 6.181253, 48.410043 ], [ 6.183686, 48.409408 ], [ 6.184542, 48.408335 ], [ 6.181866, 48.405832 ], [ 6.180544, 48.405542 ], [ 6.180373, 48.403318 ], [ 6.178238, 48.40044 ], [ 6.178463, 48.39761 ], [ 6.187912, 48.39786 ], [ 6.189039, 48.396833 ], [ 6.190192, 48.396885 ], [ 6.190895, 48.395421 ], [ 6.196138, 48.396921 ], [ 6.197632, 48.398613 ], [ 6.200158, 48.398035 ], [ 6.202888, 48.400245 ], [ 6.206863, 48.398418 ], [ 6.206295, 48.398032 ], [ 6.207013, 48.397522 ], [ 6.217383, 48.401741 ], [ 6.218448, 48.400243 ], [ 6.219772, 48.400785 ], [ 6.221431, 48.39946 ], [ 6.22415, 48.40117 ], [ 6.224402, 48.400096 ], [ 6.225464, 48.40028 ], [ 6.225033, 48.399549 ], [ 6.232099, 48.400225 ], [ 6.233341, 48.397114 ], [ 6.244505, 48.40543 ], [ 6.249888, 48.406095 ], [ 6.252792, 48.407405 ], [ 6.253427, 48.406511 ], [ 6.260436, 48.406396 ], [ 6.270132, 48.42628 ], [ 6.27413, 48.424504 ], [ 6.27503, 48.4248 ], [ 6.275515, 48.423008 ], [ 6.276097, 48.423796 ], [ 6.27931, 48.424058 ], [ 6.280679, 48.423322 ], [ 6.282695, 48.425773 ], [ 6.280991, 48.427331 ], [ 6.283466, 48.428284 ], [ 6.282365, 48.430316 ], [ 6.28828, 48.429968 ], [ 6.291009, 48.427654 ], [ 6.295427, 48.432955 ], [ 6.29505, 48.434188 ], [ 6.295631, 48.434748 ], [ 6.300129, 48.433706 ], [ 6.300222, 48.431161 ], [ 6.30456, 48.425828 ], [ 6.301949, 48.424282 ], [ 6.302793, 48.423673 ], [ 6.303606, 48.420123 ], [ 6.306845, 48.417744 ], [ 6.30626, 48.416278 ], [ 6.304154, 48.415884 ], [ 6.307366, 48.411652 ], [ 6.316159, 48.408955 ], [ 6.321109, 48.409636 ], [ 6.330141, 48.405137 ], [ 6.336459, 48.404555 ], [ 6.349903, 48.40547 ], [ 6.35404, 48.403961 ], [ 6.357389, 48.404482 ], [ 6.363689, 48.407995 ], [ 6.363614, 48.406152 ], [ 6.368, 48.407793 ], [ 6.383122, 48.415431 ], [ 6.383559, 48.415169 ], [ 6.382095, 48.413734 ], [ 6.378537, 48.412528 ], [ 6.380717, 48.41251 ], [ 6.380543, 48.411143 ], [ 6.378497, 48.409165 ], [ 6.378944, 48.408823 ], [ 6.381786, 48.411911 ], [ 6.383802, 48.410351 ], [ 6.38313, 48.409343 ], [ 6.384388, 48.40817 ], [ 6.381674, 48.406272 ], [ 6.388237, 48.409439 ], [ 6.390381, 48.40853 ], [ 6.391752, 48.409644 ], [ 6.392899, 48.408749 ], [ 6.392186, 48.406523 ], [ 6.390293, 48.405823 ], [ 6.391509, 48.405826 ], [ 6.391225, 48.403901 ], [ 6.384272, 48.400155 ], [ 6.388463, 48.401689 ], [ 6.389469, 48.400829 ], [ 6.384139, 48.394688 ], [ 6.38856, 48.390863 ], [ 6.394517, 48.393243 ], [ 6.39554, 48.39473 ], [ 6.398539, 48.396355 ], [ 6.398769, 48.395489 ], [ 6.400041, 48.396153 ], [ 6.404009, 48.390784 ], [ 6.408838, 48.392272 ], [ 6.409827, 48.391945 ], [ 6.410507, 48.393081 ], [ 6.411979, 48.392028 ], [ 6.413994, 48.39359 ], [ 6.413354, 48.394144 ], [ 6.414019, 48.395741 ], [ 6.414956, 48.395619 ], [ 6.415439, 48.398044 ], [ 6.417266, 48.400891 ], [ 6.420278, 48.401097 ], [ 6.421665, 48.403976 ], [ 6.421255, 48.405655 ], [ 6.422397, 48.407281 ], [ 6.435498, 48.412795 ], [ 6.439891, 48.413633 ], [ 6.442236, 48.413362 ], [ 6.442251, 48.412772 ], [ 6.456882, 48.417815 ], [ 6.458884, 48.416635 ], [ 6.458164, 48.415399 ], [ 6.460021, 48.41321 ], [ 6.462767, 48.412889 ], [ 6.465848, 48.411647 ], [ 6.466746, 48.410355 ], [ 6.470982, 48.409207 ], [ 6.473005, 48.411161 ], [ 6.483134, 48.415234 ], [ 6.491284, 48.417538 ], [ 6.494985, 48.415463 ], [ 6.500571, 48.414235 ], [ 6.506073, 48.416285 ], [ 6.508129, 48.418323 ], [ 6.508596, 48.419936 ], [ 6.522149, 48.425531 ], [ 6.520965, 48.427014 ], [ 6.522594, 48.42807 ], [ 6.529863, 48.42931 ], [ 6.534206, 48.431684 ], [ 6.535623, 48.431645 ], [ 6.540728, 48.428031 ], [ 6.545578, 48.427808 ], [ 6.549544, 48.425255 ], [ 6.554835, 48.42331 ], [ 6.563217, 48.421985 ], [ 6.564393, 48.420793 ], [ 6.565843, 48.420897 ], [ 6.565374, 48.421731 ], [ 6.566289, 48.421936 ], [ 6.566543, 48.419989 ], [ 6.568038, 48.41798 ], [ 6.571668, 48.416089 ], [ 6.570592, 48.418201 ], [ 6.571577, 48.418595 ], [ 6.573486, 48.416733 ], [ 6.574195, 48.414642 ], [ 6.576122, 48.414417 ], [ 6.575312, 48.415794 ], [ 6.577648, 48.416345 ], [ 6.576952, 48.416885 ], [ 6.577446, 48.417201 ], [ 6.578884, 48.416668 ], [ 6.578848, 48.415545 ], [ 6.584054, 48.417293 ], [ 6.580021, 48.422011 ], [ 6.578227, 48.425537 ], [ 6.577852, 48.429179 ], [ 6.573788, 48.433494 ], [ 6.569576, 48.433127 ], [ 6.568421, 48.431684 ], [ 6.567248, 48.433229 ], [ 6.567335, 48.435394 ], [ 6.568661, 48.436666 ], [ 6.567212, 48.440901 ], [ 6.56985, 48.440887 ], [ 6.574805, 48.443347 ], [ 6.575059, 48.444139 ], [ 6.573645, 48.445595 ], [ 6.576969, 48.448877 ], [ 6.57768, 48.45191 ], [ 6.584203, 48.460434 ], [ 6.595706, 48.462924 ], [ 6.594986, 48.463503 ], [ 6.596279, 48.464005 ], [ 6.595654, 48.464439 ], [ 6.597443, 48.467066 ], [ 6.60613, 48.466372 ], [ 6.609585, 48.469219 ], [ 6.610853, 48.467936 ], [ 6.619053, 48.472107 ], [ 6.623141, 48.473125 ], [ 6.632536, 48.472319 ], [ 6.632363, 48.47146 ], [ 6.635221, 48.470639 ], [ 6.634695, 48.469721 ], [ 6.635427, 48.468904 ], [ 6.634601, 48.468453 ], [ 6.637236, 48.467108 ], [ 6.636789, 48.466657 ], [ 6.63769, 48.46463 ], [ 6.638784, 48.463938 ], [ 6.638392, 48.457959 ], [ 6.638947, 48.456662 ], [ 6.63577, 48.453777 ], [ 6.637682, 48.452003 ], [ 6.635868, 48.450317 ], [ 6.637829, 48.44722 ], [ 6.642811, 48.444943 ], [ 6.648103, 48.434098 ], [ 6.644917, 48.428649 ], [ 6.644998, 48.427069 ], [ 6.651294, 48.427066 ], [ 6.653667, 48.428304 ], [ 6.654646, 48.427133 ], [ 6.657573, 48.427344 ], [ 6.65684, 48.426341 ], [ 6.659411, 48.425062 ], [ 6.662579, 48.426612 ], [ 6.667654, 48.426344 ], [ 6.676491, 48.423453 ], [ 6.681205, 48.420633 ], [ 6.682792, 48.424553 ], [ 6.683583, 48.419163 ], [ 6.690569, 48.415605 ], [ 6.699504, 48.413085 ], [ 6.706908, 48.416487 ], [ 6.70869, 48.41898 ], [ 6.713524, 48.42278 ], [ 6.716384, 48.42095 ], [ 6.719378, 48.417559 ], [ 6.722243, 48.415953 ], [ 6.72528, 48.415502 ], [ 6.735479, 48.417174 ], [ 6.737722, 48.415588 ], [ 6.739163, 48.415478 ], [ 6.738702, 48.410838 ], [ 6.739473, 48.411747 ], [ 6.74361, 48.411346 ], [ 6.749607, 48.412103 ], [ 6.757054, 48.411262 ], [ 6.764971, 48.411907 ], [ 6.76213, 48.408454 ], [ 6.761299, 48.406025 ], [ 6.764621, 48.404178 ], [ 6.76726, 48.399206 ], [ 6.781817, 48.402605 ], [ 6.789004, 48.402282 ], [ 6.788923, 48.401292 ], [ 6.783491, 48.396845 ], [ 6.783598, 48.394581 ], [ 6.782142, 48.390173 ], [ 6.782979, 48.38923 ], [ 6.785621, 48.396611 ], [ 6.788015, 48.397155 ], [ 6.788265, 48.398456 ], [ 6.790742, 48.399634 ], [ 6.791533, 48.400981 ], [ 6.793011, 48.400923 ], [ 6.793869, 48.403406 ], [ 6.798719, 48.402834 ], [ 6.798457, 48.402146 ], [ 6.799627, 48.401184 ], [ 6.801659, 48.400601 ], [ 6.807901, 48.3999 ], [ 6.807863, 48.397847 ], [ 6.809791, 48.396997 ], [ 6.809895, 48.395945 ], [ 6.813162, 48.396559 ], [ 6.815083, 48.394975 ], [ 6.812431, 48.392067 ], [ 6.811521, 48.386048 ], [ 6.80802, 48.382453 ], [ 6.80828, 48.380911 ], [ 6.809603, 48.37959 ], [ 6.806437, 48.375548 ], [ 6.807782, 48.373957 ], [ 6.807765, 48.372697 ], [ 6.806503, 48.371358 ], [ 6.804935, 48.372301 ], [ 6.801162, 48.371359 ], [ 6.794516, 48.37434 ], [ 6.789295, 48.372678 ], [ 6.786384, 48.372851 ], [ 6.777328, 48.36927 ], [ 6.775299, 48.364663 ], [ 6.779389, 48.361609 ], [ 6.779907, 48.359448 ], [ 6.786525, 48.358034 ], [ 6.788011, 48.3563 ], [ 6.787777, 48.352694 ], [ 6.786271, 48.348393 ], [ 6.784328, 48.346217 ], [ 6.78523, 48.344175 ], [ 6.785124, 48.343098 ], [ 6.784359, 48.343001 ], [ 6.784417, 48.33902 ], [ 6.781087, 48.335551 ], [ 6.780606, 48.333188 ], [ 6.779339, 48.33278 ], [ 6.780188, 48.332168 ], [ 6.779331, 48.330866 ], [ 6.784184, 48.327105 ], [ 6.78654, 48.32193 ], [ 6.788577, 48.320873 ], [ 6.78804, 48.319347 ], [ 6.784041, 48.318178 ], [ 6.781578, 48.316397 ], [ 6.780842, 48.314562 ], [ 6.777921, 48.311697 ], [ 6.778726, 48.308546 ], [ 6.773542, 48.305092 ], [ 6.773401, 48.30337 ], [ 6.77233, 48.302426 ], [ 6.776676, 48.300519 ], [ 6.777071, 48.296713 ], [ 6.77992, 48.294578 ], [ 6.779968, 48.293366 ], [ 6.777445, 48.291043 ], [ 6.777569, 48.289149 ], [ 6.781626, 48.289009 ], [ 6.784953, 48.286227 ], [ 6.779723, 48.283653 ], [ 6.775503, 48.279783 ], [ 6.771699, 48.280379 ], [ 6.764593, 48.276774 ], [ 6.754467, 48.274273 ], [ 6.740556, 48.273218 ], [ 6.726939, 48.267902 ], [ 6.722537, 48.267402 ], [ 6.720532, 48.269894 ], [ 6.72049, 48.271713 ], [ 6.716034, 48.273389 ], [ 6.712828, 48.273214 ], [ 6.704883, 48.278221 ], [ 6.701053, 48.276663 ], [ 6.69242, 48.277657 ], [ 6.682357, 48.27449 ], [ 6.680363, 48.272634 ], [ 6.66992, 48.271153 ], [ 6.664816, 48.2721 ], [ 6.664871, 48.274398 ], [ 6.66122, 48.27392 ], [ 6.654899, 48.275791 ], [ 6.649927, 48.274877 ], [ 6.64928, 48.275704 ], [ 6.646415, 48.27476 ], [ 6.645031, 48.276195 ], [ 6.644179, 48.275833 ], [ 6.642571, 48.276801 ], [ 6.642148, 48.278213 ], [ 6.634139, 48.278346 ], [ 6.632391, 48.280661 ], [ 6.633214, 48.282616 ], [ 6.628286, 48.284049 ], [ 6.627128, 48.285439 ], [ 6.623119, 48.285464 ], [ 6.613238, 48.280167 ], [ 6.611735, 48.280763 ], [ 6.607277, 48.277844 ], [ 6.60385, 48.27928 ], [ 6.601386, 48.278202 ], [ 6.601948, 48.277534 ], [ 6.601182, 48.276398 ], [ 6.597688, 48.274413 ], [ 6.598952, 48.272595 ], [ 6.59799, 48.270474 ], [ 6.599023, 48.270652 ], [ 6.600495, 48.269122 ], [ 6.601078, 48.26568 ], [ 6.59783, 48.265825 ], [ 6.593566, 48.264428 ], [ 6.594009, 48.263438 ], [ 6.59061, 48.2638 ], [ 6.585746, 48.263056 ], [ 6.586038, 48.254318 ], [ 6.585184, 48.253937 ], [ 6.585013, 48.250086 ], [ 6.584064, 48.249557 ], [ 6.584323, 48.248318 ], [ 6.583291, 48.246764 ], [ 6.580555, 48.246698 ], [ 6.581381, 48.245307 ], [ 6.583222, 48.245048 ], [ 6.582089, 48.239858 ], [ 6.584263, 48.238396 ], [ 6.575711, 48.23383 ], [ 6.567896, 48.231929 ], [ 6.567862, 48.230743 ], [ 6.568744, 48.22887 ], [ 6.572697, 48.227251 ], [ 6.573806, 48.225254 ], [ 6.572675, 48.224738 ], [ 6.574694, 48.221164 ], [ 6.576941, 48.221539 ], [ 6.576557, 48.220885 ], [ 6.577584, 48.219724 ], [ 6.576916, 48.219559 ], [ 6.577878, 48.218129 ], [ 6.579559, 48.218507 ], [ 6.579747, 48.217071 ], [ 6.586204, 48.211119 ], [ 6.589413, 48.209842 ], [ 6.589384, 48.20888 ], [ 6.600577, 48.190451 ], [ 6.589824, 48.187621 ], [ 6.589349, 48.189098 ], [ 6.581679, 48.188714 ], [ 6.579906, 48.189871 ], [ 6.580282, 48.188045 ], [ 6.581919, 48.186679 ], [ 6.582116, 48.184143 ], [ 6.583741, 48.180248 ], [ 6.582249, 48.177091 ], [ 6.578669, 48.172897 ], [ 6.579648, 48.169828 ], [ 6.583378, 48.16806 ], [ 6.578692, 48.159098 ], [ 6.576242, 48.157001 ], [ 6.576349, 48.155826 ], [ 6.575379, 48.154645 ], [ 6.573124, 48.153376 ], [ 6.575696, 48.152575 ], [ 6.57574, 48.151803 ], [ 6.573283, 48.152639 ], [ 6.56919, 48.144898 ], [ 6.573926, 48.14451 ], [ 6.578134, 48.145803 ], [ 6.579641, 48.145334 ], [ 6.5793, 48.144868 ], [ 6.580471, 48.143588 ], [ 6.584165, 48.141302 ], [ 6.582384, 48.138904 ], [ 6.583737, 48.13899 ], [ 6.585819, 48.137603 ], [ 6.585614, 48.133972 ], [ 6.584724, 48.133745 ], [ 6.585261, 48.131912 ], [ 6.583355, 48.129839 ], [ 6.576973, 48.129727 ], [ 6.581598, 48.128448 ], [ 6.582879, 48.126882 ], [ 6.588362, 48.124515 ], [ 6.590146, 48.124753 ], [ 6.59129, 48.126223 ], [ 6.594574, 48.125103 ], [ 6.600331, 48.120686 ], [ 6.600941, 48.119156 ], [ 6.60418, 48.116546 ], [ 6.607598, 48.117502 ], [ 6.621617, 48.114334 ], [ 6.621194, 48.113269 ], [ 6.621983, 48.111393 ], [ 6.625989, 48.111806 ], [ 6.624781, 48.110256 ], [ 6.627868, 48.108158 ], [ 6.626868, 48.108183 ], [ 6.625931, 48.106025 ], [ 6.620923, 48.10687 ], [ 6.620674, 48.108542 ], [ 6.618414, 48.110423 ], [ 6.61257, 48.109307 ], [ 6.609403, 48.110216 ], [ 6.599923, 48.10982 ], [ 6.59738, 48.109032 ], [ 6.596461, 48.108067 ], [ 6.59571, 48.104513 ], [ 6.598422, 48.101089 ], [ 6.59834, 48.100178 ], [ 6.59501, 48.098237 ], [ 6.594439, 48.096863 ], [ 6.58872, 48.097476 ], [ 6.58953, 48.094928 ], [ 6.588685, 48.092271 ], [ 6.584264, 48.086379 ], [ 6.584762, 48.083984 ], [ 6.583333, 48.080527 ], [ 6.58322, 48.076757 ], [ 6.576336, 48.076956 ], [ 6.574582, 48.074766 ], [ 6.569638, 48.074156 ], [ 6.567796, 48.074897 ], [ 6.566748, 48.073766 ], [ 6.567179, 48.073377 ], [ 6.560487, 48.069877 ], [ 6.552284, 48.067222 ], [ 6.54946, 48.063105 ], [ 6.549969, 48.057979 ], [ 6.548745, 48.055739 ], [ 6.548508, 48.042693 ], [ 6.539433, 48.040045 ], [ 6.535911, 48.032857 ], [ 6.51715, 48.034936 ], [ 6.50744, 48.035144 ], [ 6.506979, 48.032147 ], [ 6.505613, 48.030088 ], [ 6.505826, 48.028484 ], [ 6.510305, 48.024067 ], [ 6.51124, 48.020451 ], [ 6.510394, 48.018694 ], [ 6.509447, 48.007303 ], [ 6.505654, 48.002766 ], [ 6.509617, 47.996515 ], [ 6.515971, 47.993166 ], [ 6.520419, 47.989171 ], [ 6.516472, 47.987601 ], [ 6.511742, 47.988186 ], [ 6.5081, 47.986054 ], [ 6.50246, 47.98551 ], [ 6.49317, 47.982094 ], [ 6.485646, 47.981739 ], [ 6.486342, 47.983808 ], [ 6.485676, 47.984655 ], [ 6.480732, 47.983088 ], [ 6.478539, 47.980777 ], [ 6.477324, 47.981046 ], [ 6.478167, 47.982177 ], [ 6.47975, 47.982568 ], [ 6.4799, 47.983472 ], [ 6.478176, 47.984221 ], [ 6.478315, 47.98561 ], [ 6.477231, 47.986025 ], [ 6.480812, 47.987024 ], [ 6.483119, 47.98866 ], [ 6.468964, 47.989486 ], [ 6.46222, 47.988174 ], [ 6.445767, 47.990016 ], [ 6.433493, 47.989445 ], [ 6.423561, 47.985581 ], [ 6.416734, 47.97885 ], [ 6.409386, 47.993544 ], [ 6.407863, 47.994498 ], [ 6.401642, 47.990572 ], [ 6.401548, 47.988906 ], [ 6.403559, 47.985973 ], [ 6.40076, 47.982835 ], [ 6.397575, 47.983106 ], [ 6.394177, 47.981511 ], [ 6.384601, 47.980569 ], [ 6.382527, 47.978249 ], [ 6.382505, 47.975815 ], [ 6.381377, 47.974208 ], [ 6.382062, 47.968936 ], [ 6.38048, 47.96802 ], [ 6.370469, 47.966677 ], [ 6.365068, 47.962895 ], [ 6.364441, 47.961463 ], [ 6.361548, 47.961337 ], [ 6.360932, 47.958522 ], [ 6.359737, 47.957797 ], [ 6.35508, 47.959129 ], [ 6.34834, 47.956728 ], [ 6.344614, 47.954283 ], [ 6.339031, 47.954405 ], [ 6.334322, 47.955844 ], [ 6.328981, 47.953495 ], [ 6.323989, 47.94842 ], [ 6.319428, 47.949902 ], [ 6.307282, 47.950136 ], [ 6.301246, 47.95367 ], [ 6.294366, 47.955752 ], [ 6.289078, 47.955841 ], [ 6.277332, 47.953806 ], [ 6.250772, 47.939076 ], [ 6.242896, 47.939475 ], [ 6.2387, 47.937094 ], [ 6.238631, 47.933449 ], [ 6.237983, 47.93284 ], [ 6.219218, 47.935741 ], [ 6.218793, 47.934382 ], [ 6.214337, 47.930415 ], [ 6.205225, 47.932017 ], [ 6.205738, 47.935159 ], [ 6.20871, 47.939646 ], [ 6.208643, 47.942103 ], [ 6.207015, 47.943549 ], [ 6.207973, 47.946807 ], [ 6.200577, 47.948039 ], [ 6.197115, 47.947433 ], [ 6.196507, 47.949209 ], [ 6.197367, 47.951792 ], [ 6.190889, 47.953942 ], [ 6.186638, 47.953541 ], [ 6.182386, 47.955887 ], [ 6.18206, 47.956933 ], [ 6.180329, 47.95618 ], [ 6.179063, 47.954421 ], [ 6.173878, 47.95225 ], [ 6.167989, 47.952353 ], [ 6.166506, 47.953167 ], [ 6.166069, 47.954531 ], [ 6.164977, 47.954253 ], [ 6.162078, 47.956778 ], [ 6.162269, 47.957582 ], [ 6.160743, 47.958712 ], [ 6.160798, 47.964752 ], [ 6.157332, 47.967805 ], [ 6.155605, 47.96682 ], [ 6.155399, 47.964514 ], [ 6.149771, 47.96559 ], [ 6.149475, 47.96822 ], [ 6.150291, 47.970241 ], [ 6.155183, 47.9721 ], [ 6.16454, 47.973114 ], [ 6.16392, 47.975019 ], [ 6.165283, 47.976731 ], [ 6.16202, 47.978356 ], [ 6.157366, 47.984176 ], [ 6.160711, 47.989451 ], [ 6.159745, 47.992302 ], [ 6.157697, 47.991987 ], [ 6.152265, 47.994541 ], [ 6.153034, 48.000242 ], [ 6.155182, 48.002702 ], [ 6.156325, 48.005184 ], [ 6.156189, 48.006764 ], [ 6.152089, 48.009548 ], [ 6.147019, 48.015521 ], [ 6.138618, 48.017189 ], [ 6.137524, 48.018755 ], [ 6.134864, 48.020011 ], [ 6.131239, 48.019994 ], [ 6.133485, 48.021362 ], [ 6.131306, 48.024135 ], [ 6.121584, 48.020116 ], [ 6.117346, 48.019948 ], [ 6.109451, 48.013814 ], [ 6.109391, 48.012618 ], [ 6.097739, 48.015043 ], [ 6.080887, 48.012947 ], [ 6.073196, 48.015935 ], [ 6.069547, 48.013874 ], [ 6.055706, 48.008823 ], [ 6.041132, 48.004473 ], [ 6.032136, 47.998778 ], [ 6.03063, 47.994595 ], [ 6.032248, 47.991876 ], [ 6.032159, 47.990619 ], [ 6.02495, 47.991829 ], [ 6.024671, 47.987093 ], [ 6.018998, 47.987478 ], [ 6.018291, 47.984079 ], [ 6.022415, 47.9815 ], [ 6.023725, 47.982198 ], [ 6.02608, 47.981358 ], [ 6.022961, 47.97713 ], [ 6.020603, 47.975904 ], [ 6.017283, 47.972497 ], [ 6.019084, 47.969768 ], [ 6.012143, 47.971848 ], [ 6.009464, 47.967072 ], [ 6.008677, 47.967322 ], [ 6.006235, 47.964022 ], [ 6.009331, 47.961314 ], [ 6.005269, 47.95784 ], [ 6.002266, 47.956089 ], [ 5.996971, 47.95702 ], [ 5.995786, 47.958317 ], [ 5.993103, 47.957321 ], [ 5.992151, 47.958071 ], [ 5.989371, 47.956627 ], [ 5.987337, 47.958222 ], [ 5.98398, 47.95621 ], [ 5.981953, 47.957942 ], [ 5.977952, 47.957086 ], [ 5.975648, 47.957958 ], [ 5.970534, 47.957201 ] ] ] ] } }
]
}
